{"type":"Feature","properties":{"GID_2":"SRB.20.2_1","GID_0":"SRB","country":"Serbia","GID_1":"SRB.20_1","province":"Sremski","NL_NAME_1":"Сремски","county":"Irig","VARNAME_2":"NA","NL_NAME_2":"Ириг","TYPE_2":"Opštine","ENGTYPE_2":"Town|Municipal","CC_2":"NA","HASC_2":"NA","name":"Irig.county"},
"geometry":{"type": "MultiPolygon","coordinates": [[[[19.6988,45.1417,479.221],[19.7032,45.1311,333.9597],[19.7092,45.1264,265.696],[19.7106,45.12,293.0312],[19.7147,45.1145,229.1358],[19.7111,45.1015,173.3244],[19.7158,45.0961,198.2801],[19.7096,45.0858,148.6075],[19.7159,45.0801,154.3693],[19.7176,45.0761,148.986],[19.7115,45.066,135.8238],[19.7116,45.062,128.204],[19.7281,45.0495,115.4142],[19.7291,45.0469,114.3334],[19.7292,45.0351,106.0964],[19.7221,45.0244,100.3345],[19.7208,45.0199,99.0745],[19.7214,45.013,95.947],[19.726,45.0087,94.3442],[19.7372,45.0086,94.1594],[19.7461,45.0137,96.538],[19.748,45.0207,105.6243],[19.7478,45.0355,117.7061],[19.7522,45.0488,117.9529],[19.7623,45.0647,134.6588],[19.7717,45.0734,157.0555],[19.7787,45.0765,163.2603],[19.7826,45.0756,169.1272],[19.784,45.0732,164.0637],[19.7851,45.037,127.0852],[19.7832,45.026,118.8279],[19.7763,45.0227,111.8595],[19.7752,45.0202,108.76],[19.7761,45.0175,108.8143],[19.782,45.0175,110.7736],[19.7854,45.0198,113.5853],[19.8119,45.0252,122.0729],[19.8275,45.0328,133.3962],[19.8604,45.04,119.336],[19.8683,45.0381,133.8139],[19.887,45.0288,129.8154],[19.9005,45.025,124.8325],[19.9111,45.0184,113.9504],[19.9149,45.0178,121.3767],[19.9314,45.0197,118.8262],[19.9496,45.0249,115.4873],[19.9623,45.0262,115.6044],[19.9893,45.0342,115.5464],[19.9905,45.0357,118.3874],[19.9844,45.0433,120.7225],[19.9817,45.05,125.8871],[19.9846,45.0601,132.2034],[19.9836,45.0639,136.0823],[19.9681,45.0713,140.0948],[19.9588,45.0861,158.7194],[19.9582,45.0889,160.0309],[19.9628,45.0986,158.4562],[19.9572,45.1082,177.7725],[19.9379,45.1251,198.9896],[19.9126,45.1426,351.4696],[19.898,45.1451,374.4185],[19.8534,45.1479,445.93],[19.8197,45.1482,422.2971],[19.7953,45.1453,296.3423],[19.792,45.1471,315.8309],[19.7731,45.1671,332.0976],[19.7527,45.1545,455.5078],[19.7331,45.1526,470.8765],[19.6988,45.1417,479.221]]]]}}