{"type": "Feature","bbox": [21.9925,43.3257,22.6454,43.7144],"geometry": {"type": "MultiPolygon","coordinates": [[[[22.4028,43.6752,770.9093],[22.3902,43.6874,777.3685],[22.3908,43.6926,788.3101],[22.3754,43.6879,662.2061],[22.3641,43.6824,488.2508],[22.3281,43.6779,331.755],[22.2991,43.6844,224.8225],[22.2864,43.6903,177.5141],[22.2705,43.6932,203.5312],[22.2482,43.6932,248.7281],[22.2303,43.6871,369.8177],[22.2135,43.687,425.9986],[22.1976,43.6993,640.4037],[22.1855,43.7043,964.8915],[22.1763,43.7106,979.7319],[22.1637,43.7144,1025.8921],[22.153,43.7133,982.1199],[22.1135,43.6949,574.7935],[22.1002,43.6996,607.9557],[22.0824,43.6968,835.6545],[22.0581,43.7023,782.6389],[22.0391,43.7138,689.2458],[22.0328,43.7132,668.4376],[22.0291,43.7071,780.4231],[22.0099,43.6966,751.6127],[22.0448,43.6787,747.3608],[22.0512,43.6728,782.6299],[22.0558,43.6515,854.5018],[22.0546,43.6399,640.4119],[22.0648,43.6256,618.8212],[22.063,43.6217,677.9785],[22.0548,43.6143,525.8103],[22.0535,43.6105,573.8792],[22.0621,43.6005,620.2393],[22.0713,43.5946,644.6212],[22.0811,43.5909,605.2136],[22.0823,43.5869,664.4011],[22.0763,43.5835,663.5458],[22.063,43.5814,738.9985],[22.0552,43.5828,703.7301],[22.0394,43.5893,736.3633],[22.0265,43.5873,950.64],[22.0054,43.5778,925.708],[21.9925,43.5558,859.5327],[21.9987,43.5489,645.823],[22.025,43.5339,733.3015],[22.0258,43.5265,707.7057],[22.0223,43.5198,679.7579],[22.0414,43.505,537.7739],[22.0398,43.4989,568.5756],[22.0405,43.496,562.3027],[22.0474,43.4905,549.9038],[22.0565,43.4892,546.7556],[22.0722,43.4928,552.8739],[22.0884,43.4902,415.6858],[22.1039,43.4831,324.0762],[22.1189,43.4791,614.339],[22.1316,43.4704,602.1803],[22.1407,43.4663,627.6559],[22.1661,43.4609,692.3763],[22.1877,43.4632,668.5883],[22.2007,43.4687,696.3041],[22.2119,43.4685,648.3676],[22.2378,43.4601,661.4802],[22.2423,43.4556,633.0123],[22.2425,43.4505,744.5306],[22.2544,43.449,617.8097],[22.2709,43.4384,547.4913],[22.2769,43.4402,590.3969],[22.2922,43.4577,681.0998],[22.2978,43.4595,675.3872],[22.3035,43.4585,683.5778],[22.3222,43.448,697.6984],[22.3398,43.4421,667.4987],[22.3485,43.4334,718.2069],[22.3515,43.4242,751.8256],[22.3508,43.4207,730.0778],[22.3477,43.413,632.3112],[22.340699999999998,43.4047,576.9928],[22.3408,43.3921,666.847],[22.3364,43.3848,671.7469],[22.3373,43.3823,656.9118],[22.3599,43.376,723.7725],[22.3711,43.3698,695.8494],[22.3942,43.3626,794.3827],[22.4142,43.3616,768.5042],[22.4449,43.3448,644.4739],[22.4517,43.3465,485.3312],[22.4689,43.3474,645.0822],[22.4743,43.3512,636.3423],[22.4843,43.366,800.0464],[22.4899,43.3669,821.1943],[22.4956,43.3629,755.467],[22.5051,43.3506,901.749],[22.5154,43.3439,860.278],[22.5246,43.3355,888.8104],[22.5414,43.3293,762.2953],[22.5789,43.3257,1249.6595],[22.5811,43.3294,1235.4995],[22.5776,43.3407,1305.6151],[22.5812,43.3452,1229.5002],[22.6016,43.36,1595.3973],[22.6224,43.3678,1611.2977],[22.6454,43.3892,1534.095],[22.6379,43.3963,1782.809],[22.6376,43.4047,1554.2567],[22.6319,43.4129,1191.6783],[22.6312,43.4188,1373.969],[22.6114,43.427,1443.5894],[22.6032,43.4215,1167.7439],[22.5981,43.4206,1095.4817],[22.5722,43.4273,1032.4163],[22.5659,43.4322,894.042],[22.5651,43.4394,843.5206],[22.5622,43.4447,924.1435],[22.5521,43.4551,1449.6476],[22.5396,43.4551,1375.1638],[22.5314,43.4529,1206.6638],[22.5126,43.4617,913.0334],[22.5112,43.4691,1076.7843],[22.5039,43.4767,951.6643],[22.5025,43.4879,917.071],[22.4953,43.4933,1012.9215],[22.4924,43.497,875.0385],[22.4925,43.5009,994.0085],[22.4851,43.5077,814.7493],[22.4842,43.5136,935.2405],[22.4808,43.5203,930.8031],[22.4822,43.5317,868.827],[22.4749,43.5413,927.7626],[22.4733,43.5457,869.5987],[22.47,43.5478,832.3182],[22.4693,43.5602,895.4349],[22.477,43.5745,978.0138],[22.4764,43.5766,932.027],[22.4704,43.5803,877.5311],[22.4683,43.5844,937.902],[22.4752,43.5945,991.7387],[22.4724,43.5998,1115.9491],[22.4703,43.6099,745.4052],[22.4634,43.6174,581.9068],[22.4738,43.6272,641.9448],[22.4743,43.6322,577.7339],[22.4724,43.6352,542.3911],[22.4674,43.6382,573.7228],[22.4665,43.6436,704.9398],[22.4622,43.6484,580.8828],[22.4413,43.6519,645.9974],[22.4281,43.6591,532.633],[22.4224,43.6657,706.4001],[22.4077,43.6701,728.0603],[22.4027,43.6737,797.9869],[22.4028,43.6752,770.9093]]]]}
,"properties": {"GID_2": "SRB.23.2_1","GID_0": "SRB","country": "Serbia","GID_1": "SRB.23_1","province": "Zaječarski","NL_NAME_1": "Зајечарски","county": "Knjaževac","VARNAME_2": "NA","NL_NAME_2": "Књажевац","TYPE_2": "Opštine","ENGTYPE_2": "Town|Municipal","CC_2": "NA","HASC_2": "NA","name": "Knjaževac.county","area_km2": 1143.1872,"hist_schema_id": "Elevation0-9000","hist_area_km2": {"175": 5.5361,"200": 16.0354,"225": 20.0674,"250": 19.3312,"275": 24.4311,"300": 28.9324,"325": 32.864,"350": 35.835,"375": 37.9593,"400": 40.4065,"425": 40.1618,"450": 39.4751,"475": 41.9057,"500": 45.1064,"525": 46.8316,"550": 48.8816,"575": 48.2888,"600": 52.4148,"625": 52.2954,"650": 50.7588,"675": 48.7458,"700": 45.1016,"725": 39.7176,"750": 36.2254,"775": 33.3016,"800": 30.9772,"825": 28.778,"850": 24.4254,"875": 20.5977,"900": 16.9708,"925": 15.0179,"950": 11.8973,"975": 8.317,"1000": 6.3964,"1025": 5.2287,"1050": 4.5226,"1075": 4.107,"1100": 3.3705,"1125": 2.7559,"1150": 2.449,"1175": 1.9567,"1200": 2.2494,"1225": 2.0955,"1250": 1.6948,"1275": 1.8337,"1300": 1.8644,"1325": 1.0941,"1350": 1.2172,"1375": 0.9553,"1400": 0.8321,"1425": 0.8782,"1450": 1.1249,"1475": 1.1867,"1500": 1.1712,"1525": 0.8322,"1550": 0.7552,"1575": 0.786,"1600": 0.7552,"1625": 0.8631,"1650": 0.709,"1675": 0.5086,"1700": 0.3544,"1725": 0.3699,"1750": 0.3236,"1775": 0.1079,"1800": 0.0924,"1825": 0.1387,"1850": 0.0154}}}