{"type":"Feature","properties":{"GID_2":"SRB.17.3_1","GID_0":"SRB","country":"Serbia","GID_1":"SRB.17_1","province":"Severno-Bački","NL_NAME_1":"Севернобачки","county":"Subotica","VARNAME_2":"Szabadka","NL_NAME_2":"Суботица","TYPE_2":"Opštine","ENGTYPE_2":"Town|Municipal","CC_2":"NA","HASC_2":"NA","name":"Subotica.county"},
"geometry":{"type": "MultiPolygon","coordinates": [[[[19.2973,46.0232,126.7531],[19.312,46.012,122.3198],[19.3246,45.9941,118.2821],[19.3282,45.9922,119.7594],[19.3383,45.9913,122.263],[19.3408,45.9894,120.2071],[19.3391,45.9756,116.9691],[19.3461,45.9617,118.766],[19.3754,45.9703,118.3519],[19.4212,45.9709,117.0297],[19.4438,45.9655,115.7242],[19.4764,45.9549,114.2479],[19.501,45.9442,113.4094],[19.5128,45.9325,115.4446],[19.523,45.9257,114.6014],[19.5241,45.9215,115.1384],[19.5214,45.913,113.9801],[19.5245,45.9033,114.6532],[19.5324,45.8943,113.8206],[19.5431,45.8879,112.4402],[19.5495,45.8874,112.4507],[19.5564,45.8892,112.0264],[19.6544,45.9241,108.0708],[19.6673,45.9265,107.9952],[19.6734,45.9217,107.2144],[19.6773,45.9045,106.5815],[19.677,45.8949,107.3817],[19.6839,45.8836,107.5512],[19.6945,45.8753,106.3291],[19.7114,45.8688,104.8466],[19.7151,45.8723,105.8164],[19.7147,45.8795,106.4276],[19.7163,45.8838,106.3409],[19.7253,45.8898,106.5624],[19.772,45.9049,94.6323],[19.8073,45.9213,107.7392],[19.8075,45.9255,106.3311],[19.8003,45.9417,106.2181],[19.7995,45.9485,106.31],[19.8038,45.9625,106.1556],[19.7992,45.9874,105.7045],[19.8026,45.9972,107.5205],[19.8029,46.0039,108.3261],[19.8066,46.0097,107.0989],[19.8079,46.0163,106.1747],[19.8212,46.0324,105.9799],[19.8279,46.0384,104.6275],[19.8417,46.0446,102.8866],[19.8464,46.049,102.6393],[19.8499,46.0602,100.8447],[19.8575,46.0713,100.3805],[19.8579,46.0842,101.3427],[19.8597,46.0907,102.5657],[19.8593,46.0949,103.1183],[19.8517,46.113,99.9948],[19.8516,46.1174,101.0049],[19.8569,46.124,101.451],[19.8751,46.1343,95.7356],[19.8804,46.1444,102.5383],[19.8767,46.1508,99.6626],[19.8713,46.1542,99.5581],[19.8511,46.152,122.6806],[19.841,46.144,103.5853],[19.8164,46.1303,105.1915],[19.7987,46.1376,104.5801],[19.7932,46.1414,104.6639],[19.7781,46.1462,105.5485],[19.7573,46.1486,108.2508],[19.7394,46.1681,112.3619],[19.7323,46.1717,111.0589],[19.7271,46.1699,111.1867],[19.7198,46.1717,113.1909],[19.7147,46.1743,111.2776],[19.7114,46.1801,111.5662],[19.6968,46.1884,114.5461],[19.6816,46.1799,117.3024],[19.6577,46.1894,126.2915],[19.6294,46.1709,127.2242],[19.5637,46.1808,140.8444],[19.5561,46.1767,135.574],[19.5605,46.1714,143.4571],[19.5262,46.1501,129.0208],[19.5157,46.154,130.3897],[19.5018,46.1441,133.9708],[19.5033,46.136,131.0619],[19.5214,46.1223,126.6873],[19.5147,46.1174,125.2457],[19.4935,46.1106,128.5182],[19.462,46.0971,137.4461],[19.4635,46.0836,132.7596],[19.4485,46.0774,144.5262],[19.4259,46.0618,129.5487],[19.4182,46.0561,129.9164],[19.4119,46.0478,133.3807],[19.3788,46.0377,125.2104],[19.3665,46.0555,123.4861],[19.2973,46.0232,126.7531]]]]}}