{"type": "Feature","bbox": [21.4543,43.5771,21.7039,43.8029],"geometry": {"type": "MultiPolygon","coordinates": [[[[21.6839,43.698,524.1372],[21.6838,43.7026,576.8022],[21.6988,43.7117,752.2976],[21.7005,43.7167,822.8134],[21.6907,43.7284,679.1935],[21.675,43.7359,507.3932],[21.6738,43.7397,440.5296],[21.6807,43.7466,399.947],[21.694,43.7499,550.6369],[21.7039,43.7563,514.4415],[21.6866,43.7724,577.5201],[21.6643,43.7841,393.7585],[21.646,43.8029,667.2089],[21.6327,43.7972,376.1071],[21.6111,43.7911,468.3241],[21.6016,43.7912,451.449],[21.5875,43.795,274.4705],[21.575,43.7946,315.2685],[21.5473,43.7896,301.3964],[21.5211,43.7744,235.8216],[21.5087,43.7708,200.2746],[21.4846,43.7605,299.7057],[21.4659,43.7494,169.5374],[21.4715,43.741,158.1424],[21.4743,43.73,257.7039],[21.4766,43.727,225.741],[21.4842,43.7235,260.6878],[21.4965,43.7215,338.7352],[21.5026,43.7173,326.5934],[21.5089,43.6985,274.0421],[21.5044,43.6923,300.7593],[21.4947,43.688,208.2578],[21.489,43.6874,279.9103],[21.4787,43.6891,204.9661],[21.4736,43.6872,226.5155],[21.4718,43.6846,203.3298],[21.4721,43.6777,158.1883],[21.4702,43.6736,154.1025],[21.4614,43.6649,259.7932],[21.4554,43.6619,259.4392],[21.4543,43.6586,274.2139],[21.4564,43.655,257.9116],[21.4669,43.6485,194.1782],[21.4726,43.6383,296.8422],[21.4755,43.6291,347.3179],[21.4743,43.6159,300.2201],[21.4755,43.612,241.5506],[21.4788,43.6098,192.5611],[21.4924,43.6065,144.3495],[21.491,43.6035,159.3114],[21.4788,43.5956,286.2441],[21.4787,43.5917,251.2255],[21.481,43.5863,256.6068],[21.514,43.5771,214.4941],[21.5281,43.5872,393.7594],[21.5406,43.59,296.8746],[21.5473,43.5931,192.5537],[21.5554,43.6084,147.8054],[21.5626,43.6137,148.6641],[21.5669,43.6142,149.1726],[21.5805,43.6101,149.0429],[21.5973,43.611,172.3592],[21.6049,43.6128,183.6184],[21.6206,43.6211,214.0809],[21.6262,43.6284,247.6607],[21.629,43.6391,334.0771],[21.6266,43.6495,323.4917],[21.6163,43.6615,387.8534],[21.6173,43.6668,392.8557],[21.6402,43.6822,738.6332],[21.6839,43.698,524.1372]]]]}
,"properties": {"GID_2": "SRB.10.6_1","GID_0": "SRB","country": "Serbia","GID_1": "SRB.10_1","province": "Nišavski","NL_NAME_1": "Нишавски","county": "Ražanj","VARNAME_2": "NA","NL_NAME_2": "Ражањ","TYPE_2": "Opštine","ENGTYPE_2": "Town|Municipal","CC_2": "NA","HASC_2": "NA","name": "Ražanj.county","area_km2": 298.891,"hist_schema_id": "Elevation0-9000","hist_area_km2": {"125": 0.3375,"150": 18.1093,"175": 12.9884,"200": 20.0984,"225": 25.8766,"250": 31.5173,"275": 32.483,"300": 28.3417,"325": 21.4914,"350": 16.8155,"375": 13.8866,"400": 11.0342,"425": 8.9788,"450": 8.0737,"475": 5.7443,"500": 4.519,"525": 4.3502,"550": 3.9676,"575": 3.9983,"600": 3.9831,"625": 4.0754,"650": 3.2174,"675": 2.9568,"700": 2.7887,"725": 1.7165,"750": 1.5021,"775": 1.2262,"800": 1.4408,"825": 1.3028,"850": 1.0423,"875": 0.5978,"900": 0.3985,"925": 0.0306}}}