{"type":"Feature","properties":{"GID_1":"SRB.5_1","GID_0":"SRB","country":"Serbia","province":"Južno-Bački","VARNAME_1":"SouthBačka","NL_NAME_1":"Јужнобачки","TYPE_1":"Okrug","ENGTYPE_1":"District","CC_1":"NA","HASC_1":"RS.JC","ISO_1":"NA","name":"Južno-Bački.province"},
"geometry":{"type": "MultiPolygon","coordinates": [[[[19.9822,45.1794,74.0],[20.0163,45.1952,80.6943],[20.0239,45.1858,78.2218],[20.0251,45.1812,74.2774],[20.0233,45.1751,73.5],[20.0153,45.1655,132.2917],[20.0165,45.1607,185.398],[20.0241,45.1571,140.7535],[20.0397,45.1587,179.0632],[20.0534,45.1548,157.5667],[20.0586,45.1554,162.1622],[20.0762,45.1648,134.9246],[20.0795,45.1698,73.0],[20.0798,45.1781,75.4447],[20.1101,45.1773,75.2717],[20.1402,45.1685,137.3466],[20.1775,45.1692,182.0273],[20.1976,45.1614,245.6963],[20.2481,45.1254,131.658],[20.2635,45.1199,133.2516],[20.2677,45.124,140.315],[20.2691,45.1286,99.177],[20.2582,45.1457,70.5],[20.2561,45.1526,75.9719],[20.2603,45.1633,72.381],[20.2645,45.1863,71.9857],[20.2677,45.1932,71.0537],[20.2847,45.2034,84.7812],[20.2877,45.2091,91.7377],[20.2879,45.2174,118.3927],[20.2859,45.2242,117.2044],[20.2553,45.2667,122.0986],[20.2503,45.2707,122.5685],[20.2327,45.2762,119.8485],[20.2215,45.2905,76.3416],[20.2221,45.2936,72.1458],[20.2254,45.2961,72.7981],[20.2489,45.2992,73.1457],[20.2535,45.3011,73.9128],[20.2525,45.3047,77.2161],[20.2375,45.3124,77.6416],[20.2385,45.3143,73.2288],[20.2485,45.317,70.0],[20.2537,45.3203,83.2093],[20.2543,45.3231,74.5212],[20.2519,45.3278,70.0],[20.2418,45.3349,73.328],[20.2325,45.337,71.552],[20.2258,45.335,73.5997],[20.213,45.3242,72.8655],[20.2019,45.3241,72.0939],[20.1958,45.3286,72.5603],[20.1952,45.3329,72.7904],[20.198,45.3381,73.1232],[20.2126,45.3465,71.6808],[20.2001,45.3553,74.6464],[20.2064,45.3651,73.0221],[20.2063,45.3696,77.2711],[20.1935,45.3742,73.295],[20.1898,45.3775,73.4443],[20.1904,45.381,73.3146],[20.195,45.3863,75.0841],[20.2108,45.3949,75.2539],[20.2145,45.3989,77.8151],[20.2052,45.408,72.6531],[20.2072,45.4201,72.7978],[20.2057,45.4253,71.6452],[20.2016,45.4285,72.7868],[20.1948,45.4294,72.8976],[20.1851,45.4257,72.9009],[20.1757,45.4174,72.8372],[20.1593,45.4184,72.433],[20.1447,45.4146,73.0545],[20.1053,45.4225,73.775],[20.0974,45.426,73.6945],[20.0945,45.4291,73.2434],[20.0921,45.4364,73.217],[20.0945,45.4419,73.292],[20.1312,45.4537,73.3292],[20.1577,45.4646,73.618],[20.1563,45.4678,73.8273],[20.1468,45.4738,72.8859],[20.1304,45.4941,74.6889],[20.0983,45.515,73.7533],[20.0835,45.5168,74.5081],[20.0763,45.5148,73.4561],[20.0723,45.5096,73.2923],[20.0762,45.5007,73.3136],[20.0745,45.4955,73.6695],[20.0593,45.4888,74.5794],[20.0455,45.4793,78.3976],[20.0393,45.4803,79.8177],[20.0372,45.483,79.1314],[20.0372,45.4876,78.7488],[20.0422,45.499,78.6389],[20.0435,45.511,73.3281],[20.0514,45.5295,73.4269],[20.0492,45.5358,73.767],[20.0392,45.5444,74.5947],[20.0395,45.5489,73.8981],[20.0434,45.5556,75.0559],[20.0471,45.5577,74.7429],[20.0639,45.5603,74.8279],[20.0784,45.5644,73.72],[20.0925,45.5733,74.2447],[20.1115,45.5786,74.954],[20.118,45.5822,74.0046],[20.1206,45.5855,73.9582],[20.1194,45.5921,75.7339],[20.1145,45.596,70.0],[20.1103,45.5969,70.0],[20.102,45.5959,73.8732],[20.0768,45.5863,81.9161],[20.0629,45.5879,75.1883],[20.0531,45.5912,75.0126],[20.0459,45.598,76.6558],[20.0427,45.6054,81.3094],[20.0428,45.609,81.0657],[20.0472,45.613,82.2169],[20.0642,45.6182,76.956],[20.0671,45.6206,76.1769],[20.067,45.6231,76.355],[20.0577,45.6282,75.7372],[20.0292,45.6313,81.3933],[20.0234,45.6341,80.9002],[20.0209,45.6373,80.8489],[20.0234,45.6437,79.1886],[20.0334,45.6523,80.0774],[20.0412,45.656,74.2137],[20.051,45.6576,73.7615],[20.0716,45.6547,74.3802],[20.0926,45.6586,75.4328],[20.0975,45.6616,74.8255],[20.0962,45.6663,74.7948],[20.0866,45.6737,74.2269],[20.0759,45.6858,74.8136],[20.0839,45.704,81.8408],[20.0838,45.7125,80.2432],[20.0879,45.7162,79.765],[20.092,45.7171,81.089],[20.1085,45.7155,75.08],[20.1203,45.7171,74.6305],[20.1111,45.7276,74.7823],[20.0989,45.7346,79.815],[20.0853,45.7461,79.5803],[20.074,45.7511,79.9382],[20.0525,45.7544,80.7312],[19.9923,45.7556,88.2246],[19.976,45.7627,88.2161],[19.9503,45.769,89.5915],[19.9311,45.7705,92.5886],[19.9124,45.7747,95.1949],[19.8932,45.7752,99.3652],[19.8606,45.7722,94.9633],[19.8462,45.7634,97.6874],[19.8236,45.7571,97.3364],[19.7939,45.7558,94.8214],[19.7674,45.7494,100.9301],[19.7498,45.7415,101.8292],[19.7586,45.7269,100.6595],[19.7595,45.7206,99.3925],[19.751,45.7069,98.7001],[19.7522,45.7035,97.9119],[19.7566,45.6998,96.3171],[19.7547,45.6909,97.3046],[19.7437,45.6781,95.4058],[19.7372,45.6656,96.9589],[19.7366,45.6546,95.9067],[19.7394,45.6414,94.0599],[19.737,45.6362,93.1892],[19.7073,45.6231,89.2451],[19.6842,45.618899999999996,89.0687],[19.6583,45.6321,94.6796],[19.6301,45.6396,99.8663],[19.6084,45.6515,100.565],[19.5865,45.66,105.4882],[19.5775,45.6476,103.4194],[19.5736,45.6389,102.5557],[19.5625,45.6301,104.6939],[19.5568,45.6227,99.5624],[19.5572,45.617,89.7389],[19.564,45.6036,82.6617],[19.5609,45.5845,81.9574],[19.5576,45.582,81.5363],[19.5486,45.5799,81.4589],[19.5315,45.5802,82.6589],[19.5247,45.5782,81.9566],[19.5195,45.5717,83.4092],[19.5165,45.5584,81.5409],[19.5035,45.5435,80.4997],[19.4876,45.5359,81.9717],[19.4778,45.5341,81.8603],[19.4497,45.5474,81.7522],[19.4401,45.5493,81.8252],[19.4321,45.5471,81.6521],[19.421,45.5415,82.4331],[19.3945,45.5357,82.1506],[19.3959,45.5249,82.874],[19.399,45.5195,82.3114],[19.3994,45.5079,81.7781],[19.388,45.5062,83.2831],[19.3707,45.5004,83.0252],[19.3584,45.4944,82.7493],[19.3558,45.4917,82.5897],[19.3551,45.4851,82.1039],[19.3576,45.4682,82.5116],[19.3661,45.4579,82.952],[19.3683,45.4524,84.2744],[19.3643,45.4384,84.3079],[19.3391,45.443,83.7512],[19.327,45.4437,84.2365],[19.3155,45.4431,84.3236],[19.3022,45.4392,83.8186],[19.2974,45.4393,84.2026],[19.2904,45.4422,84.8781],[19.2744,45.4571,84.0723],[19.2681,45.4594,83.863],[19.2611,45.456,83.7825],[19.2583,45.4513,84.7411],[19.2572,45.4453,85.1173],[19.2545,45.4433,84.7485],[19.2367,45.4427,84.6152],[19.2217,45.438,81.6846],[19.1927,45.4343,81.9564],[19.1873,45.4384,82.8505],[19.1859,45.4467,90.0986],[19.1814,45.4521,92.7688],[19.1596,45.4609,81.6964],[19.1522,45.4616,91.6069],[19.1354,45.4572,79.1149],[19.1129,45.4582,79.7622],[19.1053,45.4619,78.7042],[19.0997,45.473,78.4499],[19.0966,45.4751,78.5977],[19.0792,45.4769,84.9665],[19.0565,45.4885,86.5338],[19.0482,45.4879,109.2611],[19.0361,45.4816,99.0151],[19.0322,45.4822,87.8246],[19.0192,45.4909,77.0],[19.0178,45.4966,85.0535],[18.9972,45.5044,101.7835],[18.988,45.494,88.5513],[18.9817,45.4594,86.4444],[19.006,45.4386,86.5161],[19.0116,45.4286,89.4922],[19.0117,45.4195,84.1327],[18.9981,45.4139,87.5942],[18.9793,45.4113,87.5435],[18.968,45.4022,89.1112],[18.9667,45.3907,88.579],[18.9815,45.377,79.5168],[19.0013,45.3643,81.3568],[19.0164,45.3577,93.9651],[19.0496,45.3541,78.2817],[19.0765,45.3477,79.671],[19.0853,45.3311,75.8498],[19.0877,45.3185,83.0859],[19.0914,45.3093,92.8942],[19.1611,45.2801,80.5412],[19.2049,45.2667,86.4665],[19.2219,45.26,85.8375],[19.2715,45.247,79.7494],[19.3399,45.2411,86.5876],[19.4021,45.2398,87.6255],[19.4155,45.2303,78.3996],[19.4166,45.2184,104.0358],[19.4352,45.2073,133.3022],[19.4204,45.1962,160.6957],[19.4192,45.1854,205.6202],[19.4028,45.1796,239.5827],[19.3836,45.1817,206.7216],[19.4171,45.1496,203.5857],[19.4255,45.1464,210.1495],[19.4324,45.1482,162.7997],[19.4481,45.1636,179.815],[19.4467,45.1666,172.9667],[19.4483,45.17,208.1758],[19.4609,45.1742,216.4292],[19.4766,45.1678,206.2475],[19.504,45.1657,211.9102],[19.5125,45.1596,251.8775],[19.5294,45.1559,233.0407],[19.5428,45.1488,305.7834],[19.5649,45.1465,333.9303],[19.6001,45.1384,403.4359],[19.6284,45.142,418.7462],[19.6988,45.1417,479.221],[19.7331,45.1526,470.8765],[19.7527,45.1545,455.5078],[19.7731,45.1671,332.0976],[19.792,45.1471,315.8309],[19.7953,45.1453,296.3423],[19.8197,45.1482,422.2971],[19.8534,45.1479,445.93],[19.898,45.1451,374.4185],[19.9126,45.1426,351.4696],[19.9542,45.1481,249.3178],[19.9734,45.1558,240.7587],[19.9815,45.1619,247.5952],[19.9732,45.1698,151.1949],[19.9722,45.1725,121.1186],[19.9822,45.1794,74.0]]]]}}