{"type":"Feature","properties":{"featurecla":"River","scalerank":6,"rivernum":363,"dissolve":"363River","name":"Tisa1","name_alt":null,"note":null,"min_zoom":5.0,"strokeweig":0.3,"name_en":"Tisa","min_label":6.0},
"geometry":{"type": "LineString","coordinates": [[20.057861328125,46.13568756718162,78.4072],[20.063134765625023,46.12348053593162,83.2576],[20.058251953125023,46.11188385624412,81.3919],[20.0478515625,46.10199616093162,77.8349],[20.036767578125023,46.094745184369117,80.4536],[20.079736328125023,46.066669012494117,77.6975],[20.085839843750023,46.05658600468162,80.6794],[20.081201171875023,46.040887762494116,79.0378],[20.0693359375,46.03009674686912,77.3273],[20.053613281250023,46.02472565311912,76.1337],[20.036767578125023,46.02521393436912,75.9579],[20.045068359375023,46.01227448124412,78.0],[20.056542968750023,46.003778387494116,77.4701],[20.071044921875,45.999286199994117,77.0246],[20.0888671875,45.997919012494116,82.2625],[20.094384765625023,45.99262116093162,78.6285],[20.097412109375,45.979510809369117,70.0],[20.098876953125,45.94733307499412,74.4131],[20.104248046875,45.93561432499412,76.9274],[20.128173828125,45.91168854374412,76.1229],[20.133544921875,45.89887116093162,78.0288],[20.126123046875023,45.88690827030662,77.4891],[20.09326171875,45.87323639530662,80.8268],[20.085839843750023,45.86444733280662,80.7724],[20.093017578125,45.851678778119116,75.8276],[20.109619140625,45.842157293744116,75.749],[20.1279296875,45.834344793744116,76.0438],[20.140380859375,45.82660553593162,78.2591],[20.149169921875,45.81073639530662,74.4536],[20.148193359375,45.798358465619117,82.3468],[20.144775390625,45.78473541874412,70.0],[20.146630859375023,45.765155340619117,70.0],[20.153710937500023,45.75531647343162,72.037],[20.16162109375,45.74909088749412,77.8876],[20.162109375,45.74249909061912,79.5092],[20.146630859375023,45.73163483280662,74.7803],[20.134912109375023,45.72809479374412,74.577],[20.103271484375,45.722284246869116,74.9181],[20.092041015625,45.71735260624412,81.089],[20.099853515625,45.69513580936912,70.0],[20.104882812500023,45.67462799686912,75.4876],[20.101806640625,45.65314362186912,76.563],[20.085839843750023,45.62799713749412,75.0299],[20.064111328125023,45.61029694218162,70.0],[20.062890625000023,45.603387762494116,75.9435],[20.082177734375023,45.60065338749412,75.205],[20.111230468750023,45.601922918744116,77.0248],[20.121728515625023,45.598260809369116,77.086],[20.126123046875023,45.58698151249412,75.0554],[20.121972656250023,45.581561590619117,76.872],[20.112548828125,45.574237371869117,74.216],[20.10302734375,45.563836981244116,84.4507],[20.098876953125,45.54913971561912,83.5333],[20.10302734375,45.537616278119117,76.3127],[20.112939453125023,45.52716705936912,74.2364],[20.206445312500023,45.46564362186912,78.5085],[20.229736328125,45.442987371869116,75.9678],[20.201904296875,45.39520905155662,76.1288],[20.21435546875,45.37958405155662,86.5912],[20.248291015625,45.355585028119116,71.8297],[20.263916015625,45.340594793744117,73.6475],[20.253564453125023,45.33417389530662,73.6739],[20.2470703125,45.32465241093162,72.8801],[20.241943359375,45.314569403119116,75.8323],[20.235986328125023,45.30646393436912,76.6787],[20.252343750000023,45.286981512494116,73.9503],[20.301416015625023,45.258563543744117,72.5],[20.311767578125,45.234149481244117,75.1455],[20.318603515625,45.209247137494117,79.0276],[20.316552734375023,45.195672918744116,74.9935],[20.288818359375,45.18366119999412,72.5731],[20.28369140625,45.169549871869116,73.1088],[20.281494140625,45.15363190311912,70.0],[20.277587890625,45.14203522343162,73.4625]]}}