{"type": "Feature","id": "1059","bbox": [18.97593,45.13818,20.31858,45.77519],"geometry": {"type": "Polygon","coordinates": [[[20.11415,45.72429,74.5331],[20.11255,45.7262,74.5294],[20.11105,45.72755,74.7823],[20.10428,45.73116,79.595],[20.09886,45.73462,79.815],[20.09452,45.73804,79.583],[20.08935,45.74305,79.6112],[20.08527,45.7461,79.5803],[20.08253,45.7477,79.4535],[20.07808,45.74961,79.9145],[20.07395,45.75106,79.9382],[20.0709,45.75176,79.7425],[20.06025,45.75375,80.7421],[20.05255,45.75444,80.7312],[20.00413,45.75473,87.6574],[19.99618,45.75506,88.4803],[19.99235,45.75555,88.2246],[19.98755,45.75692,88.5799],[19.97597,45.76274,88.2161],[19.97122,45.76418,88.615],[19.96171,45.76591,88.1696],[19.95029,45.76899,89.5915],[19.94662,45.76956,90.4729],[19.93106,45.77051,92.5886],[19.92739,45.77108,93.9454],[19.91592,45.77416,94.3724],[19.91236,45.77473,95.1949],[19.90486,45.77519,93.998],[19.89318,45.77516,99.3652],[19.88554,45.77452,95.1125],[19.87892,45.77333,96.9435],[19.87474,45.77292,88.3474],[19.86063,45.77222,94.9633],[19.85903,45.77163,94.7601],[19.85572,45.76982,96.1008],[19.84616,45.76336,97.6874],[19.8429,45.76204,96.6351],[19.83184,45.75979,97.0807],[19.82363,45.7571,97.3364],[19.82011,45.75654,96.5986],[19.81272,45.7562,92.4741],[19.79758,45.75607,94.5541],[19.79397,45.75581,94.8214],[19.79045,45.75524,94.9669],[19.78223,45.75258,98.3191],[19.77257,45.7508,100.1547],[19.7674,45.74935,100.9301],[19.74983,45.7415,101.8292],[19.75469,45.73266,101.4092],[19.75862,45.72687,100.6595],[19.75945,45.72377,100.5931],[19.75945,45.72059,99.4251],[19.75872,45.71752,99.1835],[19.75541,45.71251,97.1601],[19.75175,45.70837,98.8608],[19.75097,45.70693,98.7001],[19.75113,45.70517,99.1946],[19.75221,45.70346,97.9119],[19.75392,45.70184,96.7717],[19.75655,45.69985,96.3171],[19.75562,45.69359,96.4871],[19.75469,45.69085,97.3046],[19.75335,45.68837,97.6679],[19.74746,45.68253,97.6211],[19.74368,45.67809,95.4058],[19.74043,45.67308,96.7061],[19.73722,45.66564,96.9589],[19.7366,45.66295,94.8945],[19.7364,45.66021,96.1821],[19.7366,45.65455,95.9067],[19.73769,45.64905,95.0374],[19.73888,45.64592,95.9367],[19.73934,45.64367,94.1942],[19.73939,45.6414,94.0599],[19.73893,45.63923,93.436],[19.73815,45.63763,93.5598],[19.73697,45.63621,93.1892],[19.73536,45.63499,94.1407],[19.73164,45.63303,93.3693],[19.72487,45.63045,92.1765],[19.71759,45.62807,85.0075],[19.71542,45.62714,87.6719],[19.70963,45.62404,91.2885],[19.7073,45.62316,89.2451],[19.70477,45.62244,90.933],[19.69909,45.6213,89.3445],[19.6842,45.61892,89.0687],[19.67645,45.62337,90.235],[19.66157,45.6307,92.8765],[19.65826,45.63215,94.6796],[19.65408,45.63375,95.8145],[19.65103,45.63455,96.6772],[19.64364,45.63639,99.2193],[19.63429,45.6382,98.7612],[19.6301,45.63964,99.8663],[19.62555,45.64156,99.8368],[19.62271,45.64308,97.4009],[19.61377,45.64869,99.4761],[19.60845,45.65145,100.565],[19.59997,45.65455,103.3851],[19.58654,45.66,105.4882],[19.57744,45.6476,103.4194],[19.5746,45.64063,101.7768],[19.57357,45.63892,102.5557],[19.57227,45.63742,103.5543],[19.56463,45.63215,100.5758],[19.56245,45.63013,104.6939],[19.55791,45.62461,100.521],[19.55682,45.62275,99.5624],[19.55636,45.62063,98.6413],[19.55662,45.61851,98.4902],[19.55718,45.61704,89.7389],[19.56008,45.61148,98.7521],[19.56323,45.60704,83.7227],[19.5638,45.60564,83.7227],[19.56406,45.60357,82.6617],[19.56318,45.59781,83.461],[19.56251,45.58921,83.0738],[19.56194,45.58655,81.5183],[19.5609,45.5845,81.9574],[19.55925,45.58285,81.7916],[19.5576,45.58202,81.5363],[19.55563,45.58143,81.256],[19.54861,45.57988,81.4589],[19.54215,45.57949,81.861],[19.53155,45.58016,82.6589],[19.52928,45.57996,82.6163],[19.52721,45.57939,82.4118],[19.52468,45.57815,81.9566],[19.52266,45.57647,81.9221],[19.52117,45.57458,82.0585],[19.51951,45.57169,83.4092],[19.51884,45.56947,83.6607],[19.51781,45.56236,81.7403],[19.51724,45.56006,81.7195],[19.51646,45.55836,81.5409],[19.51543,45.55681,81.3729],[19.51016,45.5513,81.4229],[19.50664,45.54611,80.8465],[19.50525,45.54471,80.6982],[19.50354,45.54353,80.4997],[19.49796,45.54058,81.4705],[19.48758,45.53593,81.9717],[19.48277,45.53448,81.5513],[19.4807,45.53412,81.6382],[19.47781,45.53409,81.8603],[19.47548,45.53448,81.8533],[19.47331,45.53515,81.8276],[19.47145,45.53603,82.0018],[19.46453,45.54068,82.3293],[19.46246,45.54177,82.2851],[19.4497,45.54738,81.7522],[19.44489,45.54885,81.5973],[19.44288,45.54921,81.7611],[19.44009,45.54926,81.8252],[19.43616,45.54849,81.589],[19.43213,45.54714,81.6521],[19.42598,45.54363,82.3913],[19.42314,45.54221,82.4501],[19.42096,45.54151,82.4331],[19.41197,45.53975,83.0804],[19.39451,45.53567,82.1506],[19.3959,45.52487,82.874],[19.39626,45.52404,82.874],[19.39849,45.5212,82.4315],[19.39905,45.5195,82.3114],[19.39942,45.50787,81.7781],[19.39425,45.50735,83.0261],[19.388,45.50621,83.2831],[19.37074,45.50032,83.0252],[19.35838,45.49443,82.7493],[19.35699,45.49345,82.4818],[19.3558,45.49172,82.5897],[19.35523,45.48968,82.6813],[19.35513,45.48513,82.1039],[19.35539,45.48281,82.2768],[19.35699,45.47743,83.267],[19.35735,45.47526,83.2709],[19.35714,45.4702,83.3834],[19.35761,45.46818,82.5116],[19.3589,45.46611,82.2621],[19.36464,45.45999,83.3813],[19.36614,45.4579,82.952],[19.36784,45.4548,82.8718],[19.36836,45.45242,84.2744],[19.36825,45.44994,84.1898],[19.36784,45.44792,84.0295],[19.365,45.44113,83.9264],[19.36428,45.43842,84.3079],[19.34603,45.4419,84.3579],[19.33911,45.44301,83.7512],[19.33508,45.44343,83.3553],[19.32702,45.44366,84.2365],[19.31921,45.44348,84.2909],[19.31544,45.44312,84.3236],[19.31193,45.44242,83.9273],[19.30536,45.44002,83.9933],[19.30216,45.43916,83.8186],[19.29932,45.43904,84.4402],[19.29735,45.43935,84.2026],[19.29307,45.44069,83.844],[19.29043,45.44221,84.8781],[19.28831,45.4442,84.3903],[19.28413,45.44932,85.0284],[19.27441,45.45712,84.0723],[19.271,45.45888,83.619],[19.26811,45.45934,83.863],[19.26532,45.45888,84.2516],[19.26299,45.45769,83.7235],[19.26108,45.45601,83.7825],[19.25968,45.45413,84.0909],[19.25829,45.45133,84.7411],[19.25772,45.44663,84.6261],[19.25715,45.44529,85.1173],[19.25612,45.4441,85.1173],[19.25452,45.44327,84.7485],[19.2526,45.4427,84.9312],[19.24981,45.44245,85.0998],[19.24687,45.44255,85.3048],[19.24268,45.44301,85.3223],[19.23968,45.44307,85.4151],[19.23669,45.44276,84.6152],[19.234,45.44201,85.3693],[19.22878,45.44007,82.8778],[19.22175,45.43795,81.6846],[19.21798,45.43733,81.5574],[19.20604,45.43637,82.2863],[19.20232,45.43578,83.4466],[19.1971,45.43441,81.7703],[19.19467,45.43407,81.7092],[19.19276,45.43426,81.9564],[19.191,45.4349,82.4214],[19.18951,45.43588,83.7247],[19.18734,45.43842,82.8505],[19.18666,45.43976,82.0146],[19.18625,45.44177,81.8012],[19.1863,45.44464,90.3028],[19.18589,45.44668,90.0986],[19.18424,45.44942,93.181],[19.18139,45.45214,92.7688],[19.17747,45.45413,89.8867],[19.15964,45.46089,81.6964],[19.15695,45.46151,80.9766],[19.15499,45.46175,81.4205],[19.1522,45.46157,91.6069],[19.14904,45.46069,91.6852],[19.14253,45.45829,82.0604],[19.13902,45.45759,81.7828],[19.13535,45.45723,79.1149],[19.12383,45.45702,78.5719],[19.11633,45.45748,78.6116],[19.11287,45.45816,79.7622],[19.11085,45.45883,79.0703],[19.10703,45.46069,78.7042],[19.10533,45.46193,78.7042],[19.10403,45.46338,78.8721],[19.10305,45.46498,78.9583],[19.10062,45.47151,78.9272],[19.09964,45.47299,78.4499],[19.0983,45.47423,78.9411],[19.09659,45.47511,78.5977],[19.09458,45.47562,78.6321],[19.09184,45.47583,79.1915],[19.08481,45.47562,80.8746],[19.08186,45.47604,89.3098],[19.07918,45.47689,84.9665],[19.06972,45.48144,101.6728],[19.06094,45.48715,77.0],[19.05882,45.48797,84.8319],[19.05654,45.48849,86.5338],[19.05349,45.48872,97.322],[19.0505,45.48846,103.6362],[19.04827,45.48792,109.2611],[19.04616,45.48709,97.4966],[19.03887,45.48234,80.3798],[19.03613,45.48162,99.0151],[19.03412,45.48172,97.6877],[19.0322,45.48224,87.8246],[19.02972,45.48363,83.524],[19.02492,45.48725,77.9738],[19.01918,45.49092,77.0],[19.01784,45.49288,77.0],[19.01758,45.49454,77.0],[19.01784,45.4966,85.0535],[19.01793,45.49781,84.4472],[19.00962,45.49867,77.0],[18.99639,45.47381,92.1551],[19.00301,45.45537,79.9036],[19.01226,45.44847,79.514],[19.03163,45.43402,78.389],[19.03742,45.42229,79.8085],[19.02864,45.41216,77.0],[18.97593,45.39496,76.0],[18.98874,45.37925,78.9265],[19.00363,45.36612,79.293],[19.02099,45.35723,78.545],[19.04083,45.35403,78.4391],[19.08207,45.35403,78.3141],[19.09199,45.35,82.075],[19.0954,45.34049,83.141],[19.09623,45.32912,74.0],[19.09881,45.31987,76.453],[19.12475,45.29811,91.1591],[19.16207,45.28504,78.3468],[19.36309,45.24825,80.4414],[19.37807,45.22959,86.9164],[19.3973,45.22329,90.4131],[19.40784,45.20313,138.3482],[19.40536,45.17967,237.6389],[19.39393,45.17162,281.2198],[19.40009,45.16556,228.8209],[19.40727,45.15854,236.4057],[19.40861,45.15745,231.5951],[19.4113,45.1558,220.3347],[19.41264,45.15482,201.3659],[19.41321,45.15425,201.3659],[19.41425,45.15311,214.5724],[19.416,45.15068,190.6955],[19.41652,45.15014,203.5857],[19.41709,45.14965,203.5857],[19.41781,45.14921,203.5857],[19.41859,45.14885,211.1564],[19.42376,45.14693,197.1175],[19.42546,45.14637,210.1495],[19.42634,45.14616,211.5773],[19.42717,45.14608,211.5773],[19.42804,45.14613,211.5773],[19.42887,45.14634,197.2271],[19.4297,45.14665,197.2271],[19.43047,45.14701,151.1169],[19.43115,45.14737,159.3615],[19.43244,45.14823,162.7997],[19.43481,45.15006,191.3786],[19.43662,45.15179,229.6614],[19.44809,45.1636,179.815],[19.44737,45.16438,159.9381],[19.4467,45.16665,172.9667],[19.44711,45.16841,190.1297],[19.44825,45.17001,208.1758],[19.45011,45.1712,209.4244],[19.45228,45.17208,191.7776],[19.45735,45.17357,208.9405],[19.46091,45.17414,216.4292],[19.46241,45.17409,215.7485],[19.46473,45.17365,216.4947],[19.46685,45.1728,213.9262],[19.47202,45.16936,205.1403],[19.47419,45.16846,199.4152],[19.47662,45.16784,206.2475],[19.48101,45.1673,179.4945],[19.50401,45.16572,211.9102],[19.50494,45.16531,240.1592],[19.50969,45.16133,260.3964],[19.51254,45.15957,251.8775],[19.51471,45.15879,266.5227],[19.51713,45.15823,281.4694],[19.5238,45.15724,217.5951],[19.527,45.15662,216.6309],[19.52938,45.1559,233.0407],[19.53155,45.15497,243.9484],[19.53863,45.1505,278.0453],[19.54282,45.14877,305.7834],[19.54519,45.1482,311.5348],[19.54912,45.14768,280.4028],[19.56111,45.14696,287.2889],[19.56494,45.14644,333.9303],[19.57537,45.14417,359.3616],[19.58984,45.14047,351.5882],[19.60008,45.13838,403.4359],[19.60307,45.13818,411.7158],[19.60612,45.13833,421.7278],[19.62059,45.14128,419.3145],[19.62441,45.14174,396.0246],[19.62839,45.142,418.7462],[19.64069,45.14208,387.5547],[19.69878,45.14172,479.221],[19.7181,45.14696,447.9319],[19.72524,45.14944,414.9224],[19.73045,45.15171,520.8453],[19.73314,45.15264,470.8765],[19.73624,45.15321,471.8189],[19.74952,45.15394,468.8849],[19.75268,45.15453,455.5078],[19.75541,45.15554,420.9778],[19.758,45.15693,415.5792],[19.76327,45.16029,427.9877],[19.77309,45.16711,332.0976],[19.78384,45.15704,401.1488],[19.792,45.14712,315.8309],[19.79355,45.14603,313.8055],[19.79531,45.14536,296.3423],[19.79732,45.1451,283.5359],[19.79913,45.14526,311.7491],[19.80807,45.14722,414.1474],[19.81179,45.14779,362.5596],[19.8197,45.14815,422.2971],[19.83608,45.14815,450.6774],[19.85334,45.14789,445.93],[19.86228,45.14745,445.3122],[19.866,45.14701,405.1874],[19.86807,45.14644,398.3934],[19.88378,45.14562,480.2677],[19.89804,45.14515,374.4185],[19.8997,45.14484,361.7642],[19.90398,45.14337,404.1342],[19.90574,45.14303,374.437],[19.91261,45.14257,351.4696],[19.92972,45.14458,217.5037],[19.93628,45.14562,246.4214],[19.94093,45.14652,261.022],[19.95416,45.14805,249.3178],[19.95768,45.14892,256.3324],[19.96104,45.15001,252.1912],[19.96419,45.15135,241.3962],[19.97344,45.15577,240.7587],[19.97804,45.15823,195.5869],[19.98026,45.15975,232.7593],[19.98114,45.16081,247.5952],[19.9815,45.16189,247.5952],[19.98093,45.16339,247.1018],[19.97948,45.16489,239.9029],[19.97514,45.1681,187.9575],[19.97318,45.1698,151.1949],[19.97235,45.17114,135.5549],[19.97225,45.17249,121.1186],[19.97277,45.17365,121.1186],[19.97385,45.17471,116.5932],[19.98558,45.18977,71.6073],[20.04232,45.17776,74.3392],[20.06475,45.17549,72.5787],[20.185,45.18497,71.5],[20.22236,45.17549,74.92],[20.25699,45.15673,78.4589],[20.27781,45.14102,73.4625],[20.28148,45.15363,70.0],[20.28365,45.16954,73.1088],[20.28882,45.18368,72.5731],[20.31652,45.19569,74.9935],[20.31858,45.20923,79.0276],[20.31176,45.23414,75.1455],[20.30143,45.25853,72.5],[20.25239,45.287,73.9503],[20.23606,45.30643,76.6787],[20.242,45.31457,75.8323],[20.24706,45.32468,72.8801],[20.25363,45.33416,73.6739],[20.26396,45.34059,73.6475],[20.2483,45.35558,71.8297],[20.2143,45.37961,86.5912],[20.2019,45.39521,76.1288],[20.2298,45.44301,75.9678],[20.2065,45.46565,78.5085],[20.11296,45.5272,74.2364],[20.10304,45.53758,76.3127],[20.09886,45.54916,83.5333],[20.10315,45.56386,81.4406],[20.1126,45.57425,74.216],[20.12201,45.58156,76.872],[20.12619,45.58701,75.0554],[20.12175,45.59825,77.086],[20.11126,45.60195,77.0248],[20.08211,45.60068,75.205],[20.06294,45.60342,75.9435],[20.06413,45.61029,70.0],[20.08583,45.62796,75.0299],[20.10191,45.65313,76.563],[20.1049,45.67463,75.4876],[20.09994,45.69517,70.0],[20.09203,45.71736,81.089],[20.1033,45.72227,74.9181],[20.11415,45.72429,74.5331]]]}
,"properties": {"ISO3166-1-Alpha-3": "SRB","country": "Republic of Serbia","fill": "#FF0","name": "Južno-Backi","area_km2": 4201.32,"hist_schema_id": "Elevation0-9000","hist_area_km2": {"75": 3446.621,"100": 365.325,"125": 123.472,"150": 39.307,"175": 31.648,"200": 34.49,"225": 29.1,"250": 27.114,"275": 20.374,"300": 16.697,"325": 14.097,"350": 11.84,"375": 9.673,"400": 8.148,"425": 6.608,"450": 6.25,"475": 5.383,"500": 3.603,"525": 1.331,"550": 0.239}}}