{"type":"Feature","properties":{"GID_2":"SRB.7.6_1","GID_0":"SRB","country":"Serbia","GID_1":"SRB.7_1","province":"Kolubarski","NL_NAME_1":"Колубарски","county":"Valjevo","VARNAME_2":"NA","NL_NAME_2":"Ваљево","TYPE_2":"Opštine","ENGTYPE_2":"Town|Municipal","CC_2":"NA","HASC_2":"NA","name":"Valjevo.county"},
"geometry":{"type": "MultiPolygon","coordinates": [[[[20.0322,44.3306,231.9396],[19.9968,44.3353,223.3142],[19.9827,44.343,260.4176],[19.974,44.3547,265.5966],[19.9664,44.358,300.5274],[19.9466,44.3595,212.0141],[19.9321,44.3546,273.4358],[19.9245,44.3537,249.8054],[19.9091,44.3577,247.063],[19.9016,44.3653,295.0641],[19.8972,44.3671,291.0048],[19.8756,44.3622,297.03],[19.8723,44.3659,321.8248],[19.8744,44.3781,276.5714],[19.8707,44.388,200.0392],[19.8568,44.3965,229.6176],[19.8498,44.4056,215.8134],[19.8416,44.3971,242.1087],[19.8371,44.39,288.4653],[19.8328,44.3882,328.1085],[19.78,44.3881,311.2589],[19.7741,44.3902,329.6996],[19.7728,44.4016,320.8842],[19.76,44.4137,323.3676],[19.6873,44.436,302.1702],[19.6772,44.4385,243.4718],[19.6675,44.4386,254.7399],[19.6322,44.4318,273.7063],[19.6182,44.4265,328.3173],[19.6512,44.4083,295.4441],[19.6609,44.4008,382.6751],[19.6661,44.3716,373.8265],[19.6624,44.3629,318.5807],[19.6637,44.3525,323.0312],[19.6616,44.3478,309.6329],[19.6413,44.3334,277.7778],[19.6368,44.3273,348.4969],[19.6343,44.3205,397.1744],[19.6464,44.3078,468.6045],[19.6594,44.3029,444.7805],[19.6631,44.2977,460.8941],[19.6569,44.2922,432.5514],[19.6487,44.2886,476.4339],[19.6338,44.2878,584.925],[19.6227,44.2889,444.4382],[19.6182,44.2875,484.8975],[19.6109,44.2807,536.8057],[19.6113,44.2717,633.7945],[19.6076,44.2668,572.5562],[19.6022,44.2633,526.7682],[19.5903,44.2608,547.687],[19.5871,44.2587,450.1482],[19.585,44.2489,618.9943],[19.5915,44.2369,878.832],[19.595,44.2219,742.3741],[19.5896,44.2098,558.4858],[19.5879,44.2013,753.0339],[19.5758,44.1888,1178.2777],[19.575,44.185,1078.9741],[19.5806,44.1705,898.4156],[19.5953,44.1651,846.325],[19.6143,44.1451,881.4385],[19.6182,44.1437,893.0529],[19.6336,44.1449,877.4517],[19.6563,44.1389,960.3159],[19.673,44.1259,950.7551],[19.7044,44.119,839.0376],[19.7212,44.1079,903.3524],[19.7343,44.1075,938.514],[19.7397,44.1056,999.9368],[19.7555,44.0932,912.7325],[19.7621,44.0827,799.0543],[19.774,44.0721,902.1045],[19.7761,44.0675,874.5309],[19.7743,44.0588,772.9562],[19.7773,44.0551,711.2745],[19.7812,44.0535,739.2814],[19.7994,44.0522,728.326],[19.8062,44.0539,731.9849],[19.8101,44.0577,670.9346],[19.8111,44.0684,758.477],[19.8064,44.0835,766.0894],[19.7993,44.0955,842.4144],[19.7939,44.1008,877.9615],[19.775,44.1112,1026.9062],[19.7736,44.1136,989.1323],[19.7745,44.116,1057.379],[19.7867,44.1213,914.0646],[19.796,44.1213,757.8749],[19.8003,44.1198,784.2168],[19.8121,44.1113,827.4968],[19.829,44.1049,894.5079],[19.841,44.1128,602.1301],[19.8538,44.1165,647.23],[19.8598,44.1276,485.794],[19.8647,44.1301,691.838],[19.8873,44.1288,677.4584],[19.9014,44.1247,799.7682],[19.9104,44.1187,819.9923],[19.91,44.1151,881.865],[19.904,44.1086,862.7906],[19.9049,44.1047,774.7263],[19.9164,44.094,584.1159],[19.9539,44.0784,688.119],[19.9778,44.0756,784.1658],[19.9811,44.0859,737.2098],[19.9844,44.0907,852.2214],[20.0095,44.1042,928.7794],[19.992,44.1156,956.2336],[19.9742,44.1165,998.3165],[19.9524,44.1147,719.6526],[19.9415,44.1176,720.4703],[19.9256,44.1302,684.5206],[19.9289,44.1445,552.0844],[19.9222,44.1528,705.2307],[19.9196,44.1618,820.1986],[19.9222,44.1665,757.9323],[19.9363,44.1817,699.8965],[19.9358,44.1931,400.1203],[19.9376,44.1974,405.5919],[19.9475,44.2066,351.6588],[19.9671,44.2131,378.1895],[19.9806,44.2292,283.0642],[19.9836,44.2432,218.7199],[19.9809,44.2479,212.5725],[19.9698,44.2563,196.6178],[19.9691,44.2593,199.124],[19.9712,44.2625,211.559],[19.9806,44.2676,246.9125],[19.9912,44.2694,226.815],[20.0009,44.2687,228.582],[20.0154,44.2632,186.0934],[20.0214,44.2634,177.6418],[20.0447,44.2747,170.7231],[20.0577,44.275,143.0564],[20.0647,44.2791,154.6006],[20.0712,44.2896,184.8222],[20.0739,44.2983,151.4501],[20.0529,44.3115,140.8128],[20.0433,44.3209,153.9228],[20.039,44.3297,172.3572],[20.0322,44.3306,231.9396]]]]}}