{"type": "Feature","bbox": [19.1017,44.2753,19.2623,44.4821],"geometry": {"type": "MultiPolygon","coordinates": [[[[19.2332,44.2753,277.3723],[19.2262,44.2829,198.6449],[19.2292,44.2967,537.6536],[19.2359,44.3113,673.96],[19.2502,44.3297,620.0278],[19.2318,44.3276,759.8677],[19.2189,44.3235,540.5027],[19.2111,44.3242,424.842],[19.2024,44.3293,472.7601],[19.1983,44.3374,528.1548],[19.1902,44.3458,346.4495],[19.1894,44.349,465.852],[19.1936,44.3518,517.4433],[19.2095,44.3557,604.4997],[19.2343,44.3652,597.9345],[19.2428,44.3744,681.2204],[19.2623,44.3856,682.7451],[19.2354,44.3917,524.5403],[19.2242,44.3983,372.787],[19.2047,44.4047,247.4806],[19.1971,44.4093,202.3488],[19.1934,44.4148,285.1872],[19.1938,44.4291,298.9054],[19.2008,44.4416,254.8239],[19.2015,44.4458,322.1088],[19.1991,44.4489,381.0386],[19.1848,44.4568,273.618],[19.1612,44.479,499.051],[19.1524,44.4821,337.8326],[19.1295,44.4772,129.2359],[19.139,44.4516,132.7291],[19.1394,44.4322,135.239],[19.1335,44.4177,137.5828],[19.1067,44.4053,342.1044],[19.1017,44.3937,281.7854],[19.1037,44.3834,143.9243],[19.1096,44.375,207.1599],[19.1072,44.3591,162.2832],[19.115,44.3523,244.2059],[19.1189,44.344,237.3436],[19.1193,44.3346,268.136],[19.126,44.3235,184.3768],[19.1371,44.3139,157.5169],[19.1538,44.2946,154.5],[19.1696,44.2933,181.9306],[19.1958,44.295,278.8983],[19.2072,44.2911,156.1308],[19.211,44.2845,156.9028],[19.22,44.2777,155.5],[19.2332,44.2753,277.3723]]]]}
,"properties": {"GID_2": "SRB.8.6_1","GID_0": "SRB","country": "Serbia","GID_1": "SRB.8_1","province": "Mačvanski","NL_NAME_1": "Мачвански","county": "MaliZvornik","VARNAME_2": "NA","NL_NAME_2": "МалиЗворник","TYPE_2": "Opštine","ENGTYPE_2": "Town|Municipal","CC_2": "NA","HASC_2": "NA","name": "Mali_Zvornik.county","area_km2": 143.6086,"hist_schema_id": "Elevation0-9000","hist_area_km2": {"125": 9.2799,"150": 10.989,"175": 6.5591,"200": 8.7862,"225": 8.6495,"250": 8.9838,"275": 8.0002,"300": 6.8343,"325": 6.3803,"350": 5.8356,"375": 5.6996,"400": 5.7604,"425": 5.7755,"450": 5.2758,"475": 5.3668,"500": 5.185,"525": 6.14,"550": 5.2456,"575": 4.7757,"600": 3.6842,"625": 3.1537,"650": 2.2594,"675": 1.5165,"700": 1.4104,"725": 0.8946,"750": 0.5003,"775": 0.3639,"800": 0.3032}}}