{"type":"Feature","properties":{"GID_2":"SRB.1.1_1","GID_0":"SRB","country":"Serbia","GID_1":"SRB.1_1","province":"Borski","NL_NAME_1":"Борски","county":"Bor","VARNAME_2":"NA","NL_NAME_2":"Бор","TYPE_2":"Opštine","ENGTYPE_2":"Town|Municipal","CC_2":"NA","HASC_2":"NA","name":"Bor.county"},
"geometry":{"type": "MultiPolygon","coordinates": [[[[21.9554,44.1779,783.2649],[21.9578,44.1554,792.8416],[21.9548,44.1506,869.9934],[21.9454,44.1438,802.338],[21.9443,44.1411,825.1095],[21.9496,44.1222,1016.9163],[21.9604,44.1121,646.5336],[21.9603,44.1089,627.4781],[21.9536,44.1015,607.946],[21.9447,44.0964,528.82],[21.9088,44.0956,896.7898],[21.8981,44.0931,943.127],[21.8698,44.0801,1006.3038],[21.8546,44.0688,894.3049],[21.8366,44.0688,990.3017],[21.8178,44.0656,978.8538],[21.8118,44.0543,1000.3303],[21.8085,44.0436,1029.849],[21.8011,44.039,1132.1953],[21.7883,44.0347,1131.459],[21.7854,44.0187,1040.4437],[21.7764,44.0119,1063.1169],[21.7738,44.0079,1145.1296],[21.7725,43.9919,1023.844],[21.7956,43.9886,910.9871],[21.8105,43.9929,797.2982],[21.8165,43.993,821.4352],[21.8314,43.988,768.6669],[21.8419,43.9869,813.5831],[21.8736,43.9925,736.9381],[21.8957,43.9881,837.4048],[21.9056,43.9805,858.6574],[21.9117,43.9722,812.1479],[21.9263,43.9664,783.0845],[21.9422,43.9532,559.9015],[21.9556,43.9471,368.2776],[21.9739,43.9448,372.2304],[21.9979,43.9366,321.3075],[22.0051,43.9384,272.5508],[22.018,43.9522,222.6601],[22.0328,43.952,336.3388],[22.0362,43.9497,307.9653],[22.04,43.9414,286.7919],[22.0495,43.9308,205.6008],[22.0508,43.9226,191.8658],[22.056,43.9158,187.4257],[22.0612,43.9015,268.752],[22.072,43.8962,300.4677],[22.1036,43.8866,303.21],[22.1217,43.8756,400.2959],[22.1245,43.8845,415.0829],[22.1325,43.8977,349.394],[22.1571,43.9052,241.4473],[22.162,43.9094,222.3002],[22.1684,43.9243,190.8582],[22.1671,43.942,302.3334],[22.1739,43.954,340.7823],[22.1862,43.9662,421.114],[22.1939,43.9801,369.7015],[22.2078,43.9929,397.8991],[22.2116,44.0035,352.7183],[22.2185,44.0074,300.7277],[22.2334,44.0103,347.8785],[22.237,44.0135,335.045],[22.2393,44.0183,277.3479],[22.2379,44.03,246.5938],[22.24,44.0419,327.4092],[22.229,44.0528,410.2275],[22.2252,44.063,386.6272],[22.2162,44.0716,360.954],[22.2171,44.0904,309.0407],[22.2154,44.0988,318.2081],[22.2098,44.1034,408.1558],[22.1952,44.1102,449.9069],[22.1914,44.1155,497.7779],[22.1929,44.1198,451.6868],[22.2007,44.1292,382.0388],[22.2115,44.1365,401.576],[22.2212,44.1477,402.1182],[22.2278,44.1621,505.7242],[22.2344,44.1705,511.1843],[22.2325,44.1733,521.034],[22.2194,44.1791,562.3674],[22.2129,44.1843,583.484],[22.212,44.1873,583.933],[22.2139,44.2015,671.6424],[22.21,44.2157,832.0288],[22.2033,44.2259,823.9738],[22.1936,44.2342,589.6219],[22.1901,44.2354,583.3855],[22.1718,44.2312,482.8082],[22.1446,44.2319,350.5285],[22.1378,44.2354,450.4143],[22.1309,44.2429,454.1298],[22.1182,44.2514,496.8102],[22.1101,44.2539,444.9467],[22.0937,44.2557,397.3051],[22.0822,44.2633,378.4665],[22.0707,44.262,326.6873],[22.0602,44.2556,365.6829],[22.0524,44.2548,365.2872],[22.0403,44.2557,443.4415],[22.0252,44.2614,654.3126],[22.0192,44.262,647.9686],[22.0083,44.2585,500.2054],[22.0042,44.253,495.1384],[22.0114,44.2405,549.1635],[22.013,44.2265,570.9089],[22.0116,44.2125,623.681],[22.0051,44.2026,657.0564],[22.0057,44.1917,666.5638],[22.0042,44.1865,575.2273],[21.996,44.1785,643.752],[21.9912,44.177,698.919],[21.9554,44.1779,783.2649]]]]}}