{"type":"Feature","properties":{"GID_2":"SRB.4.2_1","GID_0":"SRB","country":"Serbia","GID_1":"SRB.4_1","province":"Jablanički","NL_NAME_1":"Јабланички","county":"CrnaTrava","VARNAME_2":"NA","NL_NAME_2":"ЦрнаТрава","TYPE_2":"Opštine","ENGTYPE_2":"Town|Municipal","CC_2":"NA","HASC_2":"NA","name":"Crna_Trava.county"},
"geometry":{"type": "MultiPolygon","coordinates": [[[[22.5675,42.8688,1502.5623],[22.523,42.8747,1300.0148],[22.5002,42.8799,1164.3961],[22.4654,42.8781,1024.9435],[22.4358,42.884,1138.6198],[22.4138,42.8932,1224.4253],[22.4012,42.9028,1170.4596],[22.3948,42.9119,1096.9314],[22.3774,42.9188,766.0919],[22.3592,42.9296,826.1871],[22.3212,42.9365,684.0493],[22.3096,42.9364,502.4397],[22.3053,42.9334,480.6261],[22.3065,42.928,697.0716],[22.311,42.9239,775.7833],[22.3213,42.9184,616.9652],[22.3221,42.9168,635.3837],[22.32,42.9144,677.8623],[22.2933,42.9067,1308.8188],[22.289,42.9076,1278.5587],[22.2791,42.9138,1194.5847],[22.2697,42.9146,1398.9663],[22.2527,42.9038,1346.3464],[22.2346,42.8986,1245.2144],[22.2315,42.8961,1292.7809],[22.2211,42.8748,1364.115],[22.2205,42.8685,1208.5414],[22.214,42.8582,1066.3723],[22.2088,42.8511,783.5184],[22.1933,42.8363,766.3198],[22.1933,42.8338,738.0461],[22.1962,42.8315,799.7771],[22.2103,42.8296,1041.8059],[22.2122,42.8182,1172.6299],[22.2225,42.8081,1276.0214],[22.2209,42.8055,1258.5758],[22.2078,42.8018,1096.4031],[22.2026,42.7986,1000.0393],[22.2017,42.7961,955.7535],[22.2053,42.7872,1179.1718],[22.2052,42.7838,1156.3245],[22.196,42.7746,954.4114],[22.2166,42.7678,1196.7291],[22.2238,42.7596,1266.3068],[22.232,42.7548,1316.4615],[22.2458,42.7513,1443.9435],[22.2563,42.7465,1391.83],[22.2702,42.7487,1581.2981],[22.2807,42.7461,1453.7928],[22.2897,42.7466,1437.9043],[22.3021,42.7538,1355.7769],[22.3165,42.7656,1232.3834],[22.3399,42.7705,1410.9673],[22.361,42.7815,1552.1598],[22.387,42.8053,1514.0466],[22.4069,42.8088,1122.3018],[22.4409,42.8215,1389.4895],[22.4715,42.8209,1097.5186],[22.4809,42.8286,1143.5724],[22.4923,42.8306,1006.7249],[22.504,42.8392,1153.4973],[22.503,42.847,1215.5637],[22.5062,42.8537,1311.0654],[22.5128,42.8608,1191.4084],[22.5226,42.8667,1181.7587],[22.5239,42.8664,1193.4911],[22.5231,42.8617,1222.3345],[22.5245,42.8592,1224.3645],[22.5339,42.854,1205.7573],[22.5486,42.8498,1143.1638],[22.5589,42.8427,859.7728],[22.5568,42.855,1119.2559],[22.5675,42.8688,1502.5623]]]]}}