{"type":"Feature","properties":{"featurecla":"River","scalerank":7,"rivernum":494,"dissolve":"494River","name":"Sava2","name_alt":null,"note":null,"min_zoom":6.0,"strokeweig":0.25,"name_en":"Sava","min_label":7.0},
"geometry":{"type": "LineString","coordinates": [[19.35888671875,44.901141668744117,83.3443],[19.341210937500023,44.909686590619117,81.5219],[19.324853515625023,44.92230866093162,84.4428],[19.340576171875,44.92157623905662,73.3503],[19.37158203125,44.91388580936912,72.0],[19.386376953125023,44.915399481244116,79.3667],[19.3974609375,44.92352936405662,85.0627],[19.395654296875023,44.93183014530662,72.0],[19.3857421875,44.93891022343162,79.4844],[19.37255859375,44.943377996869117,72.0],[19.38916015625,44.95331452030662,95.3803],[19.410058593750023,44.96015045780662,81.7506],[19.431054687500023,44.961786199994116,90.4745],[19.44775390625,44.95636627811912,88.5498],[19.449853515625023,44.971698309369117,87.672],[19.463134765625,44.98041412968162,79.7899],[19.48486328125,44.98383209843162,79.1086],[19.511865234375023,44.98322174686912,83.0554]]}}