{"type":"Feature","properties":{"ISO3166-1-Alpha-3":"SRB","country":"Republic of Serbia","fill":"#F00","id":"838","name":"Macvanski"},
"geometry":{"type": "Polygon","coordinates": [[[19.97338,44.64118,103.6915],[19.94043,44.63178,79.8668],[19.92074,44.64791,71.5],[19.92074,44.64791,71.5],[19.93081,44.65928,72.5195],[19.98962,44.6786,77.197],[20.01014,44.68886,74.5649],[20.01011,44.68887,74.5649],[19.98265,44.69591,102.2212],[19.91397,44.69545,84.5249],[19.88968,44.70687,95.4049],[19.87278,44.71974,99.2601],[19.84627,44.73348,101.3135],[19.79661,44.75157,99.7927],[19.7453,44.75224,77.554],[19.72897,44.75777,77.0042],[19.72034,44.76449,77.4635],[19.72033,44.7645,77.4635],[19.71543,44.77196,76.9297],[19.71134,44.78004,79.3592],[19.71134,44.78005,79.3592],[19.70504,44.78878,81.3614],[19.70504,44.78878,81.3614],[19.70065,44.80759,85.8363],[19.71,44.83022,99.9736],[19.75325,44.8921,76.8334],[19.75868,44.90495,73.0387],[19.75687,44.91541,80.6734],[19.75686,44.91541,80.6734],[19.74896,44.91843,80.5611],[19.72209,44.92102,95.197],[19.70023,44.9297,101.2578],[19.68308,44.93187,106.0249],[19.67347,44.93448,104.9195],[19.64468,44.91272,76.1205],[19.64137,44.91321,76.6679],[19.63336,44.91394,78.1512],[19.61238,44.91435,77.14],[19.60427,44.91425,76.592],[19.60034,44.91399,76.4646],[19.59657,44.91347,77.5729],[19.58954,44.91146,77.9434],[19.57208,44.90515,81.7733],[19.56236,44.90195,77.9791],[19.55828,44.90089,77.8023],[19.55523,44.90055,77.0227],[19.55208,44.9005,78.0147],[19.54898,44.90076,79.2853],[19.54143,44.9019,78.9294],[19.53167,44.90288,78.0099],[19.5265,44.90399,79.2533],[19.52035,44.90621,85.9587],[19.51761,44.90779,90.4608],[19.50841,44.91399,80.0441],[19.50603,44.91533,78.652],[19.50355,44.91637,78.8031],[19.50056,44.91693,81.7478],[19.49916,44.91693,81.0633],[19.49632,44.91634,81.0851],[19.49342,44.91528,80.487],[19.48919,44.91337,81.1101],[19.48655,44.91174,80.7733],[19.48257,44.90867,80.4703],[19.47792,44.90417,80.6121],[19.47394,44.90138,81.1375],[19.47126,44.90019,81.0524],[19.46909,44.89967,83.4199],[19.46691,44.89957,81.9867],[19.46495,44.89983,86.6034],[19.46087,44.90107,80.0838],[19.4588,44.90195,80.1803],[19.45627,44.9036,81.6425],[19.45441,44.90562,82.5347],[19.45441,44.90563,82.5347],[19.45146,44.9119,82.5362],[19.44748,44.91817,83.0116],[19.44444,44.92448,82.4282],[19.44443,44.92449,82.4282],[19.44294,44.92634,87.4134],[19.43896,44.92975,88.2109],[19.43358,44.93321,81.1578],[19.42211,44.93915,80.1759],[19.41932,44.94029,80.1451],[19.41446,44.94156,81.8068],[19.41126,44.94189,80.1187],[19.40821,44.94189,81.0114],[19.40609,44.94164,78.0023],[19.39565,44.93179,72.0],[19.39751,44.9235,85.0627],[19.38635,44.91541,79.3667],[19.37157,44.91386,72.0],[19.34057,44.92153,73.3503],[19.32487,44.92226,84.4428],[19.32486,44.92226,84.4428],[19.34124,44.90967,81.5219],[19.359,44.90113,83.3443],[19.35901,44.90112,83.3443],[19.35699,44.89587,84.5718],[19.36278,44.89111,77.1713],[19.36867,44.88713,79.0451],[19.3728,44.88145,81.8432],[19.3757,44.87313,84.6228],[19.37663,44.863,85.0055],[19.37311,44.86026,81.0028],[19.36784,44.85928,78.9017],[19.36371,44.85463,86.1677],[19.32836,44.73396,93.9076],[19.31802,44.71546,96.4262],[19.30841,44.70513,95.6617],[19.28826,44.69304,101.1143],[19.27761,44.68487,104.8388],[19.27007,44.67562,103.6104],[19.2557,44.64565,103.8537],[19.20868,44.58839,112.0957],[19.20413,44.58513,113.3267],[19.19328,44.58059,111.125],[19.18832,44.57604,116.1253],[19.18625,44.56932,116.4454],[19.18728,44.5533,117.8126],[19.18532,44.54622,120.7201],[19.17964,44.53826,117.9321],[19.17312,44.53144,116.1352],[19.16527,44.52669,169.4347],[19.12992,44.51832,122.0235],[19.12734,44.50256,127.8594],[19.14336,44.45822,131.7443],[19.14139,44.43083,134.7265],[19.12961,44.41615,138.6841],[19.11576,44.4036,136.5197],[19.10718,44.38272,190.2566],[19.10894,44.36365,248.6163],[19.11669,44.3437,154.125],[19.13891,44.30934,154.5],[19.157,44.29358,154.5],[19.17715,44.28696,155.0],[19.22005,44.28024,155.5],[19.24072,44.2727,209.5939],[19.2495,44.27074,270.6216],[19.26366,44.27017,160.863],[19.29591,44.2758,165.0237],[19.30738,44.2742,180.3843],[19.32433,44.26397,165.1112],[19.34159,44.24583,166.402],[19.35399,44.22433,179.5803],[19.35606,44.20402,220.5581],[19.36236,44.19121,306.946],[19.38117,44.1771,175.3305],[19.42489,44.15379,201.554],[19.43554,44.14609,195.0533],[19.44256,44.1432,187.979],[19.44846,44.14444,222.397],[19.45972,44.15271,414.236],[19.46572,44.15281,311.1166],[19.47419,44.1449,209.0091],[19.47636,44.12702,204.2362],[19.48267,44.12067,205.2872],[19.49817,44.11023,209.1171],[19.51619,44.09119,308.9845],[19.52292,44.0924,361.3607],[19.52706,44.09351,376.8845],[19.52954,44.09496,322.585],[19.53217,44.09731,364.37],[19.54054,44.10868,605.0246],[19.54292,44.11131,639.9355],[19.54602,44.11379,673.6149],[19.54799,44.11472,700.9529],[19.55016,44.1154,707.3042],[19.55925,44.1171,857.5601],[19.56132,44.11767,850.0309],[19.57124,44.12098,952.9827],[19.57382,44.1216,959.2059],[19.57661,44.1217,1108.5333],[19.57863,44.12144,1113.2595],[19.58664,44.11989,1057.3577],[19.59077,44.11883,988.3371],[19.59584,44.11803,1001.8436],[19.59873,44.11811,976.0162],[19.60292,44.11909,992.2709],[19.60498,44.11994,993.6573],[19.60741,44.12144,925.0449],[19.60933,44.1233,823.7963],[19.61268,44.12924,919.9125],[19.61759,44.13542,824.0797],[19.61858,44.13782,848.8287],[19.61878,44.14041,904.5936],[19.61816,44.14366,893.0529],[19.61434,44.14506,881.4385],[19.61144,44.14681,894.2421],[19.60938,44.14891,979.1453],[19.60643,44.15343,1019.5647],[19.60266,44.15849,840.2903],[19.59894,44.16206,870.3554],[19.59532,44.16506,846.325],[19.59356,44.16622,932.2898],[19.59155,44.16707,965.8068],[19.58933,44.16769,987.7915],[19.58437,44.16852,976.1501],[19.58251,44.16906,919.8878],[19.58147,44.16971,919.8878],[19.58064,44.17053,898.4156],[19.57982,44.1719,913.127],[19.57791,44.17798,882.5842],[19.57506,44.185,1078.9741],[19.57486,44.1865,1161.7537],[19.57501,44.18748,1184.9785],[19.57584,44.18878,1178.2777],[19.57672,44.18929,1144.13],[19.56886,44.19834,1143.0177],[19.56142,44.20635,970.498],[19.55915,44.20826,942.3411],[19.55625,44.20976,982.4991],[19.55403,44.21058,957.8491],[19.54395,44.21368,898.1646],[19.54096,44.21511,839.7178],[19.53357,44.22014,933.7452],[19.53181,44.22107,979.8654],[19.5299,44.22169,949.8933],[19.52788,44.22195,940.0164],[19.5192,44.22133,821.5302],[19.51631,44.22144,783.2653],[19.51429,44.22175,712.6818],[19.50949,44.22306,594.3199],[19.50551,44.22482,495.7861],[19.50354,44.22588,572.7896],[19.49858,44.22947,557.6315],[19.496,44.2311,501.2622],[19.49321,44.23218,475.0577],[19.49016,44.23296,414.8329],[19.47647,44.23518,309.0462],[19.46742,44.23606,370.5555],[19.46417,44.23652,388.0913],[19.45745,44.23929,503.1189],[19.44701,44.24221,598.1324],[19.44174,44.24438,608.1014],[19.42954,44.2511,695.3671],[19.42572,44.25407,626.6133],[19.42784,44.25725,550.146],[19.42928,44.26001,561.8127],[19.43032,44.2628,493.5651],[19.43078,44.26593,506.478],[19.43021,44.27192,534.1722],[19.43042,44.27342,562.2842],[19.43109,44.27479,558.0143],[19.4329,44.27657,637.5002],[19.4344,44.27761,713.3749],[19.44391,44.28262,861.2454],[19.44551,44.28381,878.356],[19.44675,44.28526,902.3844],[19.44763,44.28681,885.9102],[19.44835,44.28898,872.6385],[19.44928,44.29347,790.4333],[19.45073,44.29735,711.9452],[19.45182,44.2989,718.2546],[19.45579,44.30277,696.5026],[19.45977,44.30758,523.8043],[19.46189,44.30939,488.3164],[19.46463,44.31073,473.913],[19.46685,44.31146,525.943],[19.46928,44.31202,498.6797],[19.47895,44.31332,372.7886],[19.4837,44.31466,364.3328],[19.48649,44.316,366.2736],[19.48882,44.31766,400.0573],[19.49114,44.32024,378.1872],[19.49197,44.32231,354.2906],[19.49223,44.3245,404.1647],[19.49207,44.32675,433.4442],[19.4914,44.32895,356.372],[19.48835,44.33399,285.6791],[19.48391,44.33962,342.2484],[19.48163,44.34362,384.0849],[19.48034,44.34541,363.1241],[19.47858,44.34665,343.861],[19.47698,44.34706,372.2593],[19.47512,44.34714,348.7206],[19.46468,44.34533,387.7657],[19.46262,44.3453,417.69],[19.46065,44.34567,389.1209],[19.45791,44.3468,379.7589],[19.45631,44.34773,418.9057],[19.45331,44.35008,380.155],[19.45207,44.3514,341.8419],[19.44975,44.35476,388.2275],[19.44908,44.35626,378.8419],[19.44872,44.35838,320.9136],[19.44903,44.3605,338.7776],[19.4497,44.36189,338.7776],[19.45197,44.3651,298.5904],[19.45404,44.3667,301.3287],[19.45652,44.36791,266.0353],[19.45864,44.36845,258.4761],[19.46086,44.36861,290.5999],[19.46985,44.36783,331.5869],[19.47274,44.36799,330.6618],[19.47678,44.36908,333.9498],[19.47869,44.36995,337.9376],[19.48179,44.37243,338.7779],[19.48422,44.37507,323.8653],[19.49099,44.38468,271.8997],[19.49383,44.38964,272.0213],[19.49734,44.39915,264.0574],[19.49838,44.40272,268.8404],[19.49827,44.40985,250.4064],[19.49879,44.41186,235.7683],[19.49993,44.41388,225.0504],[19.50282,44.41768,218.609],[19.50354,44.41951,212.4006],[19.50349,44.42039,212.4006],[19.50272,44.42184,209.2252],[19.50117,44.42313,223.0364],[19.49931,44.42401,222.4087],[19.4913,44.42618,261.6926],[19.48918,44.42695,241.3745],[19.48732,44.42791,227.1224],[19.48592,44.42907,218.2617],[19.48494,44.43041,217.9856],[19.48453,44.43166,189.0305],[19.48453,44.43253,165.274],[19.48525,44.43408,163.9122],[19.48665,44.43548,187.4447],[19.49031,44.43749,171.0979],[19.49424,44.43889,237.6075],[19.49729,44.43946,218.7139],[19.50365,44.44008,174.7567],[19.50902,44.44018,194.7417],[19.51212,44.43987,161.5817],[19.51832,44.43868,163.9576],[19.52132,44.43858,179.9661],[19.52468,44.43904,230.1302],[19.52799,44.43992,242.6327],[19.53445,44.4423,224.3379],[19.53946,44.44367,254.4669],[19.54871,44.44478,231.7821],[19.56101,44.44571,254.5266],[19.57403,44.43892,264.1098],[19.57589,44.43762,292.3112],[19.57723,44.4361,283.0305],[19.58018,44.43,287.7256],[19.58132,44.42861,346.9315],[19.58431,44.42613,358.8452],[19.58798,44.42406,344.0454],[19.59036,44.42328,362.9134],[19.59289,44.42277,377.9323],[19.59579,44.42246,367.4874],[19.60183,44.4223,329.5966],[19.60803,44.42261,314.8894],[19.61108,44.42303,325.119],[19.61392,44.42377,346.8716],[19.61625,44.42494,368.4271],[19.61827,44.42651,328.3173],[19.62876,44.43062,275.8428],[19.63222,44.43178,273.7063],[19.63801,44.43328,256.156],[19.64989,44.43465,199.2491],[19.65304,44.4352,198.7343],[19.66441,44.43811,256.3524],[19.66751,44.43858,254.7399],[19.67397,44.43876,265.7482],[19.67718,44.43853,243.4718],[19.68028,44.43806,253.9322],[19.68736,44.436,302.1702],[19.70307,44.43052,361.81],[19.71309,44.42773,355.8241],[19.73376,44.42075,345.4336],[19.74611,44.4177,333.0247],[19.75474,44.41587,269.4299],[19.75707,44.41512,325.2463],[19.76007,44.41372,323.3676],[19.7626,44.41197,314.306],[19.76544,44.40943,309.1811],[19.77278,44.40158,320.8842],[19.77397,44.39956,334.981],[19.77422,44.39755,316.7527],[19.7735,44.39282,334.7548],[19.7736,44.3914,334.2465],[19.77412,44.39016,329.6996],[19.77603,44.38892,302.5836],[19.77996,44.38809,311.2589],[19.7874,44.38773,341.1534],[19.82306,44.38758,301.8768],[19.82693,44.38768,306.9794],[19.83283,44.3882,328.1085],[19.83479,44.38869,302.4634],[19.83712,44.38995,288.4653],[19.8381,44.39124,295.9153],[19.83996,44.39486,264.8689],[19.84156,44.39714,242.1087],[19.84642,44.40238,229.1141],[19.84983,44.40556,215.8134],[19.83991,44.41538,201.195],[19.83107,44.4229,232.9661],[19.82864,44.4253,265.0413],[19.82719,44.42768,253.6595],[19.82724,44.42959,274.5059],[19.82838,44.4315,270.0804],[19.83024,44.43331,260.7351],[19.83262,44.43491,256.9292],[19.83541,44.43625,231.3161],[19.83991,44.4376,259.6487],[19.84202,44.43791,278.2748],[19.84502,44.43791,275.9929],[19.85003,44.43703,285.6007],[19.8551,44.43551,291.7625],[19.85748,44.43512,280.4323],[19.85934,44.43527,285.7386],[19.86094,44.43589,278.8484],[19.86218,44.43693,278.8484],[19.86306,44.4383,257.2877],[19.86378,44.4406,262.7086],[19.86409,44.44315,258.7693],[19.86414,44.44855,232.1411],[19.86373,44.45398,213.9062],[19.86321,44.45661,223.2153],[19.86156,44.46065,197.0466],[19.85665,44.46899,224.3001],[19.85598,44.4716,192.3777],[19.85629,44.47305,181.3553],[19.85717,44.47434,190.1147],[19.85856,44.47553,203.1719],[19.86554,44.47961,209.5394],[19.86729,44.48075,205.8004],[19.8689,44.48225,192.9884],[19.86993,44.4839,168.7766],[19.87019,44.48483,168.7766],[19.87019,44.48834,134.0774],[19.86972,44.49051,114.2466],[19.8689,44.49258,114.0455],[19.86797,44.49393,122.1086],[19.8629,44.49863,144.0618],[19.86089,44.50088,153.1384],[19.85789,44.50576,146.6209],[19.85732,44.50793,148.2995],[19.85753,44.51336,145.4629],[19.85732,44.51542,177.0432],[19.8566,44.51749,170.1182],[19.855,44.51971,151.7852],[19.85298,44.52173,174.0538],[19.84993,44.524,198.3703],[19.85257,44.53095,193.0317],[19.85489,44.53516,169.823],[19.8568,44.53744,179.5276],[19.85903,44.53945,168.8455],[19.86352,44.54302,129.8249],[19.86574,44.54441,131.048],[19.86766,44.54514,139.1898],[19.87474,44.54684,148.9137],[19.87675,44.54754,135.3452],[19.88125,44.54999,137.7092],[19.88988,44.5556,168.9034],[19.89256,44.55713,186.1062],[19.89546,44.55842,186.4222],[19.89773,44.55906,177.2552],[19.90006,44.55945,183.5943],[19.90311,44.55955,186.0933],[19.90615,44.55919,173.5638],[19.91024,44.55795,157.31],[19.91468,44.55609,125.3446],[19.92171,44.55216,128.5391],[19.92429,44.55098,160.4782],[19.92688,44.55056,147.7269],[19.92853,44.5508,130.7663],[19.93546,44.55377,158.7609],[19.94806,44.55687,139.5797],[19.95111,44.558,123.8764],[19.96093,44.56242,127.528],[19.96414,44.56467,117.2965],[19.96434,44.56475,117.2965],[19.96486,44.56483,117.2965],[19.966,44.5648,123.8502],[19.97106,44.56477,134.2619],[19.97101,44.57583,97.3821],[19.97018,44.58092,115.1194],[19.96925,44.58317,117.6487],[19.96832,44.58462,122.2605],[19.96336,44.58937,122.817],[19.96176,44.59149,124.0807],[19.96124,44.59278,121.5958],[19.96119,44.59371,121.5958],[19.96197,44.59583,118.1167],[19.96811,44.60265,84.2803],[19.96858,44.604,83.4619],[19.96858,44.60537,83.4619],[19.96729,44.60981,83.3808],[19.97338,44.64118,103.6915]]]}}