{"type":"Feature","properties":{"GID_2":"SRB.11.7_1","GID_0":"SRB","country":"Serbia","GID_1":"SRB.11_1","province":"Pčinjski","NL_NAME_1":"Пчињски","county":"Vranje","VARNAME_2":"Vranya","NL_NAME_2":"Врање","TYPE_2":"Opštine","ENGTYPE_2":"Town|Municipal","CC_2":"NA","HASC_2":"NA","name":"Vranje.county"},
"geometry":{"type": "MultiPolygon","coordinates": [[[[21.793,42.6401,1154.785],[21.7951,42.6412,1199.1179],[21.8036,42.6396,1163.031],[21.8243,42.6304,1064.6433],[21.8353,42.6148,1181.3442],[21.8465,42.6067,1222.1863],[21.847,42.6006,1253.616],[21.844,42.5935,1262.7567],[21.84,42.5894,1275.1417],[21.8158,42.5764,1138.1499],[21.7902,42.5661,1074.6117],[21.7791,42.5555,797.2745],[21.7627,42.5477,733.0873],[21.7494,42.5278,835.4662],[21.7497,42.5225,818.8723],[21.7579,42.5174,864.7017],[21.7783,42.5132,687.6471],[21.7932,42.5041,493.1832],[21.8048,42.4909,449.2155],[21.8108,42.4803,433.99],[21.8282,42.4651,387.1107],[21.8675,42.4425,437.2478],[21.8766,42.4306,488.7328],[21.8932,42.4245,595.7023],[21.9002,42.416,619.1198],[21.9224,42.4076,641.0763],[21.9413,42.4085,735.1766],[21.9651,42.4004,703.3163],[21.9717,42.4033,776.499],[21.9912,42.407,794.7516],[22.0233,42.4223,859.5095],[22.0319,42.4209,928.6066],[22.0407,42.4146,695.7039],[22.0512,42.4112,918.5086],[22.087,42.4239,1301.6426],[22.1062,42.4198,1529.1086],[22.1112,42.4201,1511.0739],[22.1164,42.4235,1406.8843],[22.113,42.4331,1369.6042],[22.1122,42.4409,1461.0491],[22.1131,42.4511,1317.2974],[22.1157,42.4545,1413.3074],[22.1248,42.4549,1429.541],[22.1492,42.4447,1316.5591],[22.1656,42.4422,1344.0914],[22.1735,42.4432,1429.1877],[22.1823,42.4521,1282.3431],[22.2,42.4596,1487.9614],[22.207,42.4645,1366.9592],[22.2089,42.4683,1306.7444],[22.208,42.4764,1451.4569],[22.2098,42.4808,1504.4618],[22.2178,42.4913,1479.3091],[22.2245,42.4928,1535.9033],[22.2262,42.4947,1592.3864],[22.2251,42.4986,1648.9551],[22.2169,42.507,1580.8147],[22.216,42.5135,1634.8389],[22.2202,42.5231,1644.0034],[22.2304,42.5274,1879.4767],[22.2335,42.5303,1812.9128],[22.2351,42.5485,1559.86],[22.2341,42.5522,1610.1611],[22.2247,42.5619,1436.6476],[22.2221,42.576,1464.614],[22.218,42.5807,1359.1011],[22.2061,42.5842,1088.4333],[22.1895,42.5818,1054.4358],[22.1757,42.5852,943.2096],[22.1652,42.594,873.4679],[22.1599,42.6038,942.6251],[22.1477,42.6108,793.094],[22.1453,42.6093,864.5722],[22.1449,42.6068,883.3701],[22.1198,42.596,1189.4148],[22.0866,42.5932,897.3655],[22.0801,42.5942,832.5725],[22.0746,42.6004,650.2568],[22.0519,42.6098,529.5972],[22.0376,42.609,396.5952],[22.0325,42.6064,361.6082],[22.0275,42.5995,388.4877],[22.0129,42.5932,384.3679],[21.9994,42.5834,357.2241],[21.9952,42.5824,392.4727],[21.985,42.5838,416.9645],[21.9813,42.5857,458.5417],[21.981,42.5903,499.0347],[21.9886,42.5981,593.097],[21.9892,42.602,653.2938],[21.9775,42.62,813.2694],[21.964,42.6252,929.6451],[21.943,42.6246,1065.7581],[21.9305,42.6309,1116.9031],[21.9172,42.6426,1273.2322],[21.9152,42.6467,1087.4885],[21.916,42.6507,1023.6526],[21.9262,42.661,838.8568],[21.9273,42.6651,790.7886],[21.9264,42.6693,822.197],[21.9183,42.6816,850.2888],[21.9167,42.6908,855.209],[21.9335,42.7167,954.6898],[21.9345,42.7216,910.717],[21.9327,42.7277,941.1526],[21.9256,42.7369,1069.2737],[21.9254,42.7556,1353.5631],[21.9269,42.7584,1294.8376],[21.9363,42.7657,1180.9395],[21.937,42.7738,1141.2657],[21.9443,42.7848,1306.1401],[21.9304,42.7853,1146.871],[21.9091,42.7813,1019.4315],[21.8888,42.7826,1129.5204],[21.8716,42.7783,1094.4069],[21.8402,42.7756,867.5203],[21.8228,42.7715,462.6795],[21.8133,42.7662,592.9596],[21.8105,42.761,668.5039],[21.8148,42.7546,486.0276],[21.8146,42.7514,504.5064],[21.8056,42.7477,640.5416],[21.7987,42.7409,673.649],[21.7879,42.7358,712.5246],[21.7853,42.7327,668.0015],[21.7863,42.7073,932.0841],[21.7851,42.7045,1023.5209],[21.7723,42.696,1008.4094],[21.7547,42.6885,878.2087],[21.7505,42.6742,879.4687],[21.7517,42.67,882.8423],[21.763,42.6621,906.1198],[21.7681,42.6511,1039.6582],[21.793,42.6401,1154.785]]]]}}