{"type": "Feature","bbox": [21.6738,43.5136,22.0825,43.76],"geometry": {"type": "MultiPolygon","coordinates": [[[[21.9127,43.5136,537.2015],[21.934,43.5162,518.9101],[21.9529,43.5227,729.5438],[21.9726,43.5177,804.5427],[21.9787,43.5183,783.4195],[21.9859,43.5216,783.9958],[21.9871,43.5245,793.6171],[21.9854,43.5266,761.9719],[21.972,43.5327,566.7291],[21.9512,43.5491,807.7943],[21.9489,43.5611,966.7689],[21.952,43.5685,920.7222],[21.9551,43.571,905.8477],[21.967,43.5728,916.4586],[21.9737,43.5719,864.4513],[21.993,43.5579,882.9438],[21.9989,43.565,804.7814],[22.0054,43.5778,925.708],[22.0265,43.5873,950.64],[22.0394,43.5893,736.3633],[22.0552,43.5828,703.7301],[22.063,43.5814,738.9985],[22.0763,43.5835,663.5458],[22.0815,43.5859,664.4011],[22.0825,43.5887,649.7601],[22.0811,43.5909,605.2136],[22.0665,43.5974,661.0208],[22.0535,43.6105,573.8792],[22.0548,43.6143,525.8103],[22.063,43.6217,677.9785],[22.0648,43.6256,618.8212],[22.063,43.6297,572.2658],[22.0552,43.6379,614.5177],[22.0558,43.6515,854.5018],[22.0524,43.6705,830.7781],[22.0496,43.6751,748.7608],[22.0099,43.6966,751.6127],[21.9928,43.697,656.9564],[21.9803,43.6942,494.5089],[21.9627,43.6938,548.5583],[21.9406,43.7091,722.319],[21.9279,43.7262,729.2456],[21.9255,43.737,886.9502],[21.923,43.7407,907.8594],[21.9039,43.7521,1015.9643],[21.8821,43.76,887.4885],[21.8767,43.7599,868.3679],[21.8617,43.7554,871.454],[21.8465,43.7557,774.3741],[21.8218,43.7484,643.9326],[21.7889,43.743,578.515],[21.7448,43.7537,678.8722],[21.705,43.7566,492.4077],[21.694,43.7499,550.6369],[21.6807,43.7466,399.947],[21.6768,43.744,365.6102],[21.6738,43.7397,440.5296],[21.675,43.7359,507.3932],[21.6885,43.7303,662.3768],[21.7005,43.7167,822.8134],[21.6988,43.7117,752.2976],[21.6831,43.7014,535.8676],[21.6874,43.6864,559.7109],[21.6896,43.6654,335.9686],[21.6993,43.6566,349.6516],[21.7049,43.6418,255.5208],[21.7218,43.6248,445.1726],[21.7382,43.615,464.2648],[21.7474,43.6064,538.1551],[21.7505,43.6007,608.6176],[21.7499,43.5915,781.3219],[21.7515,43.5887,759.7419],[21.7753,43.5755,435.7064],[21.8118,43.5778,505.0938],[21.8306,43.5702,600.438],[21.8518,43.5733,723.689],[21.8631,43.5705,791.4344],[21.8711,43.5625,806.3918],[21.8835,43.5375,663.6315],[21.9031,43.5248,575.5353],[21.9127,43.5136,537.2015]]]]}
,"properties": {"GID_2": "SRB.23.3_1","GID_0": "SRB","country": "Serbia","GID_1": "SRB.23_1","province": "Zaječarski","NL_NAME_1": "Зајечарски","county": "Sokobanja","VARNAME_2": "NA","NL_NAME_2": "Сокобања","TYPE_2": "Opštine","ENGTYPE_2": "Town|Municipal","CC_2": "NA","HASC_2": "NA","name": "Sokobanja.county","area_km2": 526.5262,"hist_schema_id": "Elevation0-9000","hist_area_km2": {"225": 0.3529,"250": 4.5408,"275": 10.7527,"300": 14.4184,"325": 16.7953,"350": 19.3714,"375": 21.7483,"400": 20.5835,"425": 20.169,"450": 22.8526,"475": 23.0837,"500": 23.9573,"525": 24.0348,"550": 24.4487,"575": 24.0499,"600": 24.2624,"625": 25.6299,"650": 24.2211,"675": 21.126,"700": 17.918,"725": 14.8355,"750": 12.1211,"775": 11.5095,"800": 10.1618,"825": 10.2394,"850": 9.7322,"875": 8.6418,"900": 8.1817,"925": 8.8886,"950": 8.7657,"975": 7.2912,"1000": 6.1704,"1025": 5.0197,"1050": 4.1907,"1075": 4.6983,"1100": 4.7598,"1125": 3.2247,"1150": 2.4722,"1175": 1.3052}}}