{"type":"Feature","properties":{"GID_2":"SRB.24.4_1","GID_0":"SRB","country":"Serbia","GID_1":"SRB.24_1","province":"Zapadno-Bački","NL_NAME_1":"Западнобачки","county":"Sombor","VARNAME_2":"NA","NL_NAME_2":"Сомбор","TYPE_2":"Opštine","ENGTYPE_2":"Town|Municipal","CC_2":"NA","HASC_2":"NA","name":"Sombor.county"},
"geometry":{"type": "MultiPolygon","coordinates": [[[[18.9465,45.6821,80.0],[18.9716,45.7413,100.2349],[18.9706,45.7453,100.3275],[18.9595,45.754,87.7293],[18.9628,45.7618,103.1413],[18.9766,45.7795,84.2912],[19.0169,45.7851,84.8194],[19.0485,45.7783,87.146],[19.0572,45.7733,87.7189],[19.0557,45.7673,87.229],[19.0417,45.759,85.7826],[19.0356,45.7528,84.6463],[19.0386,45.7445,86.0647],[19.0418,45.741,85.4907],[19.0584,45.7382,86.1553],[19.0772,45.7323,86.8743],[19.1094,45.7303,86.5314],[19.1199,45.7231,88.0771],[19.1305,45.7114,86.7183],[19.1308,45.7048,86.3493],[19.1215,45.6942,86.7852],[19.1211,45.6877,86.0609],[19.1238,45.684,86.1472],[19.1332,45.6798,86.1858],[19.1351,45.6697,86.3303],[19.1531,45.66,85.974],[19.1565,45.6543,85.4279],[19.1517,45.6482,87.7852],[19.1366,45.6351,83.8733],[19.1338,45.6303,85.121],[19.1352,45.5836,83.0771],[19.1642,45.5823,106.5356],[19.1883,45.5922,87.005],[19.2161,45.599,86.0163],[19.2284,45.6043,85.3281],[19.2309,45.6101,85.7263],[19.2264,45.6183,86.3217],[19.225,45.6276,86.0445],[19.2225,45.6318,86.2202],[19.2145,45.6387,86.1758],[19.2101,45.6513,86.3549],[19.2111,45.6554,84.8868],[19.215699999999998,45.662,86.8699],[19.2267,45.6683,84.9534],[19.236,45.6711,86.1306],[19.2482,45.6717,85.6291],[19.2554,45.6704,84.6909],[19.2701,45.6619,84.6139],[19.278199999999998,45.6598,86.0155],[19.296,45.6611,85.208],[19.3229,45.6575,84.4879],[19.3283,45.6601,85.0985],[19.3301,45.6632,85.7513],[19.3299,45.6677,85.3214],[19.3198,45.68,84.6651],[19.3137,45.6827,84.9075],[19.2951,45.6853,83.3956],[19.2887,45.6878,84.6019],[19.2853,45.6913,85.6109],[19.286,45.6945,86.0275],[19.289,45.6972,85.4924],[19.306,45.7062,85.8962],[19.3093,45.7131,85.2627],[19.3073,45.7171,86.6976],[19.3004,45.7206,84.9386],[19.2762,45.7241,84.7059],[19.2689,45.7276,83.8201],[19.2682,45.7332,84.8724],[19.2752,45.7466,85.4059],[19.2784,45.749,85.7217],[19.2853,45.7492,84.1707],[19.3014,45.7415,84.9383],[19.3137,45.7409,86.1383],[19.3157,45.7441,85.3008],[19.31,45.7504,85.9994],[19.3088,45.7544,85.8224],[19.3181,45.7707,103.5204],[19.3211,45.7734,106.5051],[19.3515,45.7895,110.2658],[19.3877,45.8015,115.6877],[19.4188,45.816,112.9624],[19.3949,45.8342,112.033],[19.3746,45.8437,110.8044],[19.351,45.8654,111.7438],[19.3511,45.8771,106.9824],[19.3483,45.8859,112.1934],[19.3479,45.9087,118.1193],[19.3394,45.9262,118.3192],[19.3323,45.9346,121.2239],[19.331,45.9391,121.1211],[19.3332,45.9466,121.4226],[19.344,45.9554,120.7695],[19.3465,45.9596,118.838],[19.3391,45.9756,116.9691],[19.3408,45.9894,120.2071],[19.3383,45.9913,122.263],[19.3282,45.9922,119.7594],[19.3246,45.9941,118.2821],[19.312,46.012,122.3198],[19.2973,46.0232,126.7531],[19.2829,46.0164,123.7761],[19.2964,46.0014,120.1084],[19.2745,45.998,114.8086],[19.2439,46.0012,118.098],[19.2113,46.0024,118.9012],[19.191,45.9977,117.3621],[19.1487,45.998,96.3611],[19.1359,46.0079,101.1132],[19.134,46.0217,98.9735],[19.1275,46.0347,105.6261],[19.1099,46.0383,98.7272],[19.0943,46.0336,100.7507],[19.0792,46.0199,100.1073],[19.0607,45.9997,95.0215],[19.071,45.9712,94.1002],[19.0108,45.968,91.0794],[19.0014,45.9598,89.3357],[18.9968,45.9455,88.8621],[18.9864,45.9361,88.9921],[18.9702,45.9317,88.0611],[18.9493,45.9294,88.775],[18.9278,45.9348,84.3976],[18.8992,45.9378,96.5605],[18.8812,45.9256,85.9587],[18.8629,45.9179,84.63],[18.8413,45.9133,83.3201],[18.8113,45.9113,81.5],[18.8087,45.8987,83.9013],[18.8099,45.8873,95.2469],[18.8153,45.8819,86.7814],[18.8349,45.8729,94.7288],[18.8442,45.8637,86.7811],[18.8445,45.8508,166.262],[18.8359,45.8326,132.2636],[18.8344,45.8225,88.8389],[18.8419,45.811,95.8549],[18.8638,45.7914,103.1437],[18.8769,45.774,86.7145],[18.8837,45.7539,92.8919],[18.8846,45.7304,85.5175],[18.8905,45.7172,100.1307],[18.9144,45.7027,98.7769],[18.9438,45.6909,84.4449],[18.9465,45.6821,80.0]]]]}}