{"type": "Feature","bbox": [21.254,43.8599,21.5675,44.0514],"geometry": {"type": "MultiPolygon","coordinates": [[[[21.3581,44.0413,243.3242],[21.3556,44.0344,195.4779],[21.3603,44.0239,161.7653],[21.3587,44.0203,138.0632],[21.3526,44.018,131.8115],[21.3343,44.017,122.2907],[21.3261,44.0148,111.5934],[21.3195,44.0108,111.5626],[21.3146,44.0026,112.377],[21.3056,43.9982,112.7601],[21.3019,43.9945,112.8269],[21.3041,43.989,113.3634],[21.3273,43.9664,113.3921],[21.3284,43.9583,117.4249],[21.3247,43.9489,116.4046],[21.321,43.945,116.4601],[21.3012,43.9392,169.2955],[21.2946,43.9343,269.2577],[21.2952,43.931399999999996,247.1711],[21.3134,43.9224,179.0133],[21.316,43.9195,149.6389],[21.3152,43.9169,122.8876],[21.3069,43.9123,253.3863],[21.2962,43.8996,348.6697],[21.2852,43.8948,379.8904],[21.2716,43.8914,370.5742],[21.2567,43.8842,335.8997],[21.254,43.8815,395.5596],[21.255,43.8763,441.7544],[21.27,43.8631,564.8033],[21.2815,43.8632,387.6504],[21.297,43.8599,274.0281],[21.3238,43.8731,124.9839],[21.3309,43.8746,119.8128],[21.3365,43.8727,115.882],[21.3453,43.8664,120.3215],[21.3523,43.8658,121.3804],[21.3561,43.8667,120.7141],[21.368,43.8757,118.557],[21.3804,43.8792,120.2985],[21.3955,43.879,126.3297],[21.4201,43.8724,194.5868],[21.4286,43.8734,197.012],[21.4408,43.8782,223.6783],[21.4612,43.8804,210.5448],[21.4678,43.886,250.304],[21.4693,43.8921,229.332],[21.4556,43.9058,225.0806],[21.4445,43.9097,233.4898],[21.4168,43.911,186.9803],[21.4024,43.9157,153.5577],[21.401,43.918,147.8935],[21.4066,43.9212,142.5488],[21.4366,43.9263,188.1716],[21.4491,43.9245,185.6703],[21.4567,43.9251,180.6838],[21.4751,43.9325,277.141],[21.4954,43.9376,287.6978],[21.5147,43.9468,486.9321],[21.5359,43.9529,487.6112],[21.5568,43.9686,463.1228],[21.552,43.9704,460.4492],[21.5527,43.9753,491.242],[21.5634,43.9805,518.9494],[21.5675,43.9847,559.0814],[21.5673,43.9879,540.9923],[21.5611,43.9961,634.007],[21.5591,44.0017,621.3447],[21.556,44.0037,558.9378],[21.5293,44.0056,505.5686],[21.4957,44.0179,338.6435],[21.4757,44.0224,304.9758],[21.4513,44.0197,227.9616],[21.4331,44.0271,294.6133],[21.4204,44.0413,215.6485],[21.3982,44.0514,231.5834],[21.3863,44.0506,227.4414],[21.3661,44.0428,231.2417],[21.3581,44.0413,243.3242]]]]}
,"properties": {"GID_2": "SRB.14.1_1","GID_0": "SRB","country": "Serbia","GID_1": "SRB.14_1","province": "Pomoravski","NL_NAME_1": "Поморавски","county": "Ćuprija","VARNAME_2": "Ravno","NL_NAME_2": "Ћуприја","TYPE_2": "Opštine","ENGTYPE_2": "Town|Municipal","CC_2": "NA","HASC_2": "NA","name": "Ćuprija.county","area_km2": 276.0324,"hist_schema_id": "Elevation0-9000","hist_area_km2": {"100": 4.1039,"125": 87.3646,"150": 18.9266,"175": 27.7156,"200": 26.9497,"225": 23.2251,"250": 16.3275,"275": 11.5969,"300": 7.0343,"325": 5.4783,"350": 5.6007,"375": 4.9905,"400": 4.8991,"425": 5.296,"450": 5.25,"475": 4.8533,"500": 3.6322,"525": 3.0523,"550": 2.564,"575": 2.4569,"600": 1.9989,"625": 1.9682,"650": 0.4731,"675": 0.2747}}}