{"type": "Feature","bbox": [20.5262,43.7753,20.8983,44.0453],"geometry": {"type": "MultiPolygon","coordinates": [[[[20.6208,43.8592,336.5728],[20.6364,43.845,349.9957],[20.6593,43.8323,429.0766],[20.662,43.8277,462.0333],[20.6625,43.8194,378.9454],[20.672,43.8106,448.5593],[20.6901,43.7884,486.9041],[20.7129,43.777,354.6311],[20.7215,43.7753,392.6233],[20.7404,43.7762,467.3089],[20.7702,43.7892,308.5927],[20.7701,43.8059,313.2453],[20.768,43.8091,300.1382],[20.7607,43.8141,326.3305],[20.7588,43.818,328.4158],[20.7606,43.8217,306.2541],[20.7652,43.8239,268.0556],[20.7953,43.8318,253.4287],[20.8369,43.8284,441.4394],[20.8499,43.838,599.1493],[20.8585,43.8402,689.7153],[20.8655,43.8381,601.6797],[20.8739,43.8303,439.5782],[20.8941,43.8266,632.9095],[20.8983,43.8365,543.0527],[20.8951,43.8504,528.3475],[20.8902,43.8569,576.8101],[20.884,43.8596,567.2964],[20.8722,43.8582,551.6212],[20.8663,43.8591,699.0713],[20.8619,43.8639,616.9366],[20.8602,43.8717,540.3513],[20.8573,43.8764,607.604],[20.8346,43.8901,433.763],[20.8244,43.9043,343.0284],[20.8178,43.9067,368.6588],[20.8022,43.9077,274.898],[20.7928,43.9119,296.5687],[20.7851,43.9178,277.1623],[20.7824,43.9225,270.9259],[20.7832,43.934,274.9632],[20.7784,43.943,279.0978],[20.7788,43.9508,274.2069],[20.7769,43.9579,282.265],[20.7685,43.9752,324.8075],[20.7652,43.9885,369.8865],[20.7584,43.9953,393.3899],[20.7522,43.998,365.0718],[20.7294,43.9995,349.2638],[20.7106,43.9963,355.3275],[20.7018,43.998,379.5822],[20.6994,44.002,365.7943],[20.7165,44.0188,345.5287],[20.7172,44.0231,361.6687],[20.7049,44.0308,359.0514],[20.6791,44.034,357.3334],[20.6707,44.041,395.3169],[20.6583,44.0453,437.6013],[20.6512,44.0436,326.4791],[20.6476,44.0406,361.2807],[20.6395,44.0229,460.6416],[20.6279,44.0144,456.1509],[20.6202,44.0054,472.1695],[20.6133,44.0055,499.5992],[20.6009,44.012,536.775],[20.595,44.0113,637.3474],[20.5912,44.0015,645.5439],[20.5752,43.9921,681.8177],[20.5688,43.9849,587.2251],[20.5663,43.98,531.3181],[20.567,43.9708,475.0735],[20.565,43.9668,443.9733],[20.545,43.9545,637.7431],[20.5262,43.9469,722.9976],[20.5315,43.942,644.2987],[20.5424,43.9356,561.8777],[20.5444,43.9304,536.4101],[20.5448,43.9198,437.1573],[20.5477,43.9156,424.7046],[20.5609,43.9086,439.7868],[20.5764,43.9046,335.0497],[20.5833,43.9004,308.0737],[20.5911,43.8919,284.3954],[20.6061,43.8699,288.871],[20.6208,43.8592,336.5728]]]]}
,"properties": {"GID_2": "SRB.21.3_1","GID_0": "SRB","country": "Serbia","GID_1": "SRB.21_1","province": "Šumadijski","NL_NAME_1": "Шумадијски","county": "Knić","VARNAME_2": "NA","NL_NAME_2": "Кнић","TYPE_2": "Opštine","ENGTYPE_2": "Town|Municipal","CC_2": "NA","HASC_2": "NA","name": "Knić.county","area_km2": 421.2147,"hist_schema_id": "Elevation0-9000","hist_area_km2": {"225": 14.52,"250": 25.1759,"275": 55.8155,"300": 51.6569,"325": 43.1818,"350": 37.1204,"375": 27.5967,"400": 23.0658,"425": 17.4639,"450": 16.6102,"475": 15.1751,"500": 15.1752,"525": 15.7711,"550": 13.9683,"575": 12.7905,"600": 10.635,"625": 8.4358,"650": 6.526,"675": 4.7991,"700": 3.3778,"725": 1.941,"750": 0.4127}}}