{"type": "Feature","bbox": [21.7019,43.203,22.167,43.4674],"geometry": {"type": "MultiPolygon","coordinates": [[[[21.7019,43.3659,499.3655],[21.7328,43.3424,230.5984],[21.7394,43.3308,287.3449],[21.7377,43.3229,278.1891],[21.7403,43.3191,269.0206],[21.7515,43.318,286.088],[21.7762,43.3193,219.921],[21.7881,43.3133,178.5453],[21.7898,43.3102,181.3416],[21.7871,43.2933,227.2365],[21.7911,43.2828,219.223],[21.7971,43.2741,206.0882],[21.8119,43.2652,210.3651],[21.8129,43.2546,231.9076],[21.8285,43.2414,184.4661],[21.8408,43.2555,186.8146],[21.844,43.2649,188.3536],[21.8469,43.2674,186.2215],[21.8831,43.2716,301.9352],[21.8923,43.2654,252.5182],[21.8935,43.2613,273.5896],[21.8924,43.2498,342.7429],[21.9026,43.2394,560.1646],[21.9067,43.2286,731.0462],[21.9192,43.2192,718.6901],[21.9521,43.2194,592.8476],[21.9659,43.2288,734.9545],[21.9873,43.2325,743.2368],[21.9968,43.2402,611.1689],[22.0079,43.2456,253.2418],[22.0274,43.2447,418.2907],[22.0473,43.2462,512.9174],[22.0765,43.2363,635.0646],[22.0829,43.2308,791.6119],[22.0894,43.2206,779.8852],[22.1136,43.203,1125.1572],[22.1317,43.2302,673.4282],[22.1297,43.2394,549.4575],[22.131,43.243,550.6498],[22.1393,43.2498,513.6939],[22.1451,43.2576,439.6861],[22.1612,43.2599,474.2719],[22.167,43.2682,609.0131],[22.1634,43.2815,537.5131],[22.1503,43.288,470.3947],[22.1466,43.2914,440.1995],[22.1468,43.3024,484.8241],[22.1419,43.3152,575.2404],[22.1374,43.3369,425.3365],[22.12,43.3478,760.4061],[22.095,43.3593,950.9175],[22.072,43.3648,625.1605],[22.0444,43.375,449.5183],[22.0059,43.3758,629.2242],[21.9877,43.3743,490.1976],[21.9803,43.3765,614.1919],[21.9748,43.3846,592.4497],[21.9779,43.3879,666.2424],[21.9779,43.3912,688.9221],[21.9659,43.3929,616.6044],[21.961,43.396,699.3389],[21.9561,43.4043,750.8054],[21.9551,43.414,656.3522],[21.9529,43.4173,669.5542],[21.9347,43.4333,635.4692],[21.9265,43.4452,679.1265],[21.9146,43.4555,287.039],[21.9065,43.4583,306.9761],[21.8756,43.462,413.3301],[21.8509,43.4674,293.5637],[21.839,43.4655,339.0715],[21.8334,43.4612,345.5336],[21.8311,43.4532,287.4491],[21.819,43.4446,281.4932],[21.807,43.4286,190.6936],[21.7976,43.4193,186.0982],[21.788,43.4173,171.6532],[21.7733,43.4211,172.8263],[21.7615,43.4216,170.7993],[21.7515,43.4188,175.4105],[21.7494,43.4128,201.6621],[21.7554,43.4016,280.3815],[21.7646,43.3956,178.1305],[21.7664,43.3929,172.8616],[21.7662,43.3889,169.6646],[21.7619,43.3847,211.2135],[21.7398,43.3796,427.3776],[21.7019,43.3659,499.3655]]]]}
,"properties": {"GID_2": "SRB.10.5_1","GID_0": "SRB","country": "Serbia","GID_1": "SRB.10_1","province": "Nišavski","NL_NAME_1": "Нишавски","county": "Niš","VARNAME_2": "NA","NL_NAME_2": "Ниш","TYPE_2": "Opštine","ENGTYPE_2": "Town|Municipal","CC_2": "NA","HASC_2": "NA","name": "Niš.county","area_km2": 576.7629,"hist_schema_id": "Elevation0-9000","hist_area_km2": {"175": 78.3569,"200": 59.3766,"225": 41.835,"250": 31.5133,"275": 32.3324,"300": 30.7929,"325": 30.2387,"350": 26.8793,"375": 24.5361,"400": 22.0384,"425": 19.2944,"450": 17.2903,"475": 16.3807,"500": 16.7219,"525": 16.4127,"550": 15.9353,"575": 15.5637,"600": 14.6066,"625": 14.5273,"650": 11.274,"675": 9.0236,"700": 6.1726,"725": 4.8926,"750": 4.6929,"775": 3.8136,"800": 3.1806,"825": 2.2238,"850": 1.2817,"875": 0.7875,"900": 0.5868,"925": 0.6177,"950": 0.4476,"975": 0.4322,"1000": 0.5092,"1025": 0.1854,"1050": 0.2008,"1075": 0.2009,"1100": 0.17,"1125": 0.1236,"1150": 0.1545,"1175": 0.1391,"1200": 0.1082,"1225": 0.1236,"1250": 0.1391,"1275": 0.0927,"1300": 0.0927,"1325": 0.0927,"1350": 0.0464,"1375": 0.0618,"1400": 0.0927,"1425": 0.0309,"1450": 0.0464,"1475": 0.0309,"1500": 0.0464,"1525": 0.0155}}}