{"type":"Feature","properties":{"GID_1":"SRB.13_1","GID_0":"SRB","country":"Serbia","province":"Podunavski","VARNAME_1":"Podunavlje|Danube","NL_NAME_1":"Подунавски","TYPE_1":"Okrug","ENGTYPE_1":"District","CC_1":"NA","HASC_1":"RS.PD","ISO_1":"NA","name":"Podunavski.province"},
"geometry":{"type": "MultiPolygon","coordinates": [[[[21.1319,44.4851,82.6146],[21.1243,44.4959,81.7832],[21.1307,44.5052,83.9775],[21.1157,44.5128,81.2254],[21.1129,44.5179,80.6472],[21.115,44.5225,80.8204],[21.1243,44.5306,81.3226],[21.1316,44.5428,76.6525],[21.1317,44.5511,79.8308],[21.1252,44.5556,83.3755],[21.0881,44.561,78.0903],[21.0614,44.5793,79.8862],[21.0586,44.5826,75.8387],[21.0586,44.5863,75.0781],[21.0625,44.5909,82.583],[21.0735,44.5986,80.224],[21.0671,44.6023,75.9105],[21.0552,44.6032,75.3158],[21.0485,44.6069,74.2691],[21.0437,44.612,74.2691],[21.0394,44.6236,73.276],[21.0302,44.6341,75.8989],[21.0294,44.638,72.2305],[21.0311,44.6442,72.1383],[21.0226,44.6511,72.0469],[21.0207,44.6547,71.3184],[21.0296,44.6654,72.4314],[21.0294,44.6695,73.5872],[21.0227,44.6808,70.6217],[21.0264,44.6911,69.8086],[21.0117,44.6957,72.1026],[20.9951,44.6963,69.4048],[20.9861,44.6948,68.5279],[20.9641,44.6867,69.9585],[20.9546,44.6793,69.9291],[20.9282,44.6702,72.6606],[20.9173,44.6617,136.9843],[20.9081,44.6509,132.3384],[20.8888,44.6413,139.0783],[20.8627,44.6386,194.5264],[20.8381,44.6331,163.5579],[20.8136,44.6304,205.6483],[20.7782,44.6329,171.8587],[20.7729,44.6277,192.338],[20.7708,44.6211,235.2278],[20.7715,44.6164,209.7272],[20.7742,44.6122,191.8676],[20.7814,44.6067,212.9082],[20.7853,44.6001,159.7888],[20.7852,44.5949,136.3272],[20.7808,44.59,151.5981],[20.7815,44.5876,129.8801],[20.7992,44.5781,161.1711],[20.8057,44.5678,182.3574],[20.8064,44.5632,223.4912],[20.8006,44.5593,240.555],[20.786,44.5569,247.4638],[20.762,44.5487,203.5063],[20.7529,44.5417,275.0966],[20.7371,44.533,217.7018],[20.7565,44.5157,217.5769],[20.7585,44.5117,280.5354],[20.7591,44.5022,295.2317],[20.7621,44.4975,318.3979],[20.7877,44.4881,240.8567],[20.8044,44.474,202.236],[20.8211,44.4639,215.3161],[20.831,44.4485,151.8187],[20.8376,44.4415,175.0141],[20.8388,44.4332,135.3018],[20.8365,44.4289,136.0772],[20.8242,44.4187,196.5443],[20.8173,44.4155,204.6332],[20.7914,44.4228,195.3241],[20.7835,44.4236,177.1734],[20.7759,44.4228,191.1867],[20.7584,44.4175,182.7422],[20.7557,44.414,177.3371],[20.7529,44.4006,125.0752],[20.733,44.3863,128.9249],[20.731,44.3821,147.5156],[20.7315,44.3785,162.7504],[20.7422,44.3642,173.0818],[20.7554,44.3524,157.5908],[20.762,44.3506,155.3872],[20.779,44.3533,138.0496],[20.7834,44.3523,127.8707],[20.7874,44.3492,122.6245],[20.7869,44.3448,124.5889],[20.7706,44.334,139.5148],[20.7658,44.3272,186.0209],[20.7658,44.3216,175.7997],[20.7717,44.3082,197.0312],[20.772,44.2978,178.1796],[20.8061,44.2942,163.7696],[20.822,44.2889,136.797],[20.8237,44.2867,146.6447],[20.8231,44.284,147.3971],[20.8139,44.2747,150.1245],[20.8163,44.2576,135.0579],[20.8495,44.2597,126.6438],[20.858,44.2565,170.468],[20.8719,44.2478,215.3971],[20.8862,44.2469,200.7883],[20.8969,44.2426,183.7106],[20.904,44.2419,267.1289],[20.9499,44.2507,206.5693],[20.9739,44.259,224.1596],[20.976,44.2341,175.2432],[20.9795,44.2301,144.6552],[20.9963,44.22,122.4727],[21.0202,44.2148,115.9673],[21.0515,44.2,237.117],[21.0722,44.1988,207.6282],[21.0863,44.2018,148.4411],[21.1004,44.1957,103.0748],[21.1226,44.1926,100.8922],[21.1328,44.1861,101.8129],[21.1354,44.1861,102.0853],[21.149,44.2059,99.5729],[21.1495,44.2087,94.9463],[21.1397,44.22,99.0169],[21.1378,44.23,98.3176],[21.1269,44.2368,99.6374],[21.1213,44.2453,96.4734],[21.1208,44.252,96.1684],[21.126,44.2653,97.5879],[21.121,44.2751,95.2659],[21.1232,44.2776,98.6094],[21.1366,44.2816,95.7851],[21.1474,44.2886,95.2082],[21.1265,44.2959,95.2383],[21.125,44.2988,96.9091],[21.1337,44.3037,93.309],[21.1535,44.3075,93.8662],[21.1765,44.3145,92.1461],[21.1816,44.318,91.7959],[21.1826,44.3211,91.9026],[21.1791,44.3258,91.2132],[21.157,44.3425,90.6444],[21.15,44.3448,93.2843],[21.1318,44.3468,91.9902],[21.12,44.3507,91.2631],[21.1124,44.3546,92.0815],[21.1076,44.3602,90.2834],[21.1069,44.3645,97.5417],[21.1089,44.3702,90.7423],[21.134,44.3998,90.7119],[21.1442,44.4031,91.7397],[21.1503,44.4027,92.544],[21.1553,44.4003,87.7887],[21.1601,44.4035,87.324],[21.1534,44.4124,88.8079],[21.1414,44.4232,86.7556],[21.1385,44.4365,86.6341],[21.142,44.4415,87.7196],[21.1564,44.4475,83.062],[21.1578,44.4506,87.6632],[21.1427,44.473,83.7638],[21.1319,44.4851,82.6146]]]]}}