{"type":"Feature","properties":{"ISO3166-1-Alpha-3":"SRB","country":"Republic of Serbia","fill":"#F00","id":"831","name":"Podunavski"},
"geometry":{"type": "Polygon","coordinates": [[[21.14706,44.50075,89.0266],[21.14257,44.5102,80.9996],[21.13533,44.52191,72.3563],[21.11988,44.52503,81.4377],[21.11988,44.53186,81.1875],[21.13388,44.54131,80.5897],[21.14055,44.55144,84.8002],[21.14039,44.56374,79.2473],[21.13357,44.57963,78.8473],[21.12562,44.59258,76.4422],[21.11771,44.59878,76.299],[21.10562,44.60066,73.1123],[21.08515,44.60074,75.565],[21.08779,44.61976,77.0977],[21.06629,44.64399,75.6038],[21.07895,44.65536,76.5741],[21.07384,44.6604,76.7587],[21.05916,44.67087,74.4447],[21.05099,44.67521,72.7814],[21.05301,44.67988,73.4131],[21.05627,44.69179,72.5025],[21.05844,44.69634,73.8575],[21.04743,44.69748,72.4247],[21.04035,44.70259,76.0341],[21.03709,44.71146,78.2048],[21.03684,44.72201,67.5],[20.98956,44.71679,67.5],[20.88321,44.67266,71.9554],[20.82647,44.66093,73.4621],[20.79479,44.66468,75.0259],[20.79478,44.66468,75.0259],[20.77819,44.63288,171.8587],[20.77499,44.63004,196.9911],[20.77287,44.62766,192.338],[20.77143,44.62518,225.5238],[20.77086,44.62105,235.2278],[20.77096,44.61867,216.1204],[20.77148,44.61635,209.7272],[20.77246,44.6142,174.5514],[20.77422,44.61216,191.8676],[20.7814,44.60666,212.9082],[20.78378,44.60358,201.0422],[20.78527,44.60007,159.7888],[20.78569,44.59705,159.3815],[20.78522,44.59488,136.3272],[20.78367,44.59317,138.407],[20.78192,44.59159,168.4568],[20.78078,44.58999,151.5981],[20.78068,44.58924,151.5981],[20.7815,44.58759,129.8801],[20.78331,44.58596,131.7065],[20.78564,44.58446,116.9035],[20.78832,44.58322,113.6366],[20.7952,44.58085,111.796],[20.79773,44.57929,115.3624],[20.79918,44.57811,161.1711],[20.80036,44.57681,174.1485],[20.80171,44.5748,142.2694],[20.80569,44.56782,182.3574],[20.80667,44.56503,216.1198],[20.80636,44.5632,223.4912],[20.80491,44.56147,218.7854],[20.80269,44.56005,228.9886],[20.80057,44.55924,240.555],[20.79825,44.55868,245.3426],[20.78853,44.55738,220.0092],[20.78605,44.55687,247.4638],[20.78362,44.55617,245.3389],[20.77561,44.55294,213.2117],[20.76476,44.54989,206.2422],[20.76197,44.54875,203.5063],[20.75938,44.547,214.1401],[20.75292,44.5417,275.0966],[20.75106,44.54054,276.981],[20.74114,44.53568,213.0959],[20.73711,44.53304,217.7018],[20.75019,44.52255,289.6726],[20.75654,44.51568,217.5769],[20.75794,44.51348,257.7458],[20.75851,44.51168,280.5354],[20.75861,44.50426,298.7278],[20.75913,44.50222,295.2317],[20.76212,44.49749,318.3979],[20.76414,44.49599,304.686],[20.76605,44.49542,296.1221],[20.77137,44.49442,283.7229],[20.77907,44.49201,236.6387],[20.7877,44.48811,240.8567],[20.80445,44.47403,202.236],[20.81654,44.46747,219.7115],[20.81902,44.46581,215.5548],[20.82109,44.46395,215.3161],[20.82465,44.4592,195.2225],[20.82687,44.45504,163.1799],[20.83106,44.4485,151.8187],[20.83649,44.44302,193.353],[20.83757,44.44153,175.0141],[20.83835,44.43987,166.563],[20.83891,44.43765,164.705],[20.83907,44.43543,150.6356],[20.83881,44.43326,135.3018],[20.83809,44.43114,134.9319],[20.83649,44.42886,136.0772],[20.82419,44.41874,196.5443],[20.82176,44.41708,198.7664],[20.81907,44.41589,204.6332],[20.81726,44.41548,204.6332],[20.81468,44.41543,210.3702],[20.81184,44.41605,209.8163],[20.79349,44.42228,193.7725],[20.79142,44.42282,195.3241],[20.7875,44.42339,193.1088],[20.78352,44.42357,177.1734],[20.77959,44.42339,187.4578],[20.77587,44.42279,191.1867],[20.76951,44.42075,170.4436],[20.75995,44.41832,184.2052],[20.75835,44.41755,182.7422],[20.75675,44.416,181.2914],[20.75577,44.41398,177.3371],[20.75515,44.4114,142.9364],[20.75401,44.40313,136.4655],[20.75292,44.40062,125.0752],[20.75122,44.39869,120.717],[20.74895,44.39695,120.4527],[20.74021,44.39186,137.7231],[20.7353,44.38835,132.0544],[20.73303,44.38628,128.9249],[20.73148,44.38406,150.2432],[20.73096,44.38205,145.0583],[20.73148,44.37853,162.7504],[20.73236,44.37646,170.5509],[20.73375,44.37432,174.5788],[20.73685,44.37021,174.8977],[20.74223,44.36417,173.0818],[20.75246,44.35455,155.0608],[20.75535,44.35238,157.5908],[20.75794,44.35114,156.2187],[20.7599,44.3507,156.3083],[20.76202,44.35057,155.3872],[20.76486,44.35086,151.9003],[20.77292,44.353,144.2464],[20.77597,44.35337,141.6303],[20.77902,44.35331,138.0496],[20.7813,44.35293,135.8816],[20.78347,44.35228,127.8707],[20.78589,44.35096,126.237],[20.78739,44.34918,122.6245],[20.78786,44.34737,122.8058],[20.78765,44.34603,122.8856],[20.78698,44.34476,124.5889],[20.78502,44.34319,124.5326],[20.77902,44.33977,134.1305],[20.7706,44.33394,139.5148],[20.7676,44.33122,174.6296],[20.76672,44.32985,190.9067],[20.76579,44.32724,186.0209],[20.76553,44.32445,156.2931],[20.76584,44.32164,175.7997],[20.76677,44.31895,180.3274],[20.7692,44.3152,203.1428],[20.77065,44.31249,199.6252],[20.77174,44.30823,197.0312],[20.77205,44.305,183.7789],[20.77205,44.29776,178.1796],[20.79127,44.29657,165.7864],[20.8061,44.29425,163.7696],[20.8093,44.29363,156.6465],[20.81638,44.29153,155.6455],[20.81954,44.29027,137.3051],[20.82196,44.28887,136.797],[20.82305,44.28784,138.2725],[20.82367,44.2867,146.6447],[20.82372,44.28533,147.0298],[20.82315,44.28396,147.3971],[20.82088,44.28159,146.6184],[20.81628,44.27802,149.7392],[20.81478,44.27645,151.9102],[20.81385,44.27471,150.1245],[20.81364,44.27275,151.2217],[20.81556,44.2666,146.9046],[20.81602,44.26381,144.9525],[20.81633,44.25763,135.0579],[20.82848,44.25841,131.1095],[20.83979,44.25999,129.1382],[20.8431,44.26024,128.3545],[20.84636,44.26014,126.9302],[20.84951,44.25968,126.6438],[20.85364,44.25833,131.6599],[20.85803,44.25647,170.468],[20.86336,44.25322,227.0098],[20.86821,44.2497,225.1237],[20.86997,44.24862,215.4275],[20.87194,44.24784,215.3971],[20.87411,44.24738,213.2827],[20.8769,44.24717,203.5976],[20.88093,44.24735,180.0773],[20.88382,44.24722,201.4001],[20.88615,44.24689,200.7883],[20.88842,44.24632,175.8918],[20.89137,44.24518,151.9595],[20.89684,44.24262,183.7106],[20.89891,44.24213,169.0806],[20.90103,44.2419,222.2906],[20.90398,44.2419,267.1289],[20.90692,44.24226,242.3947],[20.91493,44.24469,179.2721],[20.91865,44.24531,172.4829],[20.93023,44.24629,141.6818],[20.93395,44.24691,143.7416],[20.94191,44.24934,196.6665],[20.94986,44.25068,206.5693],[20.95457,44.25213,181.301],[20.97389,44.259,224.1596],[20.97394,44.24676,169.0599],[20.97524,44.23632,162.5456],[20.97601,44.2341,175.2432],[20.97746,44.23187,157.9054],[20.97947,44.23007,144.6552],[20.98573,44.22671,154.5618],[20.99234,44.222,123.5068],[20.99627,44.22004,122.4727],[21.00257,44.21782,129.1544],[21.00567,44.21725,126.9989],[21.01539,44.21606,119.2478],[21.02025,44.21482,115.9673],[21.04133,44.20511,235.7906],[21.05151,44.19994,237.117],[21.06128,44.19952,198.2439],[21.06903,44.1987,221.8897],[21.07218,44.1988,207.6282],[21.0743,44.19921,207.3484],[21.08216,44.20133,173.3995],[21.08495,44.2018,148.4411],[21.08629,44.2018,148.4411],[21.08861,44.20128,138.4272],[21.09084,44.2003,123.2537],[21.09595,44.1972,103.2109],[21.09807,44.19632,103.7234],[21.10045,44.1957,103.0748],[21.1036,44.19518,101.3092],[21.11378,44.19441,99.8849],[21.1173,44.19394,99.6051],[21.12257,44.19255,100.8922],[21.12603,44.191,101.2587],[21.12763,44.19007,100.9827],[21.13285,44.18611,101.8129],[21.13915,44.18332,100.8708],[21.13931,44.18552,100.84],[21.14417,44.19301,96.1816],[21.15466,44.19544,101.2767],[21.13357,44.2097,98.6282],[21.15466,44.2097,97.8401],[21.15233,44.21322,100.8416],[21.1513,44.2142,95.2398],[21.15016,44.21482,101.8526],[21.14722,44.21715,99.8309],[21.15187,44.22562,93.6562],[21.15342,44.22942,98.9626],[21.15176,44.23203,97.8196],[21.14722,44.23699,94.5953],[21.14722,44.24386,97.1769],[21.1683,44.25068,94.2893],[21.1683,44.25813,96.713],[21.15233,44.26298,95.7783],[21.13404,44.2866,95.5107],[21.11988,44.29226,96.0531],[21.11988,44.29911,93.6962],[21.1267,44.29911,96.5246],[21.1267,44.30531,97.2502],[21.11988,44.30531,94.9192],[21.11988,44.31275,93.6525],[21.1375,44.31169,95.216],[21.1452,44.31735,94.0949],[21.14195,44.32569,92.7254],[21.1267,44.33259,97.2941],[21.13156,44.3452,91.9875],[21.12701,44.35122,90.0553],[21.11895,44.35492,89.2269],[21.11306,44.36055,90.8188],[21.11022,44.37099,93.0499],[21.1113,44.37652,94.6207],[21.11502,44.38256,89.6468],[21.11988,44.39465,89.6972],[21.12417,44.41111,89.4249],[21.13125,44.42582,86.796],[21.14629,44.43522,88.0124],[21.1745,44.43563,89.3817],[21.17125,44.44313,86.5373],[21.16535,44.44845,85.4812],[21.15719,44.45248,87.4831],[21.14722,44.45612,84.392],[21.15466,44.47661,84.0479],[21.16225,44.47253,88.5801],[21.1652,44.47269,87.8265],[21.16783,44.47475,85.5869],[21.1745,44.47661,78.75],[21.16923,44.4785,78.9847],[21.16613,44.48067,83.1489],[21.16225,44.48266,84.5201],[21.15466,44.48406,86.7202],[21.15895,44.49982,75.5],[21.16086,44.50452,82.1588],[21.15466,44.50452,82.8222],[21.14706,44.50075,89.0266]]]}}