{"type":"Feature","properties":{"GID_2":"SRB.19.1_1","GID_0":"SRB","country":"Serbia","GID_1":"SRB.19_1","province":"Srednje-Banatski","NL_NAME_1":"Средњебанатски","county":"Bečej","VARNAME_2":"NoviBečej","NL_NAME_2":"Бечеј","TYPE_2":"Opštine","ENGTYPE_2":"Town|Municipal","CC_2":"NA","HASC_2":"NA","name":"Bečej.county"},
"geometry":{"type": "MultiPolygon","coordinates": [[[[20.0425,45.5025,73.2305],[20.0369,45.4852,78.8605],[20.0393,45.4803,79.8177],[20.0436,45.4791,78.3976],[20.0501,45.4814,74.3676],[20.0593,45.4888,74.5794],[20.0745,45.4955,73.6695],[20.0762,45.5007,73.3136],[20.0724,45.5076,73.218],[20.0727,45.5109,73.5379],[20.0763,45.5148,73.4561],[20.0835,45.5168,74.5081],[20.0934,45.5164,74.1689],[20.1013,45.5136,73.4857],[20.1304,45.4941,74.6889],[20.162,45.4964,73.4312],[20.1975,45.4846,75.7964],[20.2129,45.4845,76.3365],[20.2348,45.4904,76.1806],[20.2685,45.4927,78.369],[20.2718,45.4989,79.3804],[20.2713,45.51,79.5966],[20.2685,45.5149,79.7267],[20.2587,45.5234,78.3565],[20.2557,45.5282,79.4073],[20.2555,45.5325,76.328],[20.2588,45.5397,76.9815],[20.2718,45.5532,78.1212],[20.2791,45.564,77.5796],[20.3001,45.582,75.8505],[20.3037,45.5901,77.9504],[20.3103,45.5973,76.8943],[20.3153,45.6065,77.3756],[20.3236,45.6137,77.7968],[20.3301,45.6319,77.5874],[20.3337,45.6342,77.6636],[20.3501,45.6361,76.0542],[20.3548,45.6401,76.1033],[20.3548,45.6444,77.0803],[20.3492,45.6508,77.1975],[20.3434,45.6546,76.9181],[20.3362,45.6558,77.2191],[20.331,45.6622,74.7611],[20.3318,45.6705,74.857],[20.3362,45.675,77.3688],[20.3485,45.6804,77.8342],[20.3495,45.6775,77.9254],[20.3485,45.6733,75.6796],[20.3439,45.6681,76.6904],[20.3437,45.6651,78.0313],[20.3447,45.6622,75.8627],[20.3505,45.6592,74.9573],[20.3657,45.6638,77.7307],[20.3838,45.6762,77.2912],[20.3971,45.6745,76.8031],[20.4045,45.6756,75.9844],[20.4083,45.6788,76.5443],[20.4093,45.6878,77.37],[20.4236,45.6996,76.8709],[20.4236,45.7025,76.9145],[20.4079,45.7132,77.1562],[20.4013,45.7152,77.4978],[20.3901,45.7157,75.7684],[20.3854,45.7184,77.9087],[20.3809,45.7293,77.8235],[20.3706,45.7405,77.3543],[20.3599,45.7577,78.0827],[20.353,45.775,78.248],[20.3506,45.7866,78.555],[20.348,45.7898,78.2281],[20.3408,45.7898,78.8738],[20.3257,45.7854,78.2606],[20.3003,45.7908,75.971],[20.2548,45.7853,76.216],[20.231,45.785,75.3775],[20.1814,45.7884,75.5636],[20.1648,45.7918,76.1106],[20.1377,45.7745,75.8519],[20.1341,45.7708,79.7846],[20.1376,45.7626,80.8396],[20.1503,45.7531,76.5338],[20.1557,45.746,75.6499],[20.1565,45.7391,75.3836],[20.1538,45.7338,75.4516],[20.1203,45.7171,74.6305],[20.1085,45.7155,75.08],[20.092,45.7171,81.089],[20.0879,45.7162,79.765],[20.0838,45.7125,80.2432],[20.0839,45.704,81.8408],[20.0759,45.6858,74.8136],[20.0866,45.6737,74.2269],[20.0962,45.6663,74.7948],[20.0978,45.6629,74.9531],[20.0961,45.66,75.2503],[20.0856,45.6568,74.8618],[20.0685,45.6545,74.4525],[20.051,45.6576,73.7615],[20.0441,45.6568,74.3409],[20.0334,45.6523,80.0774],[20.0218,45.6416,79.916],[20.0218,45.6356,80.7133],[20.0292,45.6313,81.3933],[20.0577,45.6282,75.7372],[20.067,45.6231,76.355],[20.0671,45.6206,76.1769],[20.0642,45.6182,76.956],[20.0472,45.613,82.2169],[20.0428,45.609,81.0657],[20.0427,45.6054,81.3094],[20.0459,45.598,76.6558],[20.0531,45.5912,75.0126],[20.0629,45.5879,75.1883],[20.0768,45.5863,81.9161],[20.102,45.5959,73.8732],[20.1103,45.5969,70.0],[20.117,45.5945,73.1924],[20.1208,45.5879,73.9854],[20.1196,45.5838,74.0699],[20.1163,45.581,73.9151],[20.1085,45.5774,74.6167],[20.0925,45.5733,74.2447],[20.0784,45.5644,73.72],[20.0639,45.5603,74.8279],[20.0471,45.5577,74.7429],[20.0434,45.5556,75.0559],[20.0395,45.5489,73.8981],[20.0392,45.5444,74.5947],[20.0492,45.5358,73.767],[20.0514,45.5295,73.4269],[20.0435,45.511,73.3281],[20.0425,45.5025,73.2305]]]]}}