{"type":"Feature","properties":{"GID_2":"SRB.7.1_1","GID_0":"SRB","country":"Serbia","GID_1":"SRB.7_1","province":"Kolubarski","NL_NAME_1":"Колубарски","county":"Lajkovac","VARNAME_2":"NA","NL_NAME_2":"Лајковац","TYPE_2":"Opštine","ENGTYPE_2":"Town|Municipal","CC_2":"NA","HASC_2":"NA","name":"Lajkovac.county"},
"geometry":{"type": "MultiPolygon","coordinates": [[[[20.2175,44.4787,85.9718],[20.199,44.462,120.3709],[20.1811,44.4525,132.6991],[20.1814,44.447,138.3719],[20.1882,44.4384,138.3965],[20.1888,44.4342,139.0605],[20.1872,44.4308,135.5652],[20.155,44.416,136.4449],[20.1394,44.4118,139.061],[20.1251,44.3999,144.0854],[20.1153,44.3959,144.0531],[20.1128,44.3922,145.8439],[20.1141,44.3852,149.9288],[20.1051,44.3687,142.1105],[20.0989,44.3677,142.3027],[20.0909,44.3701,150.4446],[20.0848,44.374,155.1548],[20.07,44.3882,167.068],[20.0644,44.3908,167.2481],[20.0566,44.3897,177.466],[20.038,44.3792,226.9961],[20.0353,44.3747,299.5618],[20.0372,44.3664,310.0994],[20.0327,44.3596,295.1642],[20.0311,44.3541,270.4326],[20.0303,44.3434,270.7299],[20.0322,44.3306,231.9396],[20.039,44.3297,172.3572],[20.0433,44.3209,153.9228],[20.0529,44.3115,140.8128],[20.0739,44.2983,151.4501],[20.0845,44.3013,196.7402],[20.0913,44.3014,189.42],[20.1076,44.2962,177.8336],[20.1266,44.2945,216.4457],[20.13,44.2906,231.6087],[20.1311,44.2839,171.9903],[20.1352,44.2778,172.0159],[20.1385,44.2643,189.731],[20.1474,44.2575,177.6553],[20.1711,44.2563,217.6187],[20.1767,44.2527,238.3865],[20.181,44.247,208.3836],[20.1908,44.2522,211.4657],[20.1979,44.2541,232.9357],[20.2013,44.2518,187.76],[20.2077,44.2519,167.9651],[20.208,44.2589,168.175],[20.2103,44.2619,163.224],[20.2068,44.2695,170.8569],[20.2163,44.282,195.6448],[20.2102,44.2867,202.8601],[20.1923,44.3081,202.2253],[20.187,44.3199,142.587],[20.1899,44.3261,184.3392],[20.2005,44.3363,112.4251],[20.2027,44.3405,112.4168],[20.2006,44.3463,131.6068],[20.1923,44.3536,141.6756],[20.1914,44.3608,120.6985],[20.1992,44.3674,105.5411],[20.2006,44.3766,104.5413],[20.2154,44.3863,102.8324],[20.2265,44.4103,99.3609],[20.226,44.4233,101.6981],[20.2202,44.4342,110.4473],[20.2263,44.4515,116.7733],[20.2175,44.4787,85.9718]]]]}}