{"type":"Feature","properties":{"GID_2":"SRB.7.4_1","GID_0":"SRB","country":"Serbia","GID_1":"SRB.7_1","province":"Kolubarski","NL_NAME_1":"Колубарски","county":"Osečina","VARNAME_2":"NA","NL_NAME_2":"Осечина","TYPE_2":"Opštine","ENGTYPE_2":"Town|Municipal","CC_2":"NA","HASC_2":"NA","name":"Osečina.county"},
"geometry":{"type": "MultiPolygon","coordinates": [[[[19.561,44.4457,254.5266],[19.5395,44.4437,254.4669],[19.5213,44.4386,179.9661],[19.509,44.4402,194.7417],[19.4973,44.4395,218.7139],[19.4903,44.4375,171.0979],[19.4852,44.4341,163.9122],[19.4845,44.4317,189.0305],[19.4873,44.4279,227.1224],[19.4993,44.424,222.4087],[19.5035,44.4204,212.4006],[19.4988,44.4119,235.7683],[19.4984,44.4027,268.8404],[19.4938,44.3897,272.0213],[19.4842,44.3751,323.8653],[19.4787,44.37,337.9376],[19.4728,44.368,330.6618],[19.4565,44.3679,266.0353],[19.452,44.3651,298.5904],[19.4487,44.3584,320.9136],[19.452,44.3514,341.8419],[19.4606,44.3457,389.1209],[19.4751,44.3471,348.7206],[19.4803,44.3454,363.1241],[19.4914,44.3289,356.372],[19.492,44.3223,396.9608],[19.4888,44.3176,400.0573],[19.4837,44.3147,364.3328],[19.4669,44.3115,525.943],[19.4598,44.3076,523.8043],[19.4507,44.2973,711.9452],[19.4468,44.2852,902.3844],[19.4311,44.2748,558.0143],[19.4303,44.2628,493.5651],[19.4257,44.2541,626.6133],[19.4417,44.2444,608.1014],[19.4642,44.2365,388.0913],[19.4932,44.2322,475.0577],[19.5055,44.2248,495.7861],[19.5143,44.2217,712.6818],[19.5318,44.2211,979.8654],[19.544,44.2137,898.1646],[19.5591,44.2083,942.3411],[19.5767,44.1893,1144.13],[19.5879,44.2013,753.0339],[19.5896,44.2098,558.4858],[19.595,44.2219,742.3741],[19.5915,44.2369,878.832],[19.585,44.2489,618.9943],[19.5871,44.2587,450.1482],[19.5903,44.2608,547.687],[19.6022,44.2633,526.7682],[19.6076,44.2668,572.5562],[19.6113,44.2717,633.7945],[19.6109,44.2807,536.8057],[19.6182,44.2875,484.8975],[19.6227,44.2889,444.4382],[19.6338,44.2878,584.925],[19.6487,44.2886,476.4339],[19.6569,44.2922,432.5514],[19.6631,44.2977,460.8941],[19.6594,44.3029,444.7805],[19.6464,44.3078,468.6045],[19.6343,44.3205,397.1744],[19.6368,44.3273,348.4969],[19.6413,44.3334,277.7778],[19.6616,44.3478,309.6329],[19.6637,44.3525,323.0312],[19.6624,44.3629,318.5807],[19.6661,44.3716,373.8265],[19.662,44.3895,345.4141],[19.6617,44.3995,370.1311],[19.6512,44.4083,295.4441],[19.6182,44.4265,328.3173],[19.6139,44.4238,346.8716],[19.608,44.4226,314.8894],[19.5958,44.4224,367.4874],[19.588,44.4241,344.0454],[19.5813,44.4286,346.9315],[19.5759,44.4376,292.3112],[19.561,44.4457,254.5266]]]]}}