{"type":"Feature","properties":{"GID_2":"SRB.17.1_1","GID_0":"SRB","country":"Serbia","GID_1":"SRB.17_1","province":"Severno-Bački","NL_NAME_1":"Севернобачки","county":"BačkaTopola","VARNAME_2":"Topolya","NL_NAME_2":"БачкаТопола","TYPE_2":"Opštine","ENGTYPE_2":"Town|Municipal","CC_2":"NA","HASC_2":"NA","name":"Bačka_Topola.county"},
"geometry":{"type": "MultiPolygon","coordinates": [[[[19.8606,45.7722,94.9633],[19.8556,45.785,89.061],[19.8561,45.7966,96.6649],[19.8452,45.8078,98.6277],[19.8346,45.8279,100.5894],[19.8179,45.827,94.846],[19.8109,45.8292,101.5698],[19.8066,45.8372,102.197],[19.807,45.8516,103.3053],[19.7973,45.8624,102.93],[19.7924,45.8732,100.8888],[19.7649,45.9024,103.0844],[19.7535,45.8999,105.1255],[19.7208,45.8873,106.3143],[19.715,45.8815,106.7425],[19.7143,45.8705,105.9915],[19.7097,45.8688,105.5554],[19.6945,45.8753,106.3291],[19.6839,45.8836,107.5512],[19.677,45.8949,107.3817],[19.6773,45.9045,106.5815],[19.6734,45.9217,107.2144],[19.6673,45.9265,107.9952],[19.6544,45.9241,108.0708],[19.5564,45.8892,112.0264],[19.5475,45.8872,112.2458],[19.5375,45.8906,113.017],[19.528,45.8983,113.7228],[19.5216,45.9108,114.0782],[19.5239,45.9243,114.7577],[19.5128,45.9325,115.4446],[19.5028,45.943,113.805],[19.4764,45.9549,114.2479],[19.4331,45.9685,115.2714],[19.4212,45.9709,117.0297],[19.3714,45.9698,116.8568],[19.3461,45.9617,118.766],[19.3452,45.9568,119.8283],[19.3355,45.9495,121.9859],[19.3316,45.9436,120.8109],[19.3323,45.9346,121.2239],[19.3394,45.9262,118.3192],[19.3479,45.9087,118.1193],[19.3483,45.8859,112.1934],[19.3511,45.8771,106.9824],[19.3503,45.8675,112.1648],[19.3525,45.8632,111.9234],[19.3746,45.8437,110.8044],[19.3992,45.8311,112.4236],[19.4188,45.816,112.9624],[19.4299,45.8044,111.8885],[19.4314,45.7999,112.001],[19.4278,45.7909,110.9531],[19.4373,45.7803,111.0662],[19.4399,45.7694,112.8397],[19.4867,45.7456,110.4841],[19.4957,45.747,110.3682],[19.5149,45.7624,97.4396],[19.5257,45.7651,105.3429],[19.5366,45.7623,107.0705],[19.5533,45.7504,104.0454],[19.5776,45.7405,107.8419],[19.5911,45.7525,89.715],[19.6124,45.762,106.1643],[19.6263,45.7709,109.4645],[19.6349,45.7713,107.6952],[19.6661,45.7674,107.5892],[19.6931,45.7703,104.9444],[19.7144,45.7763,104.7427],[19.7257,45.7746,102.8461],[19.734,45.7689,102.7132],[19.7463,45.7536,101.5934],[19.7498,45.7415,101.8292],[19.7674,45.7494,100.9301],[19.7905,45.7552,94.9669],[19.8201,45.7566,96.5986],[19.8429,45.762,96.6351],[19.8606,45.7722,94.9633]]]]}}