{"type": "Feature","bbox": [19.9612,44.2411,20.8391,45.0823],"geometry": {"type": "MultiPolygon","coordinates": [[[[20.4333,44.4129,128.5492],[20.4422,44.4189,159.5186],[20.4513,44.4178,155.96],[20.4563,44.4162,150.631],[20.4838,44.3989,191.5754],[20.5059,44.3978,204.3479],[20.5379,44.3857,173.7378],[20.533,44.3751,216.8909],[20.5317,44.3659,258.1924],[20.5336,44.3588,300.3599],[20.5385,44.3558,284.0071],[20.5431,44.3556,306.5257],[20.565,44.3611,199.4858],[20.6036,44.3734,197.6944],[20.6113,44.373,195.653],[20.6165,44.3707,183.8018],[20.6191,44.367,177.638],[20.6229,44.3398,216.4285],[20.6272,44.3367,213.3115],[20.636,44.3338,204.9894],[20.6498,44.3218,206.803],[20.6776,44.3329,173.4053],[20.6905,44.3346,163.4254],[20.7125,44.3247,144.9391],[20.7361,44.3214,179.3993],[20.7428,44.3172,161.0931],[20.7504,44.3096,221.3526],[20.772,44.2978,178.1796],[20.7717,44.3082,197.0312],[20.7658,44.3216,175.7997],[20.7658,44.3272,186.0209],[20.7706,44.334,139.5148],[20.7869,44.3448,124.5889],[20.7874,44.3492,122.6245],[20.7834,44.3523,127.8707],[20.779,44.3533,138.0496],[20.762,44.3506,155.3872],[20.7554,44.3524,157.5908],[20.7422,44.3642,173.0818],[20.7337,44.3743,174.5788],[20.7315,44.3785,162.7504],[20.7315,44.3841,150.2432],[20.7353,44.3883,132.0544],[20.7529,44.4006,125.0752],[20.7557,44.414,177.3371],[20.76,44.4183,184.2052],[20.7759,44.4228,191.1867],[20.7875,44.4234,193.1088],[20.8173,44.4155,204.6332],[20.8242,44.4187,196.5443],[20.8365,44.4289,136.0772],[20.8391,44.4354,139.3573],[20.8376,44.4415,175.0141],[20.819,44.4658,215.5548],[20.8044,44.474,202.236],[20.7877,44.4881,240.8567],[20.7621,44.4975,318.3979],[20.7591,44.5022,295.2317],[20.7585,44.5117,280.5354],[20.7565,44.5157,217.5769],[20.7371,44.533,217.7018],[20.7529,44.5417,275.0966],[20.762,44.5487,203.5063],[20.786,44.5569,247.4638],[20.8006,44.5593,240.555],[20.8064,44.5632,223.4912],[20.8057,44.5678,182.3574],[20.7992,44.5781,161.1711],[20.7856,44.5845,116.9035],[20.7807,44.5892,151.5981],[20.7852,44.5949,136.3272],[20.7853,44.6001,159.7888],[20.7814,44.6067,212.9082],[20.7725,44.6142,174.5514],[20.771,44.6187,216.1204],[20.7714,44.6252,225.5238],[20.7782,44.6329,171.8587],[20.7566,44.6308,199.5768],[20.7478,44.6314,239.2993],[20.7393,44.6347,151.7974],[20.7249,44.6459,238.4604],[20.7069,44.6487,101.3861],[20.6919,44.6555,140.6716],[20.6801,44.6648,101.7993],[20.6666,44.6819,166.2573],[20.6571,44.7004,239.8606],[20.6522,44.7058,184.1017],[20.6451,44.7106,176.2608],[20.624,44.7199,121.5587],[20.6028,44.7376,82.9979],[20.5969,44.7552,141.2596],[20.6101,44.782,84.6945],[20.6013,44.7925,148.0508],[20.5865,44.8056,98.8001],[20.566,44.8111,198.0296],[20.5634,44.8148,246.0854],[20.5626,44.8194,249.8696],[20.5645,44.8279,160.6354],[20.5767,44.8386,151.4832],[20.5903,44.8578,69.1745],[20.595,44.8719,70.2756],[20.6017,44.8801,71.1016],[20.6023,44.8843,69.7519],[20.6,44.8886,70.3276],[20.5866,44.9009,70.6622],[20.5731,44.9103,70.6819],[20.5544,44.9157,70.9049],[20.5213,44.9284,71.2409],[20.5073,44.9386,70.7285],[20.5001,44.9464,70.4496],[20.4979,44.9528,70.6393],[20.4989,44.9607,70.8721],[20.4959,44.9665,71.4465],[20.4906,44.9693,71.0873],[20.4755,44.9706,72.0108],[20.4671,44.9745,71.8817],[20.4498,44.9874,70.589],[20.4426,45.0004,72.602],[20.404,45.0224,71.4585],[20.3994,45.0287,71.49],[20.3966,45.0401,71.5799],[20.3918,45.0502,73.2577],[20.396,45.0611,72.3954],[20.3938,45.0667,71.5894],[20.3726,45.0778,71.8337],[20.3596,45.0817,72.6962],[20.3417,45.0806,73.1982],[20.3287,45.0706,108.1621],[20.3171,45.0668,105.3306],[20.312,45.0683,102.9188],[20.2962,45.0784,104.0297],[20.2777,45.0823,104.4909],[20.2842,45.0673,98.8211],[20.3054,45.0538,98.2692],[20.3136,45.046,97.6968],[20.3223,45.0235,94.3533],[20.3235,45.0152,95.0488],[20.3217,44.9999,71.5129],[20.318,44.9956,70.0],[20.3039,44.9851,74.9416],[20.2868,44.982,70.0],[20.2791,44.9787,89.2857],[20.2767,44.9756,88.4123],[20.2772,44.9685,88.9215],[20.2759,44.9658,89.6023],[20.2603,44.9581,85.603],[20.2557,44.9535,83.3295],[20.255,44.9494,83.9115],[20.2576,44.9406,86.6834],[20.2809,44.9193,84.5546],[20.2585,44.9155,78.2249],[20.2388,44.9142,76.5908],[20.2008,44.8929,75.3271],[20.1872,44.8916,73.645],[20.168,44.8931,74.4826],[20.1613,44.891,75.0621],[20.155,44.8864,74.3073],[20.1501,44.8654,76.2025],[20.136,44.8442,76.224],[20.133,44.8276,76.3808],[20.1264,44.819,76.2426],[20.1229,44.7988,76.5033],[20.1182,44.7951,75.7544],[20.1077,44.7911,85.0639],[20.0872,44.789,76.53],[20.0826,44.7846,76.2444],[20.0809,44.7804,76.686],[20.0809,44.7746,76.872],[20.084,44.7688,77.1255],[20.0915,44.7648,77.6515],[20.1081,44.7599,77.7647],[20.1104,44.7546,77.3966],[20.1062,44.7463,76.5302],[20.0987,44.7426,76.3851],[20.0969,44.7401,77.2506],[20.1034,44.7324,76.3664],[20.1008,44.7234,74.6876],[20.0919,44.7134,76.308],[20.0797,44.7051,88.213],[20.0829,44.7024,81.9353],[20.1087,44.6915,71.9298],[20.1015,44.6873,72.4434],[20.0789,44.6817,73.3886],[20.0529,44.6718,79.6148],[20.0322,44.6683,77.2804],[20.016,44.655,78.0381],[19.99,44.6491,71.5],[19.9666,44.6282,82.2039],[19.9686,44.604,83.4619],[19.9612,44.5937,121.5958],[19.9693,44.5832,117.6487],[19.971,44.5758,97.3821],[19.9711,44.5603,136.6386],[19.9678,44.5576,124.1163],[19.9662,44.5467,138.8439],[19.9723,44.5364,118.9997],[19.99,44.5223,122.7487],[19.9959,44.52,118.7697],[20.0141,44.5173,113.8794],[20.0434,44.5072,104.9581],[20.0569,44.5102,103.5631],[20.0671,44.521,111.1355],[20.074,44.5247,109.8725],[20.0899,44.5263,110.4889],[20.0994,44.5248,99.775],[20.1058,44.5204,99.0599],[20.1098,44.5128,91.5737],[20.1233,44.4971,85.2899],[20.1278,44.4952,86.6407],[20.1516,44.5058,91.618],[20.1584,44.5156,84.6171],[20.1679,44.5253,93.7249],[20.1704,44.5349,85.4703],[20.1753,44.5413,81.3718],[20.1807,44.5432,82.7612],[20.1861,44.5407,81.262],[20.19,44.5349,83.1681],[20.1925,44.5196,100.6138],[20.1998,44.5103,96.3299],[20.1969,44.4936,98.3795],[20.2175,44.4787,85.9718],[20.2214,44.4684,109.152],[20.2264,44.4494,118.6368],[20.2212,44.4382,115.5371],[20.2205,44.4319,110.8355],[20.2249,44.4256,104.8388],[20.2268,44.4183,98.3462],[20.2258,44.4077,99.6493],[20.2167,44.3882,101.6997],[20.2134,44.3844,102.7971],[20.2006,44.3766,104.5413],[20.1992,44.3674,105.5411],[20.1914,44.3608,120.6985],[20.1923,44.3536,141.6756],[20.2006,44.3463,131.6068],[20.2027,44.3405,112.4168],[20.2005,44.3363,112.4251],[20.1899,44.3261,184.3392],[20.1871,44.3179,169.0596],[20.1923,44.3081,202.2253],[20.2102,44.2867,202.8601],[20.2488,44.2615,195.5168],[20.2592,44.2466,139.1057],[20.2692,44.242,139.0409],[20.2824,44.2411,174.1541],[20.2847,44.2444,162.6458],[20.2848,44.2533,143.2603],[20.2901,44.2566,152.3087],[20.3094,44.2505,190.2543],[20.3241,44.255,236.9346],[20.3431,44.2699,264.9813],[20.3493,44.2824,231.3593],[20.3561,44.2894,266.4625],[20.3602,44.2907,305.8225],[20.3779,44.2908,378.4888],[20.3891,44.2943,312.213],[20.4001,44.3081,283.8353],[20.4001,44.3237,324.2794],[20.4015,44.3269,360.6118],[20.4196,44.345,238.0326],[20.4312,44.3531,185.7684],[20.4332,44.3561,199.0957],[20.4312,44.3603,254.8999],[20.4221,44.3682,201.2547],[20.4127,44.3726,164.4902],[20.3996,44.3822,139.5065],[20.3967,44.3894,143.3925],[20.4095,44.4025,199.8707],[20.4242,44.4065,151.9443],[20.4333,44.4129,128.5492]]]]}
,"properties": {"GID_1": "SRB.3_1","GID_0": "SRB","country": "Serbia","province": "GradBeograd","VARNAME_1": "Belgrade","NL_NAME_1": "Београд","TYPE_1": "Grad","ENGTYPE_1": "City","CC_1": "NA","HASC_1": "RS.BG","ISO_1": "NA","name": "Grad_Beograd.province","area_km2": 3259.168,"hist_schema_id": "Elevation0-9000","hist_area_km2": {"0": 0.802,"25": 1.302,"50": 4.737,"75": 1043.459,"100": 332.444,"125": 289.288,"150": 289.443,"175": 347.639,"200": 315.852,"225": 243.893,"250": 165.717,"275": 99.971,"300": 60.426,"325": 35.731,"350": 14.051,"375": 5.808,"400": 2.782,"425": 1.558,"450": 1.33,"475": 0.998,"500": 0.529,"525": 0.651,"550": 0.348,"575": 0.227,"600": 0.106,"625": 0.076}}}