{"type":"Feature","properties":{"featurecla":"River","scalerank":7,"rivernum":494,"dissolve":"494River","name":"Sava4","name_alt":null,"note":null,"min_zoom":6.0,"strokeweig":0.3,"name_en":"Sava","min_label":7.0},
"geometry":{"type": "LineString","coordinates": [[19.511865234375023,44.98322174686912,83.0554],[19.619140625,44.96381256718162,79.8547],[19.646386718750023,44.96356842655662,81.8291],[19.656640625000023,44.95978424686912,84.2379],[19.66064453125,44.94647858280662,71.5],[19.66748046875,44.93610260624412,71.5],[19.68310546875,44.931903387494117,106.0249],[19.7001953125,44.929706121869117,101.2578],[19.722070312500023,44.921014715619116,95.197],[19.748925781250023,44.918475653119117,80.5611],[19.7568359375,44.915399481244116,80.6734],[19.758544921875,44.90497467655662,73.0387],[19.753173828125,44.892108465619117,76.8334],[19.7099609375,44.83026764530662,99.9736],[19.70068359375,44.807635809369117,85.8363],[19.704980468750023,44.78876373905662,81.3614],[19.711328125000023,44.780047918744117,79.3592],[19.715478515625023,44.771991278119117,76.9297],[19.72021484375,44.76447174686912,77.4635],[19.72900390625,44.75775787968162,77.0042],[19.745263671875023,44.75226471561912,77.554],[19.796533203125023,44.751581121869116,99.7927],[19.84619140625,44.73346588749412,101.3135],[19.872705078125023,44.719745184369117,99.2601],[19.8896484375,44.70685455936912,95.4049],[19.913964843750023,44.695428778119116,84.5249],[19.982568359375023,44.695917059369116,102.2212],[20.010009765625,44.68891022343162,74.5649],[19.989648437500023,44.678583074994116,77.197],[19.930810546875023,44.659295965619116,72.5195],[19.920654296875,44.64789459843162,71.5],[19.9404296875,44.63178131718162,79.8668],[19.973388671875,44.64118073124412,103.6915],[20.006591796875,44.66168854374412,77.3963],[20.027099609375,44.67890045780662,68.0],[20.04541015625,44.69025299686912,91.2882],[20.105859375000023,44.712518621869116,72.6055],[20.126123046875023,44.716815496869117,77.8262],[20.134765625,44.71686432499412,73.8815],[20.141259765625023,44.71613190311912,76.8159],[20.14697265625,44.714129949994117,73.1782],[20.154052734375,44.71063873905662,68.0],[20.158105468750023,44.70563385624412,68.0],[20.158105468750023,44.693231512494116,74.0934],[20.160302734375023,44.68891022343162,68.0],[20.170166015625,44.685174871869116,92.348],[20.1865234375,44.682733465619116,101.0042],[20.201904296875,44.68610260624412,74.7152],[20.214111328125,44.71198151249412,69.0448],[20.225830078125,44.721551824994116,77.1211],[20.237451171875023,44.723749090619116,74.9223],[20.242822265625023,44.71369049686912,73.4516],[20.240136718750023,44.69977448124412,69.3906],[20.23583984375,44.694598699994117,73.2951],[20.236083984375,44.690301824994116,91.1669],[20.24658203125,44.67890045780662,71.6882],[20.274316406250023,44.66474030155662,72.065],[20.292382812500023,44.67902252811912,75.8333],[20.311767578125,44.72980377811912,83.2441],[20.32177734375,44.743915106244117,68.0],[20.361230468750023,44.78412506718162,70.9828],[20.376611328125023,44.79254791874412,75.9229],[20.39013671875,44.794696356244117,68.0],[20.417236328125,44.80402252811912,74.7708],[20.431298828125023,44.80621979374412,75.6142],[20.441162109375,44.81037018436912,74.5086],[20.446923828125023,44.83161041874412,68.0],[20.455078125,44.84027741093162,70.4602]]}}