{"type": "Feature","id": "836","bbox": [19.96119,44.24045,20.83907,45.08207],"geometry": {"type": "Polygon","coordinates": [[[20.39517,45.06515,71.6493],[20.39378,45.06672,71.5894],[20.38469,45.07119,71.737],[20.37595,45.0762,71.8934],[20.37265,45.0778,71.8337],[20.36779,45.07971,72.346],[20.36345,45.08106,72.52],[20.35957,45.08173,72.6962],[20.35156,45.08207,74.6551],[20.33901,45.08034,72.3438],[20.33901,45.080329999999996,72.3438],[20.34592,45.07308,75.019],[20.34593,45.07307,75.019],[20.35694,45.0345,70.0],[20.33332,45.01052,71.7821],[20.30402,44.99393,70.0],[20.29813,44.9775,74.0031],[20.29069,44.9775,70.0],[20.30324,44.95466,74.5186],[20.30325,44.95466,74.5186],[20.31885,44.9344,74.081],[20.32473,44.92917,69.5],[20.32474,44.92916,69.5],[20.28092,44.91931,84.5546],[20.25855,44.91549,78.2249],[20.2463,44.91533,76.6946],[20.24315,44.91507,76.8176],[20.23875,44.9142,76.5908],[20.23596,44.9129,76.5768],[20.22992,44.90949,75.1265],[20.2233,44.90629,75.7841],[20.2156,44.90107,76.5253],[20.20274,44.89381,75.5815],[20.20082,44.8929,75.3271],[20.19808,44.89218,75.2547],[20.19504,44.89177,74.742],[20.18718,44.89161,73.645],[20.17917,44.89203,74.2941],[20.17101,44.89303,73.4997],[20.16801,44.89303,74.4826],[20.16574,44.8927,73.9134],[20.16356,44.89208,74.863],[20.16129,44.89104,75.0621],[20.15685,44.8882,74.5024],[20.15504,44.88637,74.3073],[20.15437,44.88495,74.0674],[20.15406,44.88345,74.8239],[20.15375,44.8775,75.5811],[20.15333,44.87528,75.1976],[20.15013,44.86541,76.2025],[20.14703,44.86014,75.8948],[20.13597,44.84417,76.224],[20.13457,44.8372,76.0763],[20.13385,44.82986,76.9562],[20.13302,44.82759,76.3808],[20.13153,44.82536,76.8776],[20.12791,44.82118,76.411],[20.12646,44.81901,76.2426],[20.12553,44.81648,76.2994],[20.12512,44.81379,76.8141],[20.1245,44.80288,76.5299],[20.12377,44.80038,76.6599],[20.12295,44.79878,76.5033],[20.12171,44.79735,76.4241],[20.11819,44.79508,75.7544],[20.11452,44.79338,83.9773],[20.10775,44.79108,85.0639],[20.10078,44.7896,79.5843],[20.09783,44.7895,78.0687],[20.0938,44.78981,75.8265],[20.09096,44.78981,75.7475],[20.08894,44.78955,76.1273],[20.08719,44.78898,76.53],[20.08517,44.78764,76.5432],[20.08259,44.78454,76.2444],[20.08176,44.78314,76.4482],[20.08093,44.78038,76.686],[20.08068,44.77746,76.9528],[20.08093,44.77457,76.872],[20.08176,44.77177,76.7873],[20.08268,44.77018,77.1255],[20.08269,44.77017,77.1255],[20.08403,44.76873,77.6186],[20.0877,44.76645,77.8502],[20.09153,44.76475,77.6515],[20.09861,44.76252,77.9154],[20.10651,44.76072,77.8363],[20.10817,44.75994,77.7647],[20.10971,44.75842,77.4581],[20.10972,44.75842,77.4581],[20.11044,44.75653,78.2196],[20.11044,44.75457,77.3966],[20.10863,44.74976,77.3613],[20.10765,44.74785,77.2558],[20.1062,44.74625,76.5302],[20.10471,44.74534,76.9218],[20.09876,44.74253,76.3851],[20.09752,44.7416,77.0621],[20.0969,44.7401,77.2506],[20.09726,44.7391,76.3984],[20.09726,44.73909,76.3984],[20.10263,44.73419,76.9201],[20.10264,44.73418,76.9201],[20.10341,44.73237,76.3664],[20.10352,44.73043,76.4551],[20.1031,44.72904,77.2236],[20.10078,44.72341,74.6876],[20.09819,44.72,80.7342],[20.09411,44.70816,75.0595],[20.04548,44.69026,91.2882],[20.02719,44.67891,68.0],[20.00662,44.6617,77.3963],[19.9734,44.64119,103.6915],[19.97338,44.64118,103.6915],[19.96729,44.60981,83.3808],[19.96858,44.60537,83.4619],[19.96858,44.604,83.4619],[19.96811,44.60265,84.2803],[19.96197,44.59583,118.1167],[19.96119,44.59371,121.5958],[19.96124,44.59278,121.5958],[19.96176,44.59149,124.0807],[19.96336,44.58937,122.817],[19.96832,44.58462,122.2605],[19.96925,44.58317,117.6487],[19.97018,44.58092,115.1194],[19.97101,44.57583,97.3821],[19.97106,44.56477,134.2619],[19.97111,44.5609,137.5113],[19.97111,44.56028,136.6386],[19.97096,44.55999,136.6386],[19.9708,44.55976,136.6386],[19.97023,44.5593,136.6386],[19.96775,44.55754,124.1163],[19.96744,44.55472,114.1184],[19.96615,44.54901,123.2498],[19.9662,44.54664,138.8439],[19.96739,44.54348,140.1291],[19.96956,44.53981,133.5004],[19.9723,44.5364,118.9997],[19.97411,44.5347,128.1518],[19.97612,44.53315,129.8928],[19.98165,44.52971,130.246],[19.98367,44.5279,128.4315],[19.98599,44.52524,124.8052],[19.98817,44.52343,123.1343],[19.98997,44.52235,122.7487],[19.9939,44.52064,118.8813],[19.99592,44.52002,118.7697],[19.99974,44.5193,116.4106],[20.0078,44.51847,114.6796],[20.01173,44.5179,113.5331],[20.01411,44.51731,113.8794],[20.01628,44.51653,111.5261],[20.02196,44.51372,109.6661],[20.02408,44.51289,108.9875],[20.03509,44.51005,110.2282],[20.04067,44.50788,106.9943],[20.04341,44.50723,104.9581],[20.0447,44.50715,98.9942],[20.04749,44.50752,99.3428],[20.05307,44.50886,104.6682],[20.05689,44.5102,103.5631],[20.05927,44.51181,106.1007],[20.06062,44.51299,108.4214],[20.06501,44.51909,110.0591],[20.06708,44.52098,111.1355],[20.07028,44.5231,110.7466],[20.07405,44.52472,109.8725],[20.07777,44.52555,105.3945],[20.0818,44.52591,110.5067],[20.08986,44.52627,110.4889],[20.09514,44.52596,104.4097],[20.09937,44.52483,99.775],[20.10144,44.524,103.2628],[20.10397,44.5224,102.6818],[20.10583,44.52044,100.2899],[20.10888,44.51423,95.7118],[20.10981,44.51284,91.5737],[20.1155,44.50705,86.1899],[20.12154,44.49899,89.8446],[20.1233,44.4971,85.2899],[20.12537,44.49571,85.3956],[20.1278,44.49517,86.6407],[20.13022,44.49558,85.5483],[20.14443,44.50168,87.1923],[20.148,44.50349,85.9746],[20.15157,44.50579,91.618],[20.15399,44.5087,86.6273],[20.15627,44.51284,90.6055],[20.15834,44.51563,84.6171],[20.16107,44.5186,82.916],[20.16547,44.5224,83.5987],[20.16795,44.52532,93.7249],[20.16945,44.52808,94.3429],[20.17038,44.5349,85.4703],[20.17265,44.53844,81.5933],[20.17529,44.54126,81.3718],[20.17658,44.54227,82.4254],[20.17895,44.54312,82.4442],[20.18071,44.54322,82.7612],[20.18242,44.54291,83.054],[20.18474,44.54178,82.3623],[20.18609,44.54074,81.262],[20.18727,44.53956,86.0408],[20.18939,44.5363,81.3379],[20.18996,44.5349,83.1681],[20.19032,44.53284,86.3017],[20.19022,44.52793,88.3338],[20.19172,44.52157,101.4128],[20.19249,44.51956,100.6138],[20.1942,44.51721,99.6585],[20.19839,44.51266,94.452],[20.19983,44.51031,96.3299],[20.20014,44.50834,93.8129],[20.19994,44.50695,95.2554],[20.19637,44.49584,100.6839],[20.19683,44.49362,98.3795],[20.19776,44.49222,98.3795],[20.19911,44.49093,106.3955],[20.20087,44.48974,95.8773],[20.208,44.4863,79.8684],[20.2113,44.48416,62.6736],[20.21425,44.48186,47.9658],[20.21756,44.47873,85.9718],[20.22138,44.4684,109.152],[20.22371,44.45884,112.1296],[20.22634,44.4515,116.7733],[20.22645,44.44943,118.6368],[20.22614,44.44798,120.9261],[20.22536,44.44594,116.7145],[20.22117,44.43824,115.5371],[20.22024,44.43419,110.4473],[20.2205,44.43191,110.8355],[20.22154,44.43,114.7119],[20.22495,44.42561,104.8388],[20.22598,44.42334,101.6981],[20.22681,44.41827,98.3462],[20.22681,44.4129,98.9618],[20.2265,44.41026,99.3609],[20.22577,44.40773,99.6493],[20.22169,44.39972,106.0733],[20.21931,44.39321,101.0282],[20.21668,44.38825,101.6997],[20.21533,44.38628,102.8324],[20.21347,44.38442,102.7971],[20.2111,44.38277,102.7835],[20.20371,44.37879,104.0007],[20.20061,44.37657,104.5413],[20.19968,44.37533,105.1245],[20.19926,44.37398,105.1245],[20.20004,44.36908,105.2616],[20.19921,44.36737,105.5411],[20.19735,44.36587,107.5361],[20.19415,44.3638,118.7414],[20.19224,44.3621,118.8511],[20.19146,44.36076,120.6985],[20.19105,44.35928,118.6879],[20.191,44.35722,120.7473],[20.19146,44.35512,135.8162],[20.19229,44.35357,141.6756],[20.19353,44.35213,141.6756],[20.1988,44.34799,184.7024],[20.20056,44.34634,131.6068],[20.2019,44.34458,117.8818],[20.20262,44.34257,113.0633],[20.20267,44.34045,112.4168],[20.20205,44.33843,113.0123],[20.2005,44.33626,112.4251],[20.19363,44.33016,168.6858],[20.19146,44.32804,179.6772],[20.18991,44.32613,184.3392],[20.1881,44.32334,177.1296],[20.18702,44.31993,142.587],[20.18712,44.31789,169.0596],[20.188,44.3158,181.5948],[20.19229,44.30815,202.2253],[20.19901,44.3005,167.1485],[20.20572,44.29192,215.5552],[20.21027,44.2867,202.8601],[20.21291,44.28435,212.2142],[20.21632,44.28195,195.6448],[20.2204,44.27988,184.3557],[20.2267,44.27621,170.4269],[20.24071,44.26665,210.7787],[20.24634,44.26327,194.6788],[20.24882,44.26146,195.5168],[20.2513,44.25844,152.8741],[20.25678,44.24929,147.5306],[20.25921,44.24665,139.1057],[20.26164,44.24479,138.766],[20.26453,44.24337,138.7532],[20.26923,44.24195,139.0409],[20.27528,44.24092,145.4473],[20.2791,44.24045,154.476],[20.28091,44.24061,161.3777],[20.28241,44.24112,174.1541],[20.28391,44.24249,159.0712],[20.28468,44.24438,162.6458],[20.28494,44.24642,155.4519],[20.28443,44.25141,151.3745],[20.28484,44.25327,143.2603],[20.28618,44.25492,144.5516],[20.28825,44.25616,150.577],[20.29011,44.25663,152.3087],[20.29213,44.25673,158.5369],[20.29399,44.25642,161.6023],[20.29791,44.25508,170.7239],[20.30525,44.2513,196.2143],[20.30732,44.25074,199.1009],[20.30944,44.25048,190.2543],[20.31326,44.25099,184.2301],[20.31802,44.25234,211.4764],[20.32417,44.25497,236.9346],[20.32675,44.25658,250.0437],[20.32882,44.25849,245.7839],[20.33161,44.26185,242.7345],[20.33305,44.26319,224.5054],[20.34158,44.26867,253.2233],[20.34308,44.26986,264.9813],[20.34416,44.2712,276.4097],[20.34494,44.2727,262.9231],[20.34654,44.27756,279.5524],[20.34928,44.28241,231.3593],[20.35062,44.28443,257.9609],[20.35295,44.28701,247.45],[20.3561,44.28944,266.4625],[20.35807,44.29022,281.7922],[20.36024,44.29071,305.8225],[20.36318,44.29084,301.6065],[20.37093,44.29027,354.2979],[20.37439,44.29037,369.488],[20.37791,44.29079,378.4888],[20.38437,44.29254,310.7644],[20.38907,44.2943,312.213],[20.38948,44.29554,349.2687],[20.39238,44.29978,370.5445],[20.39744,44.30448,309.5591],[20.39904,44.30624,323.5002],[20.40013,44.3081,283.8353],[20.40065,44.31016,274.0171],[20.40065,44.3127,263.7992],[20.40008,44.32009,340.6592],[20.40013,44.32373,324.2794],[20.40034,44.32474,336.9973],[20.40153,44.32688,360.6118],[20.40406,44.32928,335.1425],[20.40891,44.33311,258.0024],[20.41155,44.33585,243.9247],[20.41822,44.34375,232.2852],[20.41956,44.34505,238.0326],[20.42318,44.34789,224.0365],[20.43119,44.35311,185.7684],[20.43253,44.35455,173.5691],[20.43325,44.3561,199.0957],[20.43325,44.35698,199.0957],[20.43279,44.35822,230.7549],[20.43124,44.36026,254.8999],[20.42695,44.36375,185.8369],[20.42204,44.3682,191.7009],[20.41951,44.36959,190.7629],[20.41553,44.37119,182.8409],[20.41274,44.37259,164.4902],[20.4054,44.37812,141.534],[20.39956,44.38215,139.5065],[20.39848,44.38344,135.6923],[20.39698,44.38618,138.0696],[20.39651,44.38843,138.7479],[20.39672,44.38933,143.3925],[20.39734,44.39062,163.1665],[20.39889,44.39254,185.3698],[20.40297,44.39688,158.2619],[20.40742,44.40111,170.873],[20.40953,44.40256,199.8707],[20.4114,44.40323,204.789],[20.41351,44.40378,199.0887],[20.41961,44.40494,168.5661],[20.42194,44.40561,151.7375],[20.42421,44.40651,151.9443],[20.427,44.40822,127.2105],[20.43331,44.41284,128.5492],[20.44219,44.41889,159.5186],[20.4484,44.41832,149.3051],[20.45129,44.41786,155.96],[20.45387,44.41713,162.5684],[20.45625,44.4162,150.631],[20.46648,44.40941,138.2359],[20.46927,44.40778,139.9668],[20.47723,44.40375,169.0609],[20.48385,44.39889,162.59],[20.48565,44.39827,171.9034],[20.48772,44.39801,161.2554],[20.49785,44.39848,198.5066],[20.50111,44.39838,213.9991],[20.50596,44.39781,204.3479],[20.50937,44.39683,194.8977],[20.52157,44.39135,212.7864],[20.5379,44.38566,173.7378],[20.53645,44.38292,190.4023],[20.53294,44.37507,216.8909],[20.53211,44.37202,234.2296],[20.53165,44.36592,258.1924],[20.5319,44.36303,288.9893],[20.53273,44.36034,301.6904],[20.53361,44.35879,300.3599],[20.5349,44.3575,278.5104],[20.53661,44.35652,263.0411],[20.53852,44.35585,284.0071],[20.54038,44.35548,291.9117],[20.54307,44.35559,306.5257],[20.54622,44.35641,263.8969],[20.55273,44.35874,229.4301],[20.56503,44.36112,199.4858],[20.57304,44.36391,190.7949],[20.5889,44.36814,224.2399],[20.59552,44.37055,216.31],[20.60027,44.37254,189.9982],[20.60363,44.37342,197.6944],[20.60653,44.37367,203.348],[20.60937,44.37342,195.653],[20.61128,44.373,195.653],[20.61495,44.37166,184.5823],[20.6165,44.37073,183.8018],[20.6181,44.36902,177.5277],[20.61908,44.36696,177.638],[20.6197,44.36427,167.8419],[20.62048,44.35574,175.4853],[20.62213,44.34778,226.1151],[20.62187,44.34282,225.8651],[20.62218,44.34127,221.5139],[20.62296,44.33977,216.4285],[20.62472,44.33802,193.7357],[20.6272,44.3367,213.3115],[20.63412,44.33476,204.9894],[20.63598,44.33378,204.9894],[20.64099,44.32993,213.9562],[20.64978,44.32184,206.803],[20.66404,44.32789,169.799],[20.67758,44.3329,173.4053],[20.68461,44.33471,167.0215],[20.68755,44.33492,166.4025],[20.6905,44.33466,163.4254],[20.69448,44.33362,164.7083],[20.69846,44.33213,166.1783],[20.70714,44.32675,175.9288],[20.71019,44.32541,155.4872],[20.71251,44.32474,144.9391],[20.7182,44.32381,139.2854],[20.72817,44.32313,138.9167],[20.73138,44.3227,147.9498],[20.73608,44.32138,179.3993],[20.73887,44.32003,145.9015],[20.74285,44.31714,161.0931],[20.74709,44.31239,185.4642],[20.74858,44.31094,218.2242],[20.75039,44.30965,221.3526],[20.75742,44.30536,217.3405],[20.77205,44.29776,178.1796],[20.77205,44.305,183.7789],[20.77174,44.30823,197.0312],[20.77065,44.31249,199.6252],[20.7692,44.3152,203.1428],[20.76677,44.31895,180.3274],[20.76584,44.32164,175.7997],[20.76553,44.32445,156.2931],[20.76579,44.32724,186.0209],[20.76672,44.32985,190.9067],[20.7676,44.33122,174.6296],[20.7706,44.33394,139.5148],[20.77902,44.33977,134.1305],[20.78502,44.34319,124.5326],[20.78698,44.34476,124.5889],[20.78765,44.34603,122.8856],[20.78786,44.34737,122.8058],[20.78739,44.34918,122.6245],[20.78589,44.35096,126.237],[20.78347,44.35228,127.8707],[20.7813,44.35293,135.8816],[20.77902,44.35331,138.0496],[20.77597,44.35337,141.6303],[20.77292,44.353,144.2464],[20.76486,44.35086,151.9003],[20.76202,44.35057,155.3872],[20.7599,44.3507,156.3083],[20.75794,44.35114,156.2187],[20.75535,44.35238,157.5908],[20.75246,44.35455,155.0608],[20.74223,44.36417,173.0818],[20.73685,44.37021,174.8977],[20.73375,44.37432,174.5788],[20.73236,44.37646,170.5509],[20.73148,44.37853,162.7504],[20.73096,44.38205,145.0583],[20.73148,44.38406,150.2432],[20.73303,44.38628,128.9249],[20.7353,44.38835,132.0544],[20.74021,44.39186,137.7231],[20.74895,44.39695,120.4527],[20.75122,44.39869,120.717],[20.75292,44.40062,125.0752],[20.75401,44.40313,136.4655],[20.75515,44.4114,142.9364],[20.75577,44.41398,177.3371],[20.75675,44.416,181.2914],[20.75835,44.41755,182.7422],[20.75995,44.41832,184.2052],[20.76951,44.42075,170.4436],[20.77587,44.42279,191.1867],[20.77959,44.42339,187.4578],[20.78352,44.42357,177.1734],[20.7875,44.42339,193.1088],[20.79142,44.42282,195.3241],[20.79349,44.42228,193.7725],[20.81184,44.41605,209.8163],[20.81468,44.41543,210.3702],[20.81726,44.41548,204.6332],[20.81907,44.41589,204.6332],[20.82176,44.41708,198.7664],[20.82419,44.41874,196.5443],[20.83649,44.42886,136.0772],[20.83809,44.43114,134.9319],[20.83881,44.43326,135.3018],[20.83907,44.43543,150.6356],[20.83891,44.43765,164.705],[20.83835,44.43987,166.563],[20.83757,44.44153,175.0141],[20.83649,44.44302,193.353],[20.83106,44.4485,151.8187],[20.82687,44.45504,163.1799],[20.82465,44.4592,195.2225],[20.82109,44.46395,215.3161],[20.81902,44.46581,215.5548],[20.81654,44.46747,219.7115],[20.80445,44.47403,202.236],[20.7877,44.48811,240.8567],[20.77907,44.49201,236.6387],[20.77137,44.49442,283.7229],[20.76605,44.49542,296.1221],[20.76414,44.49599,304.686],[20.76212,44.49749,318.3979],[20.75913,44.50222,295.2317],[20.75861,44.50426,298.7278],[20.75851,44.51168,280.5354],[20.75794,44.51348,257.7458],[20.75654,44.51568,217.5769],[20.75019,44.52255,289.6726],[20.73711,44.53304,217.7018],[20.74114,44.53568,213.0959],[20.75106,44.54054,276.981],[20.75292,44.5417,275.0966],[20.75938,44.547,214.1401],[20.76197,44.54875,203.5063],[20.76476,44.54989,206.2422],[20.77561,44.55294,213.2117],[20.78362,44.55617,245.3389],[20.78605,44.55687,247.4638],[20.78853,44.55738,220.0092],[20.79825,44.55868,245.3426],[20.80057,44.55924,240.555],[20.80269,44.56005,228.9886],[20.80491,44.56147,218.7854],[20.80636,44.5632,223.4912],[20.80667,44.56503,216.1198],[20.80569,44.56782,182.3574],[20.80171,44.5748,142.2694],[20.80036,44.57681,174.1485],[20.79918,44.57811,161.1711],[20.79773,44.57929,115.3624],[20.7952,44.58085,111.796],[20.78832,44.58322,113.6366],[20.78564,44.58446,116.9035],[20.78331,44.58596,131.7065],[20.7815,44.58759,129.8801],[20.78068,44.58924,151.5981],[20.78078,44.58999,151.5981],[20.78192,44.59159,168.4568],[20.78367,44.59317,138.407],[20.78522,44.59488,136.3272],[20.78569,44.59705,159.3815],[20.78527,44.60007,159.7888],[20.78378,44.60358,201.0422],[20.7814,44.60666,212.9082],[20.77422,44.61216,191.8676],[20.77246,44.6142,174.5514],[20.77148,44.61635,209.7272],[20.77096,44.61867,216.1204],[20.77086,44.62105,235.2278],[20.77143,44.62518,225.5238],[20.77287,44.62766,192.338],[20.77499,44.63004,196.9911],[20.77819,44.63288,171.8587],[20.79478,44.66468,75.0259],[20.76363,44.66837,75.3568],[20.74198,44.67917,68.671],[20.72033,44.6962,70.5372],[20.68482,44.73353,73.1201],[20.67201,44.74397,69.4461],[20.64452,44.75581,70.3193],[20.6333,44.76521,69.8384],[20.6333,44.76522,69.8384],[20.62793,44.77705,68.0],[20.62819,44.78857,68.0],[20.63863,44.83735,68.0],[20.6364,44.84944,73.4186],[20.6364,44.84945,73.4186],[20.62369,44.85459,68.0],[20.59496,44.858,73.2026],[20.59496,44.85801,73.2026],[20.59661,44.87399,71.0376],[20.60028,44.87802,70.4476],[20.60168,44.88009,71.1016],[20.6023,44.88216,69.6555],[20.6023,44.88433,69.7519],[20.60168,44.88639,69.9614],[20.60167,44.88641,69.9614],[20.60008,44.88862,70.3276],[20.59791,44.89068,69.8626],[20.59305,44.89482,69.6259],[20.58659,44.90091,70.6622],[20.57873,44.90683,70.0909],[20.57315,44.91027,70.6819],[20.57026,44.91164,77.16],[20.56788,44.91244,70.3945],[20.5592,44.91435,72.9246],[20.55434,44.91569,70.9049],[20.54411,44.91991,70.7179],[20.5316,44.9237,70.6612],[20.52695,44.92536,71.0029],[20.52137,44.92841,71.2409],[20.51269,44.9344,70.4498],[20.50732,44.93859,70.7285],[20.50494,44.94078,70.6029],[20.50008,44.94642,70.4496],[20.50007,44.94643,70.4496],[20.49884,44.94835,70.8556],[20.49812,44.95052,71.1373],[20.49791,44.9528,70.6393],[20.49884,44.9583,70.8128],[20.49889,44.96065,70.8721],[20.49838,44.963,70.9537],[20.49739,44.96479,71.0501],[20.49739,44.96479,71.0501],[20.49595,44.96644,71.4465],[20.49388,44.96794,72.1053],[20.49181,44.96897,71.0873],[20.49068,44.96928,71.0873],[20.48137,44.9697,71.5324],[20.47817,44.97008,71.5635],[20.47554,44.97063,72.0108],[20.47254,44.97169,72.2646],[20.46716,44.9745,71.8817],[20.45786,44.98081,70.8271],[20.45223,44.98512,70.4418],[20.44985,44.98739,70.589],[20.44794,44.9898,70.7266],[20.44794,44.9898,70.7266],[20.44691,44.99194,70.8909],[20.44541,44.99636,71.3645],[20.44432,44.9984,71.8038],[20.44432,44.99841,71.8038],[20.44257,45.00037,72.602],[20.44029,45.0021,71.0216],[20.4313,45.00706,71.0107],[20.42432,45.01047,71.1547],[20.41053,45.0177,71.7487],[20.40784,45.01936,71.4282],[20.40396,45.02241,71.4585],[20.40117,45.02574,71.3165],[20.40117,45.02575,71.3165],[20.39942,45.02866,71.49],[20.39854,45.03145,71.6517],[20.3974,45.03726,72.0508],[20.39657,45.04008,71.5799],[20.39239,45.04814,72.7339],[20.39177,45.05021,73.2577],[20.39177,45.05266,72.3917],[20.3927,45.05476,71.9991],[20.39549,45.0591,72.5379],[20.39601,45.06111,72.3954],[20.3959,45.0632,71.6918],[20.39518,45.06514,71.6493],[20.39517,45.06515,71.6493],[20.39517,45.06515,71.6493]]]}
,"properties": {"ISO3166-1-Alpha-3": "SRB","country": "Republic of Serbia","fill": "#F0F","name": "Grad Beograd","area_km2": 3351.267,"hist_schema_id": "Elevation0-9000","hist_area_km2": {"0": 0.802,"25": 1.302,"50": 4.676,"75": 1099.159,"100": 317.155,"125": 301.013,"150": 301.256,"175": 357.506,"200": 324.73,"225": 249.846,"250": 168.52,"275": 100.664,"300": 60.471,"325": 35.762,"350": 14.006,"375": 5.793,"400": 2.782,"425": 1.558,"450": 1.33,"475": 0.998,"500": 0.529,"525": 0.651,"550": 0.348,"575": 0.227,"600": 0.106,"625": 0.076}}}