{"type": "Feature","bbox": [19.8592,44.6132,20.136,44.9379],"geometry": {"type": "MultiPolygon","coordinates": [[[[20.1087,44.6915,71.9298],[20.0829,44.7024,81.9353],[20.0797,44.7051,88.213],[20.0919,44.7134,76.308],[20.1008,44.7234,74.6876],[20.1034,44.7324,76.3664],[20.0969,44.7401,77.2506],[20.0987,44.7426,76.3851],[20.1062,44.7463,76.5302],[20.1104,44.7546,77.3966],[20.1081,44.7599,77.7647],[20.0915,44.7648,77.6515],[20.084,44.7688,77.1255],[20.0809,44.7746,76.872],[20.0809,44.7804,76.686],[20.0826,44.7846,76.2444],[20.0872,44.789,76.53],[20.1077,44.7911,85.0639],[20.1182,44.7951,75.7544],[20.1229,44.7988,76.5033],[20.1255,44.8165,76.2994],[20.133,44.8276,76.3808],[20.136,44.8442,76.224],[20.1225,44.8452,75.0181],[20.1101,44.8522,75.043],[20.1059,44.8583,74.8022],[20.1043,44.8644,75.3806],[20.0883,44.8789,75.5024],[20.0777,44.8969,76.4021],[20.0726,44.9016,76.1942],[20.0631,44.9032,75.1494],[20.0492,44.8979,76.305],[20.0428,44.8983,77.9739],[20.0387,44.902,78.1855],[20.0418,44.909,78.0439],[20.0415,44.9118,78.5383],[20.0361,44.9182,79.9998],[20.0075,44.9325,84.2769],[19.9931,44.9379,84.8083],[19.972,44.9279,82.8792],[19.941,44.924,81.8822],[19.9081,44.9178,80.6532],[19.8897,44.9091,78.9852],[19.8853,44.9054,78.4499],[19.8831,44.9008,77.7495],[19.8844,44.8972,77.0927],[19.8923,44.8922,77.2602],[19.8997,44.8827,77.8388],[19.9263,44.8777,76.5737],[19.9298,44.8752,77.13],[19.9266,44.872,77.8922],[19.92,44.8699,76.6275],[19.8932,44.868899999999996,77.3206],[19.8822,44.8658,77.6171],[19.8776,44.8616,76.9836],[19.8753,44.8539,78.9806],[19.867,44.8401,78.4599],[19.8672,44.8376,89.7613],[19.8707,44.8358,80.355],[19.8918,44.836,77.3765],[19.9003,44.8334,77.6088],[19.9045,44.8301,77.9237],[19.9034,44.8262,77.0646],[19.8937,44.8178,81.3924],[19.8823,44.8034,97.7026],[19.8835,44.7986,86.658],[19.8898,44.7916,90.7995],[19.8887,44.7876,86.9422],[19.8637,44.7765,79.2155],[19.8592,44.7725,79.0706],[19.8608,44.7694,77.8032],[19.8753,44.7606,77.5262],[19.887,44.7488,92.7899],[19.8975,44.7433,77.3258],[19.8995,44.7403,77.5156],[19.8992,44.7375,82.1],[19.896,44.7354,84.0933],[19.8909,44.7365,80.2659],[19.8841,44.7411,74.5124],[19.8684,44.7411,88.2831],[19.863,44.7385,89.9933],[19.8635,44.735,87.7954],[19.8791,44.7133,93.8515],[19.8836,44.6995,71.5],[19.8829,44.6898,98.2505],[19.8767,44.6812,122.8544],[19.918,44.6806,75.3953],[19.9523,44.6778,80.0111],[19.9653,44.6732,74.3543],[19.9697,44.6664,82.8841],[19.9691,44.6637,71.5],[19.9628,44.6567,106.2256],[19.943,44.6477,93.1006],[19.9293,44.6448,96.458],[19.9055,44.6468,119.0102],[19.8944,44.644,122.0378],[19.8896,44.6396,108.9684],[19.8863,44.6303,143.9179],[19.8883,44.6261,133.9423],[19.8964,44.6183,128.1132],[19.9014,44.6151,128.8297],[19.9098,44.6133,118.4718],[19.9328,44.6132,91.431],[19.9414,44.6149,88.1106],[19.9666,44.6282,82.2039],[19.99,44.6491,71.5],[20.016,44.655,78.0381],[20.0304,44.6671,76.5424],[20.0351,44.6694,78.4712],[20.0529,44.6718,79.6148],[20.0789,44.6817,73.3886],[20.1015,44.6873,72.4434],[20.1087,44.6915,71.9298]]]]}
,"properties": {"GID_2": "SRB.20.3_1","GID_0": "SRB","country": "Serbia","GID_1": "SRB.20_1","province": "Sremski","NL_NAME_1": "Сремски","county": "Pećinci","VARNAME_2": "NA","NL_NAME_2": "Пећинци","TYPE_2": "Opštine","ENGTYPE_2": "Town|Municipal","CC_2": "NA","HASC_2": "NA","name": "Pećinci.county","area_km2": 498.0945,"hist_schema_id": "Elevation0-9000","hist_area_km2": {"75": 416.2102,"100": 73.3151,"125": 5.7478,"150": 2.8214}}}