{"type":"Feature","properties":{"GID_2":"SRB.6.5_1","GID_0":"SRB","country":"Serbia","GID_1":"SRB.6_1","province":"Južno-Banatski","NL_NAME_1":"Јужнобанатски","county":"Opovo","VARNAME_2":"NA","NL_NAME_2":"Опово","TYPE_2":"Opštine","ENGTYPE_2":"Town|Municipal","CC_2":"NA","HASC_2":"NA","name":"Opovo.county"},
"geometry":{"type": "MultiPolygon","coordinates": [[[[20.4906,44.9693,71.0873],[20.4922,44.9762,71.3073],[20.4956,44.9822,71.6376],[20.509,44.9898,75.6352],[20.5445,44.994,73.6018],[20.5623,44.998,76.3766],[20.5925,45.0009,77.0773],[20.5835,45.0173,77.706],[20.5709,45.0231,77.0805],[20.5588,45.0373,76.9317],[20.5559,45.0437,76.2117],[20.5691,45.0658,79.7971],[20.5871,45.081,79.8915],[20.5884,45.0877,79.6086],[20.5871,45.0922,79.9154],[20.5803,45.0986,80.1444],[20.5255,45.1373,77.8011],[20.4869,45.1595,77.6809],[20.4591,45.1697,72.1959],[20.4432,45.1508,72.9986],[20.4558,45.1363,72.2592],[20.4553,45.132,73.5259],[20.4517,45.128,70.5452],[20.4384,45.1234,72.057],[20.4318,45.1182,71.7174],[20.4299,45.1138,71.915],[20.4345,45.1074,72.1633],[20.4335,45.1013,72.4136],[20.4227,45.0894,70.6206],[20.4136,45.0846,72.3781],[20.3926,45.0673,72.2331],[20.3951,45.0651,71.6493],[20.396,45.0611,72.3954],[20.3918,45.0502,73.2577],[20.3966,45.0401,71.5799],[20.3994,45.0287,71.49],[20.404,45.0224,71.4585],[20.4426,45.0004,72.602],[20.4498,44.9874,70.589],[20.4671,44.9745,71.8817],[20.4755,44.9706,72.0108],[20.4906,44.9693,71.0873]]]]}}