{"type": "Feature","bbox": [19.4722,45.1382,19.7731,45.2462],"geometry": {"type": "MultiPolygon","coordinates": [[[[19.504,45.1657,211.9102],[19.5125,45.1596,251.8775],[19.5294,45.1559,233.0407],[19.5428,45.1488,305.7834],[19.5649,45.1465,333.9303],[19.6031,45.1382,418.9472],[19.6284,45.142,418.7462],[19.6988,45.1417,479.221],[19.7331,45.1526,470.8765],[19.7527,45.1545,455.5078],[19.7731,45.1671,332.0976],[19.7683,45.181399999999996,242.989],[19.7612,45.1901,252.0808],[19.7646,45.2,178.9373],[19.7643,45.2042,124.9941],[19.7594,45.2094,76.3887],[19.7532,45.213,79.0028],[19.7275,45.2189,76.5993],[19.692,45.2194,85.0523],[19.6539,45.2169,131.9644],[19.6322,45.213,139.2842],[19.606,45.2124,74.0],[19.5872,45.2068,121.5413],[19.5752,45.2063,108.4441],[19.5553,45.2093,120.7765],[19.548,45.2132,130.2247],[19.5459,45.2158,121.1515],[19.5438,45.2264,76.4554],[19.5335,45.2406,78.7819],[19.5156,45.2445,102.1722],[19.496,45.2462,94.2617],[19.4852,45.2407,86.9217],[19.48,45.2314,127.2007],[19.473,45.2244,124.847],[19.4722,45.2173,127.4479],[19.4739,45.2117,133.9135],[19.4867,45.2004,147.9769],[19.4869,45.1849,209.2063],[19.504,45.1657,211.9102]]]]}
,"properties": {"GID_2": "SRB.5.5_1","GID_0": "SRB","country": "Serbia","GID_1": "SRB.5_1","province": "Južno-Bački","NL_NAME_1": "Јужнобачки","county": "Beočin","VARNAME_2": "NA","NL_NAME_2": "Беочин","TYPE_2": "Opštine","ENGTYPE_2": "Town|Municipal","CC_2": "NA","HASC_2": "NA","name": "Beočin.county","area_km2": 176.3056,"hist_schema_id": "Elevation0-9000","hist_area_km2": {"75": 12.9922,"100": 7.1841,"125": 23.1826,"150": 18.0779,"175": 16.5713,"200": 15.8707,"225": 14.0793,"250": 12.7649,"275": 10.9866,"300": 9.7016,"325": 8.5809,"350": 7.4151,"375": 5.7709,"400": 3.9621,"425": 2.6913,"450": 2.467,"475": 1.6746,"500": 1.1662,"525": 0.927,"550": 0.2392}}}