{"type": "Feature","bbox": [21.9152,42.5826,22.196,42.821],"geometry": {"type": "MultiPolygon","coordinates": [[[[21.9443,42.7848,1306.1401],[21.937,42.7738,1141.2657],[21.9363,42.7657,1180.9395],[21.9269,42.7584,1294.8376],[21.9254,42.7556,1353.5631],[21.9256,42.7369,1069.2737],[21.9327,42.7277,941.1526],[21.9345,42.7216,910.717],[21.9327,42.7153,933.7687],[21.9227,42.6987,889.3845],[21.917,42.6922,868.855],[21.9183,42.6816,850.2888],[21.9264,42.6693,822.197],[21.9273,42.6651,790.7886],[21.9262,42.661,838.8568],[21.916,42.6507,1023.6526],[21.9152,42.6467,1087.4885],[21.9172,42.6426,1273.2322],[21.9305,42.6309,1116.9031],[21.943,42.6246,1065.7581],[21.964,42.6252,929.6451],[21.9775,42.62,813.2694],[21.9892,42.602,653.2938],[21.9886,42.5981,593.097],[21.9815,42.5917,518.5713],[21.9813,42.5857,458.5417],[21.9918,42.5826,393.8735],[21.9994,42.5834,357.2241],[22.0129,42.5932,384.3679],[22.0275,42.5995,388.4877],[22.0341,42.6078,364.7707],[22.0452,42.6102,468.774],[22.0559,42.6083,521.6275],[22.0746,42.6004,650.2568],[22.0801,42.5942,832.5725],[22.0866,42.5932,897.3655],[22.1198,42.596,1189.4148],[22.1449,42.6068,883.3701],[22.1274,42.6101,1210.243],[22.1049,42.6119,830.9722],[22.0793,42.6202,581.5208],[22.0749,42.6253,525.0016],[22.0781,42.637,445.3485],[22.0758,42.6461,383.1064],[22.0804,42.6516,389.5328],[22.0943,42.6545,465.7691],[22.1023,42.6612,493.2724],[22.1065,42.6695,477.9807],[22.1048,42.6833,488.8463],[22.1086,42.6893,421.7481],[22.1143,42.6919,414.3012],[22.1285,42.6945,416.1686],[22.139,42.7022,410.1476],[22.1389,42.7076,440.3064],[22.1303,42.7225,491.4439],[22.133,42.7307,549.8458],[22.1542,42.7423,797.2978],[22.1607,42.7522,694.8494],[22.1828,42.7678,1025.0364],[22.196,42.7746,954.4114],[22.1745,42.7872,834.3776],[22.173,42.79,805.4311],[22.1731,42.7988,947.2123],[22.1675,42.8015,876.9055],[22.1519,42.8016,850.3315],[22.146,42.7991,839.5443],[22.1379,42.7907,871.4814],[22.1186,42.7903,756.2595],[22.111,42.7924,609.993],[22.109,42.795,561.6196],[22.1176,42.8071,426.2702],[22.1102,42.8179,503.2803],[22.1065,42.82,575.6625],[22.0974,42.821,706.9502],[22.0789,42.8199,685.1334],[22.0547,42.8095,823.4708],[22.0312,42.8032,914.8055],[22.0211,42.8055,773.4389],[22.0057,42.8168,790.4186],[21.9955,42.8183,935.6689],[21.9917,42.8174,901.9095],[21.9872,42.8129,834.5315],[21.9835,42.7982,968.9656],[21.9796,42.7945,1052.3672],[21.967,42.7891,1197.96],[21.9443,42.7848,1306.1401]]]]}
,"properties": {"GID_2": "SRB.11.6_1","GID_0": "SRB","country": "Serbia","GID_1": "SRB.11_1","province": "Pčinjski","NL_NAME_1": "Пчињски","county": "VladičinHan","VARNAME_2": "NA","NL_NAME_2": "ВладичинХан","TYPE_2": "Opštine","ENGTYPE_2": "Town|Municipal","CC_2": "NA","HASC_2": "NA","name": "Vladičin_Han.county","area_km2": 366.0987,"hist_schema_id": "Elevation0-9000","hist_area_km2": {"275": 0.0156,"300": 2.3031,"325": 9.1147,"350": 20.3467,"375": 14.4165,"400": 16.5495,"425": 15.583,"450": 15.8172,"475": 15.0995,"500": 14.5226,"525": 13.0887,"550": 11.1252,"575": 12.2464,"600": 11.7475,"625": 11.8246,"650": 11.5126,"675": 11.886,"700": 11.356,"725": 11.0752,"750": 10.7945,"775": 10.8256,"800": 10.4675,"825": 9.2984,"850": 9.2196,"875": 8.721,"900": 8.2073,"925": 8.2231,"950": 7.3507,"975": 6.4935,"1000": 5.8863,"1025": 6.1975,"1050": 4.7028,"1075": 4.1421,"1100": 3.5813,"1125": 3.4411,"1150": 2.8339,"1175": 3.1454,"1200": 2.5067,"1225": 1.9927,"1250": 1.9771,"1275": 1.9615,"1300": 1.9301,"1325": 1.1674,"1350": 0.5603,"1375": 0.5759,"1400": 0.2646}}}