{"type": "Feature","bbox": [19.604,43.3292,20.0293,43.6165],"geometry": {"type": "MultiPolygon","coordinates": [[[[19.9089,43.5758,854.0731],[19.9068,43.5795,924.4597],[19.9014,43.5812,1025.0266],[19.8828,43.5744,1064.7114],[19.8562,43.578,1222.0314],[19.8375,43.5868,1123.9336],[19.8314,43.5873,1044.5841],[19.8137,43.5829,1335.0137],[19.7964,43.588,1415.402],[19.7869,43.5864,1374.96],[19.7796,43.5833,1273.5415],[19.7726,43.5776,1180.8044],[19.7654,43.5757,1083.3367],[19.7581,43.5802,1006.8676],[19.7546,43.5982,1042.2373],[19.7463,43.6102,1225.3221],[19.7341,43.616,1108.8596],[19.725,43.6165,1086.4092],[19.7199,43.6131,1022.0164],[19.712,43.6041,1054.6453],[19.701,43.5969,901.3644],[19.6957,43.5892,977.082],[19.6795,43.5763,1020.0208],[19.6725,43.5735,884.8644],[19.6672,43.5739,774.854],[19.6669,43.5616,964.4826],[19.669,43.5519,1005.2932],[19.6673,43.5488,1014.6234],[19.6573,43.5418,1038.5973],[19.6313,43.5306,623.4225],[19.6272,43.5219,977.8655],[19.6179,43.513,837.3165],[19.6075,43.4868,786.3223],[19.604,43.4818,847.0748],[19.6077,43.4725,839.1455],[19.6145,43.4627,806.8551],[19.623,43.4543,765.3445],[19.6271,43.4451,569.8296],[19.6325,43.4415,457.2764],[19.6585,43.4318,792.2739],[19.6735,43.4214,824.4124],[19.7069,43.4147,1124.126],[19.716,43.4164,1169.8937],[19.7327,43.4249,1076.8779],[19.7392,43.425,1035.046],[19.7484,43.4213,1105.292],[19.7564,43.4157,1229.8622],[19.7575,43.4121,1239.2761],[19.7566,43.405,1221.071],[19.7588,43.4,1190.1458],[19.7688,43.3932,1343.277],[19.7748,43.3851,1394.9548],[19.7833,43.3804,1351.1461],[19.7875,43.3759,1220.8829],[19.7874,43.3646,1318.9921],[19.7895,43.3608,1250.501],[19.7994,43.3581,1166.6906],[19.8135,43.361,1429.2117],[19.82,43.3606,1381.7927],[19.8284,43.3522,1223.2255],[19.8329,43.338,1188.9424],[19.8466,43.3292,1195.6417],[19.8727,43.3345,1150.8062],[19.8806,43.3384,1204.5193],[19.8859,43.3457,1179.9791],[19.8851,43.3515,1154.4834],[19.8792,43.3597,1154.6101],[19.8827,43.3679,1301.4948],[19.8948,43.3729,1282.6616],[19.9212,43.3897,1127.1398],[19.9333,43.3934,980.0],[19.9611,43.3859,1075.0686],[19.9705,43.3876,1099.7004],[19.974,43.389,1130.2327],[19.9837,43.3979,1134.144],[19.9979,43.4017,1021.9661],[20.0167,43.4152,1267.8223],[20.0293,43.4205,1262.5284],[20.0221,43.4273,1229.6576],[20.0119,43.4424,1253.8325],[20.011,43.4506,1272.9409],[20.0131,43.4605,1142.7593],[20.0056,43.4686,1181.5383],[20.0029,43.479,1204.6438],[19.9996,43.484,1304.5868],[19.986,43.4884,1259.7487],[19.9615,43.4902,1142.0793],[19.958,43.4924,1264.7496],[19.9541,43.5003,1125.4565],[19.9509,43.5028,1257.7854],[19.9386,43.5073,1150.083],[19.9177,43.5103,1144.6268],[19.9095,43.5148,1116.0911],[19.903199999999998,43.5205,1216.4857],[19.8946,43.5328,1205.0773],[19.8937,43.5366,1154.0978],[19.8991,43.5419,1085.0593],[19.9084,43.5461,1176.1121],[19.9113,43.5499,1241.0917],[19.9063,43.5637,1107.7958],[19.9089,43.5758,854.0731]]]]}
,"properties": {"GID_2": "SRB.25.5_1","GID_0": "SRB","country": "Serbia","GID_1": "SRB.25_1","province": "Zlatiborski","NL_NAME_1": "Златиборски","county": "NovaVaroš","VARNAME_2": "NA","NL_NAME_2": "НоваВарош","TYPE_2": "Opštine","ENGTYPE_2": "Town|Municipal","CC_2": "NA","HASC_2": "NA","name": "Nova_Varoš.county","area_km2": 585.7311,"hist_schema_id": "Elevation0-9000","hist_area_km2": {"400": 0.2769,"425": 1.2155,"450": 1.1694,"475": 1.4618,"500": 1.4463,"525": 2.0158,"550": 2.1388,"575": 2.3541,"600": 2.3388,"625": 3.0001,"650": 3.0924,"675": 3.5231,"700": 4.3535,"725": 5.5527,"750": 7.1825,"775": 7.7206,"800": 9.4124,"825": 8.9815,"850": 11.6106,"875": 21.5138,"900": 15.8843,"925": 19.4203,"950": 21.6331,"975": 24.7908,"1000": 25.3881,"1025": 27.6967,"1050": 29.3628,"1075": 33.0148,"1100": 38.8663,"1125": 39.1924,"1150": 37.5477,"1175": 31.3935,"1200": 27.1949,"1225": 20.6558,"1250": 17.0096,"1275": 14.1622,"1300": 11.5472,"1325": 9.8559,"1350": 10.5038,"1375": 8.9025,"1400": 7.2383,"1425": 5.314,"1450": 3.8821,"1475": 2.1719,"1500": 1.0782,"1525": 0.6469,"1550": 0.5545,"1575": 0.2618,"1600": 0.1694,"1625": 0.0308}}}