{"type":"Feature","properties":{"GID_2":"SRB.15.4_1","GID_0":"SRB","country":"Serbia","GID_1":"SRB.15_1","province":"Rasinski","NL_NAME_1":"Расински","county":"Kruševac","VARNAME_2":"NA","NL_NAME_2":"Крушевац","TYPE_2":"Opštine","ENGTYPE_2":"Town|Municipal","CC_2":"NA","HASC_2":"NA","name":"Kruševac.county"},
"geometry":{"type": "MultiPolygon","coordinates": [[[[21.514,43.5771,214.4941],[21.481,43.5863,256.6068],[21.4592,43.5732,299.6385],[21.4529,43.5718,282.4146],[21.4444,43.5724,276.7674],[21.4376,43.5773,256.1024],[21.4393,43.5865,298.4582],[21.4382,43.5898,309.7557],[21.4279,43.6031,314.5257],[21.3781,43.6251,159.4147],[21.3608,43.6217,136.8451],[21.3503,43.6216,144.4953],[21.32,43.6332,221.0811],[21.3143,43.6383,275.4501],[21.3153,43.6499,243.8211],[21.3143,43.6542,267.0687],[21.3038,43.6622,226.0962],[21.2963,43.6633,246.7725],[21.2839,43.6595,194.4076],[21.2622,43.6572,250.4771],[21.2434,43.6602,307.9748],[21.2305,43.6658,269.0775],[21.2053,43.6648,305.8221],[21.1959,43.6675,303.2583],[21.1743,43.6783,269.9844],[21.1481,43.6871,331.1698],[21.1472,43.6802,269.5805],[21.1444,43.675,290.0354],[21.1291,43.6641,207.5386],[21.1275,43.6611,189.3508],[21.1282,43.6532,184.302],[21.1322,43.6474,177.6984],[21.1453,43.639,183.6557],[21.1479,43.6359,179.7301],[21.1492,43.6124,155.3823],[21.1529,43.592,151.6694],[21.1515,43.5889,151.5838],[21.145,43.5842,155.5083],[21.1448,43.5815,161.1277],[21.151,43.5795,160.6393],[21.1582,43.5842,155.7668],[21.164,43.5831,154.6322],[21.1734,43.5781,154.0536],[21.1786,43.5715,158.2751],[21.1531,43.5486,215.2323],[21.1427,43.5429,230.7877],[21.1325,43.5332,274.5074],[21.1316,43.5306,280.1858],[21.1466,43.5193,275.1837],[21.1645,43.5248,253.4324],[21.1812,43.5252,203.5567],[21.1886,43.5236,204.9886],[21.1916,43.5202,261.3773],[21.1946,43.5086,338.1052],[21.1858,43.4957,295.5908],[21.1896,43.4901,273.3232],[21.2024,43.4804,313.7583],[21.2048,43.4753,338.3152],[21.2022,43.4691,322.1684],[21.1931,43.4617,325.2271],[21.194,43.4588,348.7271],[21.2027,43.4522,318.7666],[21.2031,43.4496,312.3279],[21.1935,43.4374,300.5904],[21.1862,43.4328,327.9307],[21.1827,43.4238,295.5304],[21.1773,43.42,321.7512],[21.1651,43.4152,320.499],[21.1537,43.4057,366.6027],[21.1375,43.3987,408.3955],[21.1299,43.3868,379.5798],[21.1643,43.3885,275.0],[21.1826,43.387,421.8665],[21.2039,43.3706,503.357],[21.2128,43.354,630.7816],[21.25,43.3603,622.1782],[21.2976,43.3793,698.4341],[21.3252,43.3818,728.9139],[21.3397,43.3867,784.0458],[21.3574,43.3835,900.147],[21.3763,43.3775,796.323],[21.4041,43.3808,1092.9012],[21.4043,43.3829,1131.0341],[21.4065,43.3841,1195.27],[21.4159,43.3846,1015.202],[21.4231,43.3818,904.7443],[21.4308,43.3722,1088.2896],[21.4534,43.3662,912.3522],[21.4634,43.3667,867.3514],[21.4925,43.3735,1169.8876],[21.5116,43.3807,860.879],[21.5148,43.3831,768.8758],[21.5201,43.3928,898.0636],[21.5308,43.3991,709.428],[21.5378,43.4017,666.8015],[21.5499,43.4014,464.5181],[21.5548,43.4038,493.5462],[21.5641,43.4135,441.9804],[21.5669,43.4199,367.0862],[21.5653,43.4282,319.5034],[21.5532,43.441,342.5025],[21.5426,43.4622,376.1503],[21.5482,43.472,336.2733],[21.5459,43.4856,322.6876],[21.5655,43.5058,336.8588],[21.5672,43.5119,325.6785],[21.5663,43.5186,342.6369],[21.5642,43.5215,340.553],[21.5403,43.5387,267.0827],[21.5383,43.5427,276.0529],[21.538,43.5509,283.2935],[21.5222,43.5606,224.7957],[21.5182,43.5711,220.7379],[21.514,43.5771,214.4941]]]]}}