{"type": "Feature","bbox": [19.8272,44.3306,20.2175,44.5648],"geometry": {"type": "MultiPolygon","coordinates": [[[[19.9711,44.5648,134.2619],[19.9644,44.5647,117.2965],[19.9511,44.558,123.8764],[19.9269,44.5506,147.7269],[19.9061,44.5592,173.5638],[19.8977,44.5591,177.2552],[19.8768,44.5475,126.2173],[19.8635,44.543,129.8249],[19.8568,44.5374,179.5276],[19.8526,44.531,193.0317],[19.8499,44.524,198.3703],[19.8566,44.5175,170.1182],[19.8579,44.5058,146.6209],[19.868,44.493899999999996,122.1086],[19.8702,44.4884,134.0774],[19.8689,44.4822,192.9884],[19.8586,44.4755,203.1719],[19.856,44.4716,192.3777],[19.8632,44.4566,223.2153],[19.8638,44.4406,262.7086],[19.8622,44.4369,278.8484],[19.8593,44.4353,285.7386],[19.845,44.4379,275.9929],[19.8354,44.4363,231.3161],[19.8284,44.4315,270.0804],[19.8272,44.4277,253.6595],[19.8498,44.4056,215.8134],[19.8568,44.3965,229.6176],[19.8707,44.388,200.0392],[19.8744,44.3781,276.5714],[19.8723,44.3659,321.8248],[19.8756,44.3622,297.03],[19.8972,44.3671,291.0048],[19.9016,44.3653,295.0641],[19.9091,44.3577,247.063],[19.9245,44.3537,249.8054],[19.9321,44.3546,273.4358],[19.9466,44.3595,212.0141],[19.9664,44.358,300.5274],[19.974,44.3547,265.5966],[19.9827,44.343,260.4176],[19.9968,44.3353,223.3142],[20.0322,44.3306,231.9396],[20.0303,44.3434,270.7299],[20.0311,44.3541,270.4326],[20.0327,44.3596,295.1642],[20.0372,44.3664,310.0994],[20.0353,44.3747,299.5618],[20.038,44.3792,226.9961],[20.0566,44.3897,177.466],[20.0644,44.3908,167.2481],[20.07,44.3882,167.068],[20.0848,44.374,155.1548],[20.0909,44.3701,150.4446],[20.0989,44.3677,142.3027],[20.1051,44.3687,142.1105],[20.1141,44.3852,149.9288],[20.1128,44.3922,145.8439],[20.1153,44.3959,144.0531],[20.1251,44.3999,144.0854],[20.1394,44.4118,139.061],[20.155,44.416,136.4449],[20.1872,44.4308,135.5652],[20.1888,44.4342,139.0605],[20.1882,44.4384,138.3965],[20.1814,44.447,138.3719],[20.1811,44.4525,132.6991],[20.199,44.462,120.3709],[20.2175,44.4787,85.9718],[20.1969,44.4936,98.3795],[20.1998,44.5103,96.3299],[20.1925,44.5196,100.6138],[20.1894,44.5363,81.3379],[20.1824,44.5429,83.054],[20.1766,44.5423,82.4254],[20.1727,44.5384,81.5933],[20.1679,44.5253,93.7249],[20.1584,44.5156,84.6171],[20.1516,44.5058,91.618],[20.1278,44.4952,86.6407],[20.1216,44.499,89.8446],[20.1098,44.5128,91.5737],[20.104,44.5224,102.6818],[20.0951,44.526,104.4097],[20.074,44.5247,109.8725],[20.0671,44.521,111.1355],[20.0569,44.5102,103.5631],[20.0447,44.5072,98.9942],[20.0241,44.5129,108.9875],[20.0141,44.5173,113.8794],[19.9959,44.52,118.7697],[19.99,44.5223,122.7487],[19.9741,44.5347,128.1518],[19.9674,44.5435,140.1291],[19.9661,44.549,123.2498],[19.9678,44.5576,124.1163],[19.9711,44.5603,136.6386],[19.9711,44.5648,134.2619]]]]}
,"properties": {"GID_2": "SRB.7.5_1","GID_0": "SRB","country": "Serbia","GID_1": "SRB.7_1","province": "Kolubarski","NL_NAME_1": "Колубарски","county": "Ub","VARNAME_2": "NA","NL_NAME_2": "Уб","TYPE_2": "Opštine","ENGTYPE_2": "Town|Municipal","CC_2": "NA","HASC_2": "NA","name": "Ub.county","area_km2": 465.4058,"hist_schema_id": "Elevation0-9000","hist_area_km2": {"25": 0.2118,"50": 0.3782,"75": 6.3816,"100": 113.1088,"125": 98.6878,"150": 95.5819,"175": 55.6988,"200": 31.0967,"225": 19.6155,"250": 20.2144,"275": 15.4581,"300": 5.4561,"325": 2.5007,"350": 0.8335,"375": 0.1819}}}