{"type":"Feature","properties":{"featurecla":"River","scalerank":2,"rivernum":25,"dissolve":"25River","name":"Danube~Serbia","name_alt":null,"note":null,"min_zoom":2.1,"strokeweig":0.35,"name_en":"Danube","min_label":3.1},
"geometry":{"type": "LineString","coordinates": [[18.721582031250023,45.98493073124412,91.7705],[18.80615234375,45.923602606244117,97.0915],[18.831445312500023,45.895526434369117,89.4759],[18.832421875000023,45.89105866093162,87.8756],[18.83056640625,45.879510809369116,81.0],[18.831445312500023,45.87506744999412,81.0],[18.835205078125,45.87348053593162,94.7288],[18.84130859375,45.87396881718162,86.4567],[18.847412109375,45.873163153119116,101.6029],[18.851953125000023,45.868182684369117,101.8061],[18.853906250000023,45.859247137494116,81.0],[18.851953125000023,45.830340887494117,86.8935],[18.849853515625,45.824481512494117,84.2784],[18.84619140625,45.82025787968162,81.0],[18.844482421875,45.815936590619117,89.3651],[18.84814453125,45.809833074994117,81.0],[18.863525390625,45.79877350468162,88.2732],[18.87060546875,45.79022858280662,117.4365],[18.899658203125,45.765155340619117,90.3887],[18.904296875,45.75006744999412,99.4413],[18.908447265625,45.71967194218162,85.1363],[18.916748046875,45.70685455936912,84.492],[18.930419921875,45.699090887494116,82.534],[18.947656250000023,45.69232819218162,83.3798],[18.962060546875023,45.68329498905662,86.1621],[18.968017578125,45.668963934369117,80.0],[18.96240234375,45.66034577030662,80.0],[18.934814453125,45.63361237186912,79.5],[18.923828125,45.62799713749412,79.5],[18.911865234375,45.61945221561912,93.8786],[18.90771484375,45.60065338749412,80.8803],[18.906494140625,45.581903387494116,82.9009],[18.903076171875,45.57330963749412,85.6599],[18.911523437500023,45.56842682499412,91.4689],[18.931542968750023,45.545770574994116,85.7556],[18.941308593750023,45.53925202030662,81.8984],[18.959619140625023,45.53937409061912,89.0694],[18.97265625,45.546502996869116,86.7659],[18.982666015625,45.55499909061912,85.1963],[19.000146484375023,45.56146881718162,79.9939],[19.008691406250023,45.56574127811912,78.9379],[19.017578125,45.56757233280662,79.015],[19.026611328125,45.56281159061912,79.4033],[19.03271484375,45.55487702030662,105.0618],[19.035888671875,45.54975006718162,80.8626],[19.040283203125,45.545282293744116,90.8764],[19.050537109375,45.53925202030662,102.6941],[19.067285156250023,45.53363678593162,77.0],[19.081787109375,45.53143952030662,81.2569],[19.094482421875,45.52631256718162,82.1816],[19.105712890625,45.51190827030662,81.507],[19.076562500000023,45.49188873905662,95.4322],[19.009033203125,45.498895574994116,94.4915],[18.995849609375,45.47406647343162,88.3738],[19.00244140625,45.455585028119117,79.82],[19.031005859375,45.434198309369116,82.0082],[19.036767578125023,45.42255280155662,79.9091],[19.028076171875,45.41242096561912,77.0],[18.975341796875,45.39520905155662,78.3419],[18.98828125,45.37946198124412,78.9265],[19.003173828125,45.36640045780662,79.293],[19.0205078125,45.35748932499412,78.8716],[19.040185546875023,45.354266668744117,78.4391],[19.08154296875,45.354266668744117,78.3141],[19.09130859375,45.35028717655662,82.075],[19.0947265625,45.34076569218162,80.7309],[19.095703125,45.32941315311912,74.0],[19.098291015625023,45.32013580936912,76.453],[19.124267578125,45.29840729374412,91.1591],[19.161523437500023,45.285272528119116,78.3468],[19.362695312500023,45.24848053593162,80.4414],[19.40673828125,45.24896881718162,82.1031],[19.490869140625023,45.264276434369116,82.481],[19.529541015625,45.266864324994117,79.2332],[19.5576171875,45.25580475468162,77.8751],[19.571679687500023,45.236590887494117,76.9699],[19.580468750000023,45.23078034061912,76.1881],[19.598535156250023,45.22785065311912,75.7952],[19.658105468750023,45.23444244999412,79.7583],[19.698486328125,45.246698309369116,79.5086],[19.741943359375,45.24506256718162,78.4521],[19.784912109375,45.23749420780662,79.1083],[19.810791015625,45.22785065311912,75.4856],[19.817041015625023,45.231708074994117,78.76],[19.831689453125023,45.238153387494116,84.3834],[19.838134765625,45.24213287968162,83.0864],[19.846582031250023,45.25055573124412,81.851],[19.855615234375023,45.26508209843162,81.9335],[19.862451171875023,45.272821356244116,78.6499],[19.880859375,45.28229401249412,74.5079],[19.898583984375023,45.27936432499412,74.7182],[19.914306640625,45.268915106244116,74.1626],[19.927490234375,45.25580475468162,73.6406],[19.949365234375023,45.21869537968162,78.1336],[19.965576171875,45.19855377811912,87.1061],[19.985595703125,45.18976471561912,71.6073],[20.042382812500023,45.177752996869117,74.3392],[20.064697265625,45.17548248905662,72.5787],[20.184960937500023,45.18500397343162,71.5],[20.222412109375,45.17548248905662,74.92],[20.256982421875023,45.156756903119117,78.4589],[20.289453125000023,45.13226959843162,72.5784],[20.345849609375023,45.07306549686912,75.019],[20.35693359375,45.03449127811912,70.0],[20.333251953125,45.01056549686912,71.7821],[20.303955078125,44.99396393436912,70.0],[20.298095703125,44.97748444218162,74.0031],[20.290673828125023,44.97748444218162,70.0],[20.30322265625,44.95465729374412,74.5186],[20.31884765625,44.93439362186912,74.081],[20.396875,44.86456940311912,72.1264],[20.408447265625,44.857049871869116,68.0],[20.455078125,44.84027741093162,70.4602],[20.455078125,44.84027741093162,70.4602],[20.455078125,44.84027741093162,70.4602],[20.455078125,44.84027741093162,70.4602],[20.455078125,44.84027741093162,70.4602],[20.51416015625,44.83685944218162,71.8849],[20.5458984375,44.83978912968162,68.0],[20.580322265625,44.85736725468162,71.113],[20.594970703125,44.85797760624412,73.2026],[20.623681640625023,44.854608465619116,68.0],[20.636376953125023,44.84943268436912,73.4186],[20.638574218750023,44.83734772343162,68.0],[20.628173828125,44.788592840619117,68.0],[20.6279296875,44.77704498905662,68.0],[20.63330078125,44.76520416874412,69.8384],[20.644433593750023,44.75580475468162,70.3193],[20.671875,44.74396393436912,69.4461],[20.684814453125,44.733514715619116,73.1201],[20.720361328125023,44.69623444218162,70.5372],[20.741943359375,44.679217840619117,68.671],[20.763671875,44.66840241093162,67.5],[20.826416015625,44.66095612186912,73.4621],[20.883203125000023,44.67267487186912,71.9554],[20.989501953125,44.716815496869117,67.5],[21.077783203125023,44.72650787968162,69.4534],[21.102783203125,44.74066803593162,70.3838],[21.112207031250023,44.74481842655662,71.2197],[21.125634765625023,44.745624090619117,70.3668],[21.15087890625,44.74408600468162,67.5],[21.163818359375,44.74787018436912,67.5],[21.172265625000023,44.75690338749412,67.5],[21.179443359375,44.768085028119117,67.5],[21.188867187500023,44.77826569218162,69.3258],[21.222412109375,44.79669830936912,71.5002],[21.269433593750023,44.81366608280662,84.7164],[21.319091796875,44.825067449994116,67.5],[21.360107421875,44.826678778119117,67.5]]}}