{"type": "Feature","bbox": [21.8965,43.3191,22.3515,43.5727],"geometry": {"type": "MultiPolygon","coordinates": [[[[21.9065,43.4583,306.9761],[21.9146,43.4555,287.039],[21.9265,43.4452,679.1265],[21.9347,43.4333,635.4692],[21.9529,43.4173,669.5542],[21.9551,43.414,656.3522],[21.9561,43.4043,750.8054],[21.961,43.396,699.3389],[21.9659,43.3929,616.6044],[21.9779,43.3912,688.9221],[21.9779,43.3879,666.2424],[21.9748,43.3855,629.5371],[21.9753,43.3826,552.5359],[21.9824,43.3755,623.6235],[21.9909,43.3743,519.532],[22.0059,43.3758,629.2242],[22.0444,43.375,449.5183],[22.072,43.3648,625.1605],[22.095,43.3593,950.9175],[22.12,43.3478,760.4061],[22.1374,43.3369,425.3365],[22.1649,43.3437,809.3943],[22.2013,43.3394,940.1661],[22.2206,43.3303,849.9462],[22.2388,43.3267,1052.0446],[22.2494,43.3213,974.23],[22.2584,43.3191,947.3427],[22.3075,43.3211,1176.1699],[22.3215,43.3236,1109.4426],[22.3271,43.3265,1203.8373],[22.3343,43.3444,863.9328],[22.3337,43.3556,940.1255],[22.3387,43.3631,613.4907],[22.3364,43.3848,671.7469],[22.3408,43.3921,666.847],[22.34,43.4027,581.4648],[22.3477,43.413,632.3112],[22.3515,43.4242,751.8256],[22.3485,43.4334,718.2069],[22.3423,43.4405,687.9653],[22.3222,43.448,697.6984],[22.3005,43.4594,669.9512],[22.2922,43.4577,681.0998],[22.2769,43.4402,590.3969],[22.2709,43.4384,547.4913],[22.2544,43.449,617.8097],[22.2425,43.4505,744.5306],[22.2423,43.4556,633.0123],[22.2378,43.4601,661.4802],[22.2119,43.4685,648.3676],[22.2007,43.4687,696.3041],[22.1877,43.4632,668.5883],[22.1661,43.4609,692.3763],[22.1407,43.4663,627.6559],[22.1316,43.4704,602.1803],[22.1189,43.4791,614.339],[22.1039,43.4831,324.0762],[22.0884,43.4902,415.6858],[22.0722,43.4928,552.8739],[22.0565,43.4892,546.7556],[22.0474,43.4905,549.9038],[22.0405,43.496,562.3027],[22.0398,43.4989,568.5756],[22.0414,43.505,537.7739],[22.0223,43.5198,679.7579],[22.0258,43.5265,707.7057],[22.025,43.5339,733.3015],[21.9987,43.5489,645.823],[21.9938,43.5535,747.0658],[21.993,43.5579,882.9438],[21.9774,43.57,865.4928],[21.9704,43.5727,872.0659],[21.9591,43.572,914.7518],[21.9529,43.5697,930.13],[21.9489,43.5611,966.7689],[21.9507,43.5505,814.8245],[21.9537,43.5466,791.5687],[21.972,43.5327,566.7291],[21.9854,43.5266,761.9719],[21.9871,43.5233,782.1331],[21.9825,43.5196,786.0161],[21.9757,43.5179,803.4219],[21.9672,43.5182,767.6836],[21.9529,43.5227,729.5438],[21.934,43.5162,518.9101],[21.9127,43.5136,537.2015],[21.9153,43.5006,534.765],[21.9113,43.4896,571.957],[21.9086,43.4858,537.4225],[21.8987,43.4799,449.3919],[21.8965,43.4767,437.0003],[21.9065,43.4583,306.9761]]]]}
,"properties": {"GID_2": "SRB.10.7_1","GID_0": "SRB","country": "Serbia","GID_1": "SRB.10_1","province": "Nišavski","NL_NAME_1": "Нишавски","county": "Svrljig","VARNAME_2": "NA","NL_NAME_2": "Сврљиг","TYPE_2": "Opštine","ENGTYPE_2": "Town|Municipal","CC_2": "NA","HASC_2": "NA","name": "Svrljig.county","area_km2": 499.8062,"hist_schema_id": "Elevation0-9000","hist_area_km2": {"275": 0.1077,"300": 1.8313,"325": 2.739,"350": 5.5866,"375": 12.2388,"400": 19.5845,"425": 23.9428,"450": 28.071,"475": 30.2883,"500": 32.8732,"525": 34.8588,"550": 37.293,"575": 35.5241,"600": 33.5978,"625": 30.9638,"650": 28.177,"675": 21.9721,"700": 17.2296,"725": 13.1019,"750": 10.9459,"775": 8.0363,"800": 6.3272,"825": 4.8656,"850": 4.3422,"875": 4.2507,"900": 4.0043,"925": 4.0501,"950": 3.4364,"975": 2.8978,"1000": 3.4073,"1025": 3.2225,"1050": 3.5001,"1075": 4.117,"1100": 4.7647,"1125": 4.7032,"1150": 4.9038,"1175": 2.7911,"1200": 2.0047,"1225": 1.6192,"1250": 0.8173,"1275": 0.401,"1300": 0.3084,"1325": 0.108}}}