{"type": "Feature","bbox": [22.216,42.2993,22.5383,42.6105],"geometry": {"type": "MultiPolygon","coordinates": [[[[22.532,42.4767,1007.422],[22.5311,42.4799,946.1395],[22.5337,42.4854,970.9218],[22.5261,42.493,921.6354],[22.5124,42.4999,941.3032],[22.5022,42.5084,921.2543],[22.4945,42.5108,857.3483],[22.4883,42.518,939.3296],[22.4785,42.5238,920.0258],[22.4682,42.5351,1091.4189],[22.4602,42.5385,1213.5118],[22.4465,42.5522,1457.5618],[22.4292,42.56,1647.3542],[22.4165,42.5606,1560.3679],[22.4191,42.5796,1308.0005],[22.4128,42.5833,1136.1223],[22.4047,42.5865,1298.8032],[22.3969,42.5873,1326.3071],[22.3818,42.5859,1369.0875],[22.3687,42.5866,1369.3918],[22.3515,42.5818,1174.0217],[22.3447,42.582,1147.7322],[22.3249,42.5911,1365.5354],[22.3029,42.5938,1527.3152],[22.3012,42.5969,1589.4364],[22.301,42.6054,1695.3667],[22.2909,42.6105,1401.668],[22.2845,42.6085,1599.1951],[22.2789,42.6032,1524.5845],[22.2731,42.5892,1457.0566],[22.2609,42.5798,1616.4918],[22.2341,42.5522,1610.1611],[22.2353,42.5428,1689.5404],[22.2335,42.5303,1812.9128],[22.2304,42.5274,1879.4767],[22.2202,42.5231,1644.0034],[22.216,42.5135,1634.8389],[22.2169,42.507,1580.8147],[22.2263,42.4965,1586.0796],[22.2245,42.4928,1535.9033],[22.2178,42.4913,1479.3091],[22.2313,42.4715,1570.6658],[22.2422,42.4657,1545.8552],[22.2702,42.4567,1494.0472],[22.2917,42.4476,1559.1711],[22.2963,42.4434,1516.2457],[22.3011,42.4355,1421.6653],[22.3148,42.428,1429.9873],[22.3257,42.4173,1566.4222],[22.3269,42.4116,1572.5763],[22.3245,42.4016,1467.2437],[22.3238,42.3886,1503.3939],[22.3204,42.3787,1662.5321],[22.2734,42.3379,1143.792],[22.2928,42.3273,1119.5131],[22.306,42.3154,1079.6733],[22.3196,42.3068,1099.4446],[22.3387,42.2993,1009.379],[22.3457,42.3041,1068.3016],[22.3516,42.3134,1262.2953],[22.3513,42.3164,1363.1975],[22.3554,42.3141,1312.2583],[22.3622,42.3161,1285.021],[22.3719,42.3158,1195.0315],[22.3746,42.3181,1189.3452],[22.3846,42.3192,1197.2402],[22.3886,42.3253,1269.9485],[22.3934,42.3252,1228.0934],[22.3999,42.3222,1213.0605],[22.4036,42.3231,1193.165],[22.4078,42.3269,1103.8748],[22.4165,42.3161,1012.1372],[22.4247,42.3219,957.5482],[22.4365,42.325,1055.6035],[22.4385,42.3268,1058.6299],[22.4464,42.3385,1145.4329],[22.4443,42.3416,1070.2393],[22.445,42.3453,1149.743],[22.443,42.3559,1105.0649],[22.4507,42.3643,1145.7565],[22.4521,42.37,1179.568],[22.4578,42.3722,1383.509],[22.4628,42.3766,1244.6603],[22.4642,42.3814,1243.183],[22.4601,42.3886,1056.7756],[22.4652,42.388,1058.5656],[22.4779,42.3909,1228.4119],[22.4927,42.3885,1278.1875],[22.503,42.3903,1188.8822],[22.5055,42.4038,1017.4542],[22.5154,42.4114,870.0408],[22.5171,42.4158,706.5114],[22.5143,42.4223,881.522],[22.5176,42.4278,778.2907],[22.5199,42.4473,865.6478],[22.5383,42.4663,931.3367],[22.5316,42.4725,1005.9653],[22.532,42.4767,1007.422]]]]}
,"properties": {"GID_2": "SRB.11.1_1","GID_0": "SRB","country": "Serbia","GID_1": "SRB.11_1","province": "Pčinjski","NL_NAME_1": "Пчињски","county": "Bosilegrad","VARNAME_2": "Bosiljgrad","NL_NAME_2": "Босилеград","TYPE_2": "Opštine","ENGTYPE_2": "Town|Municipal","CC_2": "NA","HASC_2": "NA","name": "Bosilegrad.county","area_km2": 521.6699,"hist_schema_id": "Elevation0-9000","hist_area_km2": {"675": 0.1095,"700": 1.8148,"725": 3.9566,"750": 3.1283,"775": 3.6759,"800": 5.2869,"825": 6.8357,"850": 8.3843,"875": 10.4501,"900": 12.2488,"925": 12.8592,"950": 12.3911,"975": 12.3127,"1000": 12.6897,"1025": 14.0674,"1050": 14.8182,"1075": 14.299,"1100": 15.0021,"1125": 15.7048,"1150": 16.0795,"1175": 17.6918,"1200": 18.2238,"1225": 19.4587,"1250": 20.5085,"1275": 20.5693,"1300": 20.1616,"1325": 21.3032,"1350": 21.1767,"1375": 20.3154,"1400": 20.0806,"1425": 19.4708,"1450": 18.421,"1475": 15.8568,"1500": 14.8392,"1525": 12.0867,"1550": 9.7094,"1575": 8.7095,"1600": 6.817,"1625": 5.0352,"1650": 4.0965,"1675": 3.1434,"1700": 2.4549,"1725": 1.8137,"1750": 1.2821,"1775": 1.0475,"1800": 0.766,"1825": 0.2189,"1850": 0.2033,"1875": 0.0782,"1900": 0.0156}}}