{"type": "Feature","bbox": [19.7649,45.827,20.1138,46.0096],"geometry": {"type": "MultiPolygon","coordinates": [[[[19.8346,45.8279,100.5894],[19.8659,45.8403,102.1829],[19.8854,45.8455,102.2298],[19.9012,45.8476,103.1899],[19.9232,45.8556,99.802],[19.9384,45.8559,100.0297],[19.962,45.8533,95.9113],[20.0385,45.8531,81.1285],[20.0459,45.8548,80.8284],[20.0537,45.8589,80.4859],[20.0677,45.8717,81.1036],[20.0773,45.8771,81.0248],[20.0863,45.8781,80.8336],[20.1044,45.8748,81.0484],[20.1136,45.8772,79.5275],[20.1138,45.8797,81.1347],[20.1098,45.8837,80.7173],[20.1086,45.8876,80.996],[20.1128,45.9065,72.1846],[20.1122,45.9107,82.9113],[20.1082,45.9145,77.5941],[20.0891,45.9252,82.8967],[20.0812,45.9485,76.2741],[20.0873,45.9653,78.5026],[20.0835,45.9755,76.5983],[20.0845,45.9899,77.8751],[20.0803,45.9995,77.2199],[20.056,46.0096,79.5372],[20.0514,46.0003,75.207],[20.0447,45.9932,77.5679],[20.033,45.9851,82.4994],[20.0157,45.9773,82.4128],[19.9909,45.9772,87.2046],[19.9703,45.966,100.3795],[19.9379,45.9576,101.7556],[19.8911,45.9567,106.052],[19.8693,45.9508,103.1707],[19.8431,45.9495,106.049],[19.8285,45.9457,106.1153],[19.8003,45.9417,106.2181],[19.8075,45.9255,106.3311],[19.8066,45.9203,106.2209],[19.7649,45.9024,103.0844],[19.7924,45.8732,100.8888],[19.7973,45.8624,102.93],[19.807,45.8516,103.3053],[19.8066,45.8372,102.197],[19.8109,45.8292,101.5698],[19.8179,45.827,94.846],[19.8346,45.8279,100.5894]]]]}
,"properties": {"GID_2": "SRB.18.6_1","GID_0": "SRB","country": "Serbia","GID_1": "SRB.18_1","province": "Severno-Banatski","NL_NAME_1": "Севернобанатски","county": "Senta","VARNAME_2": "Zenta|Senta","NL_NAME_2": "Сента","TYPE_2": "Opštine","ENGTYPE_2": "Town|Municipal","CC_2": "NA","HASC_2": "NA","name": "Senta.county","area_km2": 303.8603,"hist_schema_id": "Elevation0-9000","hist_area_km2": {"75": 89.1951,"100": 214.6652}}}