{"type": "Feature","bbox": [20.7782,44.6304,21.2645,44.9948],"geometry": {"type": "MultiPolygon","coordinates": [[[[21.2614,44.7709,67.114],[21.2584,44.7901,67.5],[21.2639,44.8038,67.5],[21.2645,44.8092,77.4495],[21.254,44.8204,85.0353],[21.2456,44.8268,92.5593],[21.2371,44.8283,91.0571],[21.2229,44.8197,92.6385],[21.2138,44.8229,98.6276],[21.2048,44.8316,104.2132],[21.2097,44.8414,104.0062],[21.2069,44.8471,105.481],[21.1667,44.8725,135.7509],[21.1465,44.8829,145.0728],[21.1379,44.8709,134.7654],[21.1281,44.8654,150.2667],[21.116,44.8673,146.7642],[21.0912,44.8776,164.2592],[21.0587,44.9003,152.526],[21.0442,44.9071,154.2412],[21.0434,44.909,154.5815],[21.0457,44.9102,157.4383],[21.0384,44.9206,156.4583],[21.0342,44.9244,166.366],[21.0135,44.9361,159.3333],[21.0113,44.9403,154.8352],[21.0109,44.9491,151.151],[21.0024,44.9549,147.2697],[20.9981,44.9553,147.0233],[20.9946,44.9537,155.8879],[20.9783,44.9312,148.044],[20.9671,44.9252,145.7444],[20.9596,44.9241,143.7116],[20.9479,44.939,145.0504],[20.9426,44.9516,146.8871],[20.9311,44.958,148.5747],[20.9197,44.9705,145.6846],[20.9076,44.9782,146.8272],[20.8936,44.9934,145.6803],[20.8887,44.9948,147.5262],[20.8851,44.9916,144.8963],[20.883,44.9841,146.5008],[20.8854,44.9797,146.4635],[20.8914,44.9757,147.0182],[20.8991,44.9569,146.8327],[20.8963,44.9434,140.5263],[20.903,44.9096,111.8239],[20.9095,44.8998,110.8846],[20.92,44.8902,109.965],[20.9251,44.8871,110.8739],[20.9366,44.8835,108.6511],[20.9397,44.881,104.8555],[20.9401,44.8786,98.3489],[20.9345,44.8743,93.812],[20.9085,44.8639,93.7135],[20.8891,44.86,95.8029],[20.8573,44.8482,85.174],[20.8241,44.8397,84.2952],[20.7963,44.8245,77.0073],[20.7813,44.8106,78.3274],[20.7805,44.806399999999996,78.074],[20.7829,44.8034,76.6467],[20.7979,44.7952,77.1866],[20.7986,44.7822,75.8206],[20.8051,44.7729,76.9656],[20.8089,44.7712,77.2057],[20.8265,44.771,76.472],[20.8322,44.7673,76.427],[20.8322,44.7561,76.4862],[20.8367,44.7467,77.2346],[20.8337,44.7402,75.684],[20.8339,44.7371,76.1092],[20.8469,44.7185,67.9677],[20.8482,44.713,67.7602],[20.847,44.7074,67.9521],[20.8411,44.7,68.4183],[20.8272,44.6886,68.3986],[20.8095,44.6693,69.3001],[20.8037,44.6668,69.5892],[20.7895,44.6655,71.563],[20.7865,44.6634,68.1873],[20.7866,44.6456,164.5348],[20.7844,44.6403,190.8542],[20.7782,44.6329,171.8587],[20.8136,44.6304,205.6483],[20.8381,44.6331,163.5579],[20.8627,44.6386,194.5264],[20.8888,44.6413,139.0783],[20.9081,44.6509,132.3384],[20.9173,44.6617,136.9843],[20.9282,44.6702,72.6606],[20.9546,44.6793,69.9291],[20.9641,44.6867,69.9585],[20.9861,44.6948,68.5279],[21.0033,44.6964,69.025],[21.0158,44.6949,74.4805],[21.0264,44.6911,69.8086],[21.0467,44.6914,71.7333],[21.0588,44.6946,71.3017],[21.0781,44.7073,97.5957],[21.0857,44.7099,70.3803],[21.1268,44.7093,69.2523],[21.1461,44.7255,68.6656],[21.1486,44.7339,67.5],[21.1527,44.7382,67.5],[21.178,44.7515,75.7597],[21.2216,44.7641,67.0129],[21.2414,44.7662,68.3202],[21.2614,44.7709,67.114]]]]}
,"properties": {"GID_2": "SRB.6.4_1","GID_0": "SRB","country": "Serbia","GID_1": "SRB.6_1","province": "Južno-Banatski","NL_NAME_1": "Јужнобанатски","county": "Kovin","VARNAME_2": "DonjiKovin|Cuvin|Kevevára","NL_NAME_2": "Ковин","TYPE_2": "Opštine","ENGTYPE_2": "Town|Municipal","CC_2": "NA","HASC_2": "NA","name": "Kovin.county","area_km2": 734.6798,"hist_schema_id": "Elevation0-9000","hist_area_km2": {"75": 469.5331,"100": 99.7035,"125": 65.1136,"150": 85.5436,"175": 11.0296,"200": 3.7563}}}