{"type":"Feature","properties":{"GID_2":"SRB.21.4_1","GID_0":"SRB","country":"Serbia","GID_1":"SRB.21_1","province":"Šumadijski","NL_NAME_1":"Шумадијски","county":"Kragujevac","VARNAME_2":"Alacahisar","NL_NAME_2":"Крагујевац","TYPE_2":"Opštine","ENGTYPE_2":"Town|Municipal","CC_2":"NA","HASC_2":"NA","name":"Kragujevac.county"},
"geometry":{"type": "MultiPolygon","coordinates": [[[[20.6369,44.0202,443.5793],[20.6429,44.0281,401.4978],[20.6476,44.0406,361.2807],[20.654,44.0448,372.6278],[20.6603,44.045,402.5555],[20.6707,44.041,395.3169],[20.6791,44.034,357.3334],[20.7049,44.0308,359.0514],[20.7172,44.0231,361.6687],[20.7165,44.0188,345.5287],[20.6994,44.002,365.7943],[20.7018,43.998,379.5822],[20.7106,43.9963,355.3275],[20.7294,43.9995,349.2638],[20.7522,43.998,365.0718],[20.7569,43.9964,402.136],[20.7652,43.9885,369.8865],[20.7685,43.9752,324.8075],[20.7761,43.96,286.8742],[20.7788,43.9508,274.2069],[20.7784,43.943,279.0978],[20.7832,43.934,274.9632],[20.7824,43.9225,270.9259],[20.7851,43.9178,277.1623],[20.7928,43.9119,296.5687],[20.8022,43.9077,274.898],[20.8178,43.9067,368.6588],[20.8244,43.9043,343.0284],[20.8346,43.8901,433.763],[20.8573,43.8764,607.604],[20.8602,43.8717,540.3513],[20.8619,43.8639,616.9366],[20.8663,43.8591,699.0713],[20.8722,43.8582,551.6212],[20.884,43.8596,567.2964],[20.8902,43.8569,576.8101],[20.8951,43.8504,528.3475],[20.8983,43.8384,494.7284],[20.8941,43.8266,632.9095],[20.8981,43.8215,573.1337],[20.8999,43.8149,511.2587],[20.9045,43.8122,468.4764],[20.9084,43.8073,596.5878],[20.9217,43.8069,669.504],[20.9343,43.8045,726.729],[20.9399,43.807,613.9192],[20.945,43.818,658.2623],[20.9507,43.8234,640.5173],[20.965699999999998,43.8305,672.157],[20.9825,43.8333,709.9028],[20.9915,43.8371,658.8837],[21.0147,43.8548,561.1357],[21.0166,43.8601,561.5771],[21.016,43.8682,496.8996],[21.0026,43.8847,423.4794],[21.0,43.8939,354.3089],[21.0068,43.9005,367.5036],[21.0256,43.9079,397.4491],[21.0339,43.9081,352.9213],[21.0437,43.9056,338.9214],[21.0454,43.9152,359.865],[21.0413,43.9308,345.0276],[21.0588,43.9387,307.4453],[21.0623,43.9428,322.5965],[21.0617,43.9485,391.0809],[21.052,43.9612,432.4136],[21.0418,43.97,505.9696],[21.041,43.9756,498.53],[21.0441,43.9795,468.3403],[21.0534,43.9833,492.4522],[21.0644,43.9912,448.224],[21.0849,43.9921,456.5574],[21.0906,43.9937,502.2546],[21.0956,43.9997,504.4619],[21.0963,44.011,571.5349],[21.1022,44.019,519.4404],[21.1033,44.0233,537.0293],[21.1009,44.0298,428.3924],[21.0869,44.041,405.0676],[21.0543,44.0474,266.7007],[21.0511,44.0464,283.3592],[21.0299,44.048,346.898],[21.0199,44.0519,287.1229],[21.0144,44.0574,290.9305],[21.0037,44.0617,283.73],[20.9992,44.0654,283.0651],[20.9918,44.0649,147.2107],[20.9866,44.0662,147.1023],[20.9751,44.0765,172.9595],[20.9645,44.089,174.5163],[20.9413,44.1005,175.3922],[20.9299,44.1175,212.8945],[20.9237,44.1138,182.7407],[20.9087,44.1133,235.771],[20.8995,44.1091,248.1966],[20.8958,44.1047,239.5384],[20.8926,44.0961,239.1252],[20.8878,44.0927,242.9184],[20.8799,44.0913,268.1368],[20.8736,44.0938,278.9947],[20.8537,44.1087,281.3676],[20.8493,44.115,268.1802],[20.8506,44.119,280.7479],[20.8593,44.1271,293.1656],[20.8616,44.1316,302.8401],[20.8587,44.14,303.6143],[20.8649,44.1494,292.7551],[20.8652,44.1523,274.6758],[20.8633,44.1568,266.4828],[20.8601,44.1589,221.933],[20.8537,44.1581,257.2025],[20.8419,44.1518,233.7659],[20.8153,44.1481,279.0437],[20.8065,44.1432,330.5317],[20.8006,44.1419,345.3381],[20.7904,44.142,323.2368],[20.7744,44.1459,324.4029],[20.7593,44.1431,354.3133],[20.7412,44.1462,441.2175],[20.7156,44.1443,434.9648],[20.7043,44.1461,398.4494],[20.6767,44.1576,265.9897],[20.6683,44.1645,233.7044],[20.6614,44.1658,231.308],[20.6305,44.1624,347.6226],[20.6265,44.1599,439.2533],[20.6158,44.1458,528.9603],[20.6109,44.1422,491.0107],[20.5925,44.1342,788.7284],[20.5767,44.1315,663.8511],[20.5634,44.125,798.9304],[20.5508,44.121,1086.6431],[20.5323,44.1104,801.275],[20.5393,44.0971,670.8873],[20.5391,44.0814,718.1544],[20.5416,44.0775,842.1614],[20.5981,44.0541,568.6771],[20.6063,44.0484,428.3558],[20.6119,44.0406,340.8442],[20.6235,44.033,362.3312],[20.6369,44.0202,443.5793]]]]}}