{"type":"Feature","properties":{"GID_2":"SRB.1.2_1","GID_0":"SRB","country":"Serbia","GID_1":"SRB.1_1","province":"Borski","NL_NAME_1":"Борски","county":"Kladovo","VARNAME_2":"Claudia|Kladowo","NL_NAME_2":"Кладово","TYPE_2":"Opštine","ENGTYPE_2":"Town|Municipal","CC_2":"NA","HASC_2":"NA","name":"Kladovo.county"},
"geometry":{"type": "MultiPolygon","coordinates": [[[[22.6492,44.5411,38.0],[22.6844,44.5208,38.5],[22.6975,44.5169,38.5],[22.7131,44.5199,38.5],[22.7588,44.5362,38.5],[22.7648,44.5406,38.5],[22.7656,44.5461,38.5],[22.7631,44.5551,38.5],[22.7546,44.5658,38.5],[22.7109,44.6022,39.0],[22.6871,44.6075,39.4991],[22.683,44.6104,39.0],[22.6803,44.617,39.0],[22.6742,44.6192,39.0],[22.6392,44.6148,39.0],[22.6235,44.6149,39.0],[22.5769,44.6337,40.0],[22.5684,44.6392,40.0],[22.566,44.6466,40.0],[22.5636,44.6487,40.125],[22.5551,44.6529,41.4801],[22.5253,44.6766,64.0],[22.5213,44.6777,64.0],[22.5075,44.6926,64.0],[22.4921,44.701,64.0],[22.4849,44.7086,64.0],[22.4675,44.7154,64.5],[22.463,44.7156,64.5],[22.4449,44.7107,64.5],[22.4324,44.7105,64.5],[22.4197,44.7035,64.5],[22.4058,44.6889,64.5],[22.3987,44.6838,64.5],[22.3759,44.6736,64.5],[22.3588,44.673,65.0],[22.3408,44.6769,65.0],[22.3315,44.6747,65.0],[22.3059,44.6548,65.0],[22.3034,44.6495,76.6607],[22.3035,44.6424,65.0],[22.3015,44.639,65.0],[22.2759,44.6258,65.0],[22.2738,44.6133,73.3469],[22.2661,44.5966,68.8161],[22.2499,44.5792,65.5],[22.2733,44.5829,556.8914],[22.286,44.5894,734.2263],[22.2947,44.5883,621.5407],[22.3029,44.5849,508.7503],[22.3094,44.5802,466.3458],[22.3178,44.564,455.5904],[22.3312,44.5562,421.6718],[22.3481,44.5496,395.1428],[22.3498,44.5454,385.6126],[22.3473,44.5414,389.855],[22.3304,44.5323,480.4472],[22.3116,44.5327,444.7269],[22.3063,44.5304,544.3685],[22.3011,44.5131,456.4286],[22.3029,44.505,377.6455],[22.2963,44.4971,407.9277],[22.2948,44.4883,416.9611],[22.2896,44.4804,430.6269],[22.2907,44.4756,412.5621],[22.304,44.4584,405.1682],[22.3408,44.4586,366.8816],[22.3583,44.4523,317.3405],[22.3711,44.4408,219.9382],[22.384,44.433,247.3898],[22.3842,44.4294,214.7342],[22.3805,44.424,152.2686],[22.3834,44.4199,113.4354],[22.4314,44.3997,182.2473],[22.4475,44.4022,164.245],[22.4755,44.4155,167.991],[22.4532,44.4414,64.106],[22.4476,44.4541,67.288],[22.4504,44.4651,54.6159],[22.4577,44.4664,37.5],[22.4575,44.4704,37.5],[22.4625,44.4778,37.5],[22.4688,44.4805,37.5],[22.4755,44.481,37.5],[22.498,44.4779,37.5],[22.5184,44.472,38.0],[22.5278,44.4736,38.0],[22.5498,44.4821,38.0],[22.5567,44.4901,38.0],[22.5619,44.5055,38.0],[22.5621,44.523,38.0],[22.5644,44.5335,38.0],[22.5741,44.5438,38.0],[22.5837,44.5497,38.0],[22.6011,44.5525,38.0],[22.6224,44.552,38.0],[22.644,44.545,38.0],[22.6492,44.5411,38.0]]]]}}