{"type":"Feature","properties":{"GID_2":"SRB.25.9_1","GID_0":"SRB","country":"Serbia","GID_1":"SRB.25_1","province":"Zlatiborski","NL_NAME_1":"Златиборски","county":"Sjenica","VARNAME_2":"NA","NL_NAME_2":"Сјеница","TYPE_2":"Opštine","ENGTYPE_2":"Town|Municipal","CC_2":"NA","HASC_2":"NA","name":"Sjenica.county"},
"geometry":{"type": "MultiPolygon","coordinates": [[[[20.0337,42.9851,1518.4689],[20.0436,43.0015,1457.8986],[20.047,43.0152,1402.3375],[20.0602,43.0279,1343.9124],[20.0631,43.0411,1367.8506],[20.0691,43.0529,1221.8635],[20.0764,43.0612,1178.6428],[20.084,43.0734,1155.181],[20.1005,43.0888,1157.167],[20.1203,43.0957,1159.1592],[20.1366,43.0954,1166.7074],[20.1419,43.0974,1165.9108],[20.1438,43.1001,1167.5391],[20.144,43.1043,1166.332],[20.1389,43.113,1169.3643],[20.1399,43.1168,1177.8066],[20.1513,43.1246,1180.5291],[20.1656,43.1392,1284.3425],[20.1713,43.1409,1183.7034],[20.2145,43.1403,1086.7327],[20.2463,43.1525,1291.3903],[20.2821,43.1569,1118.5802],[20.2672,43.1731,1176.2942],[20.2561,43.177,1176.8856],[20.2464,43.1827,1217.0686],[20.2338,43.1861,1265.5841],[20.2294,43.1895,1290.4443],[20.2236,43.198,1203.1177],[20.2076,43.2047,1132.5132],[20.2047,43.2082,1143.0632],[20.2012,43.2185,1175.238],[20.2051,43.2236,1188.1855],[20.2329,43.2393,1189.6411],[20.2354,43.2544,1126.5908],[20.2419,43.2683,919.5242],[20.249,43.2802,1001.0927],[20.2674,43.2985,1070.5815],[20.2644,43.3067,1173.485],[20.2541,43.3148,1284.9915],[20.2406,43.3178,1356.0164],[20.2061,43.31,1275.7747],[20.1776,43.3087,1222.92],[20.1591,43.3031,1294.0361],[20.1376,43.3012,1225.2755],[20.1256,43.2966,1262.7463],[20.119,43.2974,1311.7944],[20.0933,43.3144,1195.6355],[20.0905,43.319,1224.9368],[20.0905,43.3224,1219.718],[20.097,43.3289,1428.8562],[20.0972,43.3349,1396.9468],[20.0858,43.3463,1265.12],[20.0775,43.3593,1169.1887],[20.075,43.3677,1161.7264],[20.0549,43.3856,1148.0957],[20.0482,43.3983,1147.2769],[20.028199999999998,43.4193,1259.7335],[20.0167,43.4152,1267.8223],[19.9979,43.4017,1021.9661],[19.9837,43.3979,1134.144],[19.974,43.389,1130.2327],[19.9705,43.3876,1099.7004],[19.9611,43.3859,1075.0686],[19.9306,43.3933,983.0734],[19.9174,43.3876,1008.2643],[19.8948,43.3729,1282.6616],[19.8827,43.3679,1301.4948],[19.8792,43.3597,1154.6101],[19.8858,43.3499,1180.9734],[19.8859,43.3457,1179.9791],[19.8832,43.341,1217.5275],[19.8751,43.3353,1152.2009],[19.8466,43.3292,1195.6417],[19.845,43.3107,1363.962],[19.8465,43.307,1330.6643],[19.855,43.2995,1387.759],[19.8556,43.2964,1390.1844],[19.8533,43.2928,1410.9062],[19.8429,43.2857,1461.129],[19.8178,43.2835,1591.5496],[19.806,43.2791,1607.8936],[19.7999,43.2742,1542.5652],[19.8006,43.2576,1519.4504],[19.8037,43.2487,1401.6914],[19.8052,43.2331,1237.4227],[19.8074,43.2265,1069.5579],[19.8054,43.2182,1275.5863],[19.806,43.2118,1209.2471],[19.8097,43.2076,1324.604],[19.8322,43.1941,995.7313],[19.8327,43.1893,963.5931],[19.8131,43.1777,1073.5045],[19.805,43.1746,1006.8481],[19.755,43.1798,701.2272],[19.7364,43.1756,863.5316],[19.7334,43.1718,920.1479],[19.7469,43.1586,822.9717],[19.7437,43.1509,705.7153],[19.7449,43.1359,641.2562],[19.7379,43.1224,933.119],[19.742,43.117,881.515],[19.7487,43.1128,799.7059],[19.7664,43.1051,734.7758],[19.7819,43.103,551.9257],[19.7857,43.1001,642.2032],[19.7937,43.0879,746.2955],[19.7977,43.0862,723.3862],[19.804,43.0873,690.4817],[19.8188,43.0954,792.3209],[19.8258,43.0967,1060.4453],[19.8343,43.0941,1140.4093],[19.8496,43.0835,1009.5496],[19.8669,43.0779,751.853],[19.8766,43.0771,835.1341],[19.9,43.0832,1134.6965],[19.9166,43.0905,1055.89],[19.9256,43.0903,1160.2307],[19.9293,43.086,1139.0743],[19.9337,43.0712,1083.4246],[19.95,43.0437,1138.8785],[19.9633,43.034,1183.7593],[19.9877,43.0241,1201.49],[20.0094,43.0121,1381.5105],[20.0337,42.9851,1518.4689]]]]}}