{"type":"Feature","properties":{"GID_2":"SRB.3.17_1","GID_0":"SRB","country":"Serbia","GID_1":"SRB.3_1","province":"GradBeograd","NL_NAME_1":"Београд","county":"Zvezdara","VARNAME_2":"NA","NL_NAME_2":"Звездара","TYPE_2":"Opštine","ENGTYPE_2":"Town|Municipal","CC_2":"NA","HASC_2":"NA","name":"Zvezdara.county"},
"geometry":{"type": "MultiPolygon","coordinates": [[[[20.5745,44.7615,157.4211],[20.5621,44.7689,235.0924],[20.5389,44.7771,237.4904],[20.5342,44.7816,198.6531],[20.5306,44.7901,147.3512],[20.5252,44.7927,150.2802],[20.5169,44.7921,216.203],[20.4976,44.7847,126.6922],[20.4767,44.7846,102.3831],[20.4748,44.7837,126.8333],[20.4735,44.7795,147.1785],[20.4757,44.7685,171.1794],[20.4937,44.7601,164.5829],[20.4941,44.7566,178.741],[20.4887,44.7487,207.2926],[20.4972,44.7364,277.4412],[20.5125,44.7252,266.8347],[20.5238,44.722,188.4147],[20.5389,44.7196,118.6885],[20.5244,44.738,224.1574],[20.5242,44.7422,244.9253],[20.5306,44.7515,245.4799],[20.5363,44.7539,243.0623],[20.5566,44.7529,128.1761],[20.5687,44.7565,168.0982],[20.5745,44.7615,157.4211]]]]}}