{"type":"Feature","properties":{"GID_2":"SRB.3.13_1","GID_0":"SRB","country":"Serbia","GID_1":"SRB.3_1","province":"GradBeograd","NL_NAME_1":"Београд","county":"Surčin","VARNAME_2":"NA","NL_NAME_2":"Сурчин","TYPE_2":"Opštine","ENGTYPE_2":"Town|Municipal","CC_2":"NA","HASC_2":"NA","name":"Surčin.county"},
"geometry":{"type": "MultiPolygon","coordinates": [[[[20.3308,44.7588,70.9741],[20.3194,44.7724,71.9234],[20.3173,44.7965,98.494],[20.3017,44.8112,97.5546],[20.2883,44.815,94.1272],[20.2645,44.817,90.8068],[20.2338,44.822,84.398],[20.1685,44.8362,75.6191],[20.1462,44.8434,75.2829],[20.136,44.8442,76.224],[20.1338,44.8299,76.9562],[20.1264,44.819,76.2426],[20.1245,44.8029,76.5299],[20.1217,44.7974,76.4241],[20.1077,44.7911,85.0639],[20.0872,44.789,76.53],[20.0818,44.7831,76.4482],[20.0809,44.7746,76.872],[20.084,44.7688,77.1255],[20.0915,44.7648,77.6515],[20.1081,44.7599,77.7647],[20.1104,44.7546,77.3966],[20.1062,44.7463,76.5302],[20.0987,44.7426,76.3851],[20.0969,44.7401,77.2506],[20.1034,44.7324,76.3664],[20.1008,44.7234,74.6876],[20.0919,44.7134,76.308],[20.0797,44.7051,88.213],[20.0829,44.7024,81.9353],[20.1087,44.6915,71.9298],[20.1211,44.6955,72.1661],[20.1394,44.6961,76.6725],[20.1461,44.6936,94.3946],[20.1492,44.689,103.092],[20.1492,44.6845,100.5],[20.1418,44.6716,74.1574],[20.1417,44.6683,76.6275],[20.1495,44.6596,74.3034],[20.1574,44.6577,76.2097],[20.1666,44.659,74.3214],[20.1723,44.6626,76.9875],[20.1967,44.6919,81.8986],[20.2074,44.6959,68.0],[20.2156,44.6953,72.5549],[20.2234,44.6903,75.7134],[20.2246,44.6861,68.0],[20.2219,44.6797,77.4227],[20.2132,44.6731,72.1564],[20.2126,44.6696,72.1517],[20.2152,44.6649,72.4411],[20.2261,44.6546,77.3723],[20.2419,44.6454,112.6066],[20.2467,44.6435,109.3455],[20.2544,44.644,147.6055],[20.2735,44.6515,159.7697],[20.2816,44.6739,71.6892],[20.2786,44.6944,70.5414],[20.2797,44.7024,71.3194],[20.2824,44.7074,71.1184],[20.2895,44.717,71.7642],[20.2997,44.7265,72.2218],[20.3162,44.7361,68.0],[20.3207,44.7402,69.4489],[20.3279,44.7508,69.168],[20.3308,44.7588,70.9741]]]]}}