{"type":"Feature","properties":{"GID_2":"SRB.25.2_1","GID_0":"SRB","country":"Serbia","GID_1":"SRB.25_1","province":"Zlatiborski","NL_NAME_1":"Златиборски","county":"BajinaBašta","VARNAME_2":"NA","NL_NAME_2":"БајинаБашта","TYPE_2":"Opštine","ENGTYPE_2":"Town|Municipal","CC_2":"NA","HASC_2":"NA","name":"Bajina_Bašta.county"},
"geometry":{"type": "MultiPolygon","coordinates": [[[[19.3883,43.8102,1063.3374],[19.41,43.823,944.8547],[19.4109,43.8258,1054.0024],[19.4092,43.8342,866.7402],[19.4183,43.842,1031.0054],[19.4194,43.8447,1042.2599],[19.4123,43.8574,807.5399],[19.4128,43.8658,894.9744],[19.4225,43.8772,1081.5088],[19.4311,43.8811,1287.7001],[19.4474,43.8826,1254.7932],[19.4674,43.8796,1382.7847],[19.4755,43.8755,1313.9104],[19.4862,43.8661,1163.2085],[19.4961,43.8635,1156.4132],[19.507,43.8652,1096.3558],[19.5208,43.8739,1122.8079],[19.5532,43.8747,894.6573],[19.5737,43.869,843.0178],[19.5929,43.8703,877.2443],[19.6246,43.8812,821.238],[19.659,43.8838,900.2988],[19.6814,43.8824,878.0671],[19.7081,43.8871,885.8828],[19.7191,43.8909,905.7424],[19.7337,43.9014,892.3364],[19.7523,43.9044,656.8708],[19.7628,43.9142,797.9649],[19.7744,43.9302,864.5096],[19.7694,43.9387,971.1746],[19.7695,43.9568,808.8832],[19.7641,43.9618,856.2122],[19.751,43.9647,813.1616],[19.746,43.9699,751.2546],[19.7447,43.978,496.221],[19.747,43.9896,643.8892],[19.7385,44.0063,522.4404],[19.7252,44.0189,633.4232],[19.7015,44.0238,755.0309],[19.6894,44.021,628.7858],[19.6809,44.0232,397.094],[19.6695,44.0357,489.2664],[19.67,44.0399,590.6982],[19.6738,44.0453,623.1738],[19.689,44.0621,876.5735],[19.7012,44.0703,746.011],[19.7038,44.0768,581.9064],[19.7142,44.0893,747.4945],[19.7125,44.0938,1031.1959],[19.6976,44.1025,695.8049],[19.6895,44.1226,938.4752],[19.6711,44.1268,950.7551],[19.6563,44.1389,960.3159],[19.6336,44.1449,877.4517],[19.6182,44.1437,893.0529],[19.6176,44.1354,824.1516],[19.6093,44.1233,823.7963],[19.605,44.1199,993.6573],[19.5958,44.118,1001.8436],[19.5738,44.1216,959.2059],[19.548,44.1147,700.9529],[19.5429,44.1113,639.9355],[19.5296,44.095,322.585],[19.5094,44.0902,206.3424],[19.5377,44.0766,189.375],[19.5615,44.0585,203.4635],[19.5693,44.0543,213.4996],[19.5758,44.056,343.6779],[19.5749,44.0684,400.1583],[19.5789,44.0727,375.2308],[19.5901,44.0736,207.686],[19.599,44.0655,202.9846],[19.6028,44.0589,197.25],[19.6147,44.0551,225.9684],[19.6119,44.0425,391.2719],[19.6139,44.0325,206.6676],[19.6124,44.024,348.7556],[19.595,44.0158,396.4322],[19.5635,44.0052,358.6513],[19.556,43.996,258.8609],[19.5454,43.9878,516.7982],[19.5293,43.9816,514.8849],[19.5174,43.9694,365.7296],[19.5103,43.9646,358.9077],[19.4611,43.965,276.6034],[19.38,43.9723,457.6212],[19.3521,43.9783,294.2442],[19.3392,43.9863,335.4496],[19.3209,43.9917,289.451],[19.3059,44.0002,374.7526],[19.2817,44.0037,705.2792],[19.2624,44.0102,664.8434],[19.2404,44.0135,426.1556],[19.2305,44.0031,615.4865],[19.2382,43.991,328.5093],[19.2488,43.9799,603.5154],[19.2573,43.9562,701.7001],[19.2682,43.946,638.8768],[19.2768,43.933,809.0887],[19.2789,43.9219,1366.1338],[19.2899,43.9083,1547.1213],[19.3076,43.8937,1286.3049],[19.342,43.8751,959.3832],[19.3738,43.8292,1146.7124],[19.3827,43.814,1047.3281],[19.3883,43.8102,1063.3374]]]]}}