{"type": "Feature","bbox": [19.9612,44.4787,20.3323,44.6962],"geometry": {"type": "MultiPolygon","coordinates": [[[[20.3323,44.6153,124.5951],[20.3178,44.6258,207.6748],[20.3013,44.6293,158.0642],[20.2861,44.6356,132.2878],[20.2735,44.6515,159.7697],[20.2544,44.644,147.6055],[20.249,44.6433,137.4567],[20.2419,44.6454,112.6066],[20.2261,44.6546,77.3723],[20.2152,44.6649,72.4411],[20.2126,44.6696,72.1517],[20.2143,44.6744,72.2856],[20.2219,44.6797,77.4227],[20.2246,44.6861,68.0],[20.2234,44.6903,75.7134],[20.2156,44.6953,72.5549],[20.2074,44.6959,68.0],[20.1967,44.6919,81.8986],[20.1723,44.6626,76.9875],[20.1666,44.659,74.3214],[20.1574,44.6577,76.2097],[20.1495,44.6596,74.3034],[20.1417,44.6683,76.6275],[20.1418,44.6716,74.1574],[20.1492,44.6845,100.5],[20.1492,44.689,103.092],[20.1461,44.6936,94.3946],[20.1362,44.6962,72.309],[20.1159,44.6947,71.89],[20.0979,44.686,72.0053],[20.0789,44.6817,73.3886],[20.0529,44.6718,79.6148],[20.0322,44.6683,77.2804],[20.016,44.655,78.0381],[19.99,44.6491,71.5],[19.9666,44.6282,82.2039],[19.9686,44.604,83.4619],[19.9612,44.5937,121.5958],[19.9693,44.5832,117.6487],[19.971,44.5758,97.3821],[19.9711,44.5603,136.6386],[19.9678,44.5576,124.1163],[19.9662,44.5467,138.8439],[19.9723,44.5364,118.9997],[19.99,44.5223,122.7487],[19.9959,44.52,118.7697],[20.0141,44.5173,113.8794],[20.0434,44.5072,104.9581],[20.0569,44.5102,103.5631],[20.0671,44.521,111.1355],[20.074,44.5247,109.8725],[20.0899,44.5263,110.4889],[20.0994,44.5248,99.775],[20.1058,44.5204,99.0599],[20.1098,44.5128,91.5737],[20.1233,44.4971,85.2899],[20.1278,44.4952,86.6407],[20.1516,44.5058,91.618],[20.1584,44.5156,84.6171],[20.1679,44.5253,93.7249],[20.1727,44.5384,81.5933],[20.1766,44.5423,82.4254],[20.1824,44.5429,83.054],[20.1894,44.5363,81.3379],[20.1925,44.5196,100.6138],[20.1998,44.5103,96.3299],[20.1969,44.4936,98.3795],[20.2175,44.4787,85.9718],[20.2346,44.4904,73.6769],[20.2431,44.4984,91.3147],[20.2584,44.5023,87.671],[20.2614,44.5047,90.1599],[20.2602,44.5083,88.5374],[20.2515,44.514,86.0534],[20.2476,44.5203,86.0211],[20.2478,44.5245,91.1632],[20.2549,44.5335,85.3911],[20.2588,44.5358,90.8673],[20.2723,44.5373,141.862],[20.2831,44.5424,115.5436],[20.2774,44.5463,149.2893],[20.2625,44.5498,174.948],[20.2573,44.5539,183.3952],[20.2495,44.5683,184.9298],[20.2494,44.5729,159.9851],[20.2518,44.5783,190.4497],[20.2609,44.5859,129.2692],[20.271,44.5896,150.4813],[20.282,44.5972,102.5345],[20.2966,44.6015,110.7705],[20.3032,44.6073,124.4303],[20.3323,44.6153,124.5951]]]]}
,"properties": {"GID_2": "SRB.3.7_1","GID_0": "SRB","country": "Serbia","GID_1": "SRB.3_1","province": "GradBeograd","NL_NAME_1": "Београд","county": "Obrenovac","VARNAME_2": "NA","NL_NAME_2": "Обреновац","TYPE_2": "Opštine","ENGTYPE_2": "Town|Municipal","CC_2": "NA","HASC_2": "NA","name": "Obrenovac.county","area_km2": 422.6495,"hist_schema_id": "Elevation0-9000","hist_area_km2": {"25": 0.0151,"50": 0.4084,"75": 219.8957,"100": 80.9367,"125": 90.2387,"150": 15.0056,"175": 11.1541,"200": 4.8594,"225": 0.1358}}}