{"type": "Feature","bbox": [20.2735,44.6151,20.4677,44.7852],"geometry": {"type": "MultiPolygon","coordinates": [[[[20.4243,44.6274,245.7047],[20.4456,44.637,273.851],[20.462,44.6422,270.9368],[20.467,44.6459,262.2873],[20.4677,44.6487,252.1637],[20.465,44.6606,256.0811],[20.4621,44.6643,239.1333],[20.4136,44.6762,221.7774],[20.4094,44.6804,188.4995],[20.4078,44.6861,220.3547],[20.4021,44.6954,206.465],[20.401,44.7009,148.6347],[20.4024,44.7064,175.1703],[20.4126,44.7169,169.8587],[20.4114,44.7273,189.5044],[20.4149,44.7341,177.1801],[20.4162,44.743,169.5748],[20.4305,44.7578,217.1075],[20.4118,44.7689,101.3278],[20.4071,44.7852,76.2062],[20.3613,44.7734,74.1797],[20.3308,44.7588,70.9741],[20.3279,44.7508,69.168],[20.3207,44.7402,69.4489],[20.3162,44.7361,68.0],[20.2997,44.7265,72.2218],[20.2895,44.717,71.7642],[20.2804,44.7039,71.0025],[20.2786,44.6944,70.5414],[20.2816,44.6739,71.6892],[20.2735,44.6515,159.7697],[20.2822,44.6392,148.0939],[20.2879,44.6346,101.9882],[20.3013,44.6293,158.0642],[20.3178,44.6258,207.6748],[20.3323,44.6153,124.5951],[20.3568,44.6151,206.5934],[20.3625,44.6269,166.8336],[20.3679,44.6296,166.8438],[20.3855,44.6305,258.38],[20.3947,44.6328,274.6547],[20.3985,44.6321,289.0988],[20.4084,44.6243,287.9153],[20.415,44.6246,285.2796],[20.4243,44.6274,245.7047]]]]}
,"properties": {"GID_2": "SRB.3.2_1","GID_0": "SRB","country": "Serbia","GID_1": "SRB.3_1","province": "GradBeograd","NL_NAME_1": "Београд","county": "Čukarica","VARNAME_2": "NA","NL_NAME_2": "Чукарица","TYPE_2": "Opštine","ENGTYPE_2": "Town|Municipal","CC_2": "NA","HASC_2": "NA","name": "Čukarica.county","area_km2": 170.3865,"hist_schema_id": "Elevation0-9000","hist_area_km2": {"75": 45.1267,"100": 11.5118,"125": 19.8341,"150": 22.1463,"175": 23.1128,"200": 17.3722,"225": 9.7578,"250": 7.8131,"275": 8.8093,"300": 4.5705,"325": 0.3318}}}