{"type":"Feature","properties":{"GID_2":"SRB.21.1_1","GID_0":"SRB","country":"Serbia","GID_1":"SRB.21_1","province":"Šumadijski","NL_NAME_1":"Шумадијски","county":"Aranđelovac","VARNAME_2":"NA","NL_NAME_2":"Аранђеловац","TYPE_2":"Opštine","ENGTYPE_2":"Town|Municipal","CC_2":"NA","HASC_2":"NA","name":"Aranđelovac.county"},
"geometry":{"type": "MultiPolygon","coordinates": [[[[20.3891,44.2943,312.213],[20.4062,44.2912,358.2606],[20.4154,44.2841,376.8609],[20.4148,44.27,289.842],[20.4232,44.2544,266.5662],[20.4231,44.2418,213.9479],[20.4356,44.2286,342.9648],[20.4362,44.2248,306.6227],[20.4322,44.2137,401.7403],[20.4387,44.1932,384.1713],[20.4479,44.1791,524.6031],[20.4531,44.1767,533.1537],[20.4619,44.176,483.2194],[20.4731,44.182,439.1154],[20.4806,44.1837,446.4401],[20.4902,44.1804,544.6313],[20.506,44.1784,499.719],[20.5263,44.1784,410.528],[20.5362,44.1811,339.955],[20.5523,44.1993,433.8366],[20.5715,44.2109,344.6508],[20.5822,44.2141,318.0472],[20.5971,44.2129,300.4904],[20.6039,44.2164,344.2033],[20.6062,44.2229,373.6955],[20.5864,44.2389,441.6159],[20.5849,44.242,424.6631],[20.5866,44.2445,437.2289],[20.6067,44.2463,346.6179],[20.6219,44.2414,331.4482],[20.631,44.2402,306.1774],[20.6399,44.2412,306.5446],[20.6461,44.2449,314.8281],[20.646,44.249,336.8304],[20.6383,44.257,355.9064],[20.6389,44.2685,307.7448],[20.6344,44.2831,230.7274],[20.637,44.2894,187.3364],[20.649,44.3026,214.6251],[20.6495,44.3061,212.2599],[20.6432,44.3109,222.8724],[20.642,44.3136,222.7733],[20.644,44.3174,203.1442],[20.6498,44.3218,206.803],[20.636,44.3338,204.9894],[20.6272,44.3367,213.3115],[20.6229,44.3398,216.4285],[20.6191,44.367,177.638],[20.6149,44.3717,184.5823],[20.6036,44.3734,197.6944],[20.565,44.3611,199.4858],[20.5431,44.3556,306.5257],[20.5385,44.3558,284.0071],[20.5336,44.3588,300.3599],[20.5317,44.3659,258.1924],[20.533,44.3751,216.8909],[20.5379,44.3857,173.7378],[20.5059,44.3978,204.3479],[20.4838,44.3989,191.5754],[20.4563,44.4162,150.631],[20.4422,44.4189,159.5186],[20.4242,44.4065,151.9443],[20.4095,44.4025,199.8707],[20.3967,44.3894,143.3925],[20.3996,44.3822,139.5065],[20.4127,44.3726,164.4902],[20.4221,44.3682,201.2547],[20.4312,44.3603,254.8999],[20.4332,44.3561,199.0957],[20.4312,44.3531,185.7684],[20.4196,44.345,238.0326],[20.4015,44.3269,360.6118],[20.4001,44.3237,324.2794],[20.4001,44.3081,283.8353],[20.3891,44.2943,312.213]]]]}}