{"type": "Feature","bbox": [19.0178,45.4343,19.3994,45.6717],"geometry": {"type": "MultiPolygon","coordinates": [[[[19.0178,45.4966,85.0535],[19.0192,45.4909,77.0],[19.0341,45.4817,97.6877],[19.0388,45.4823,80.3798],[19.0482,45.4879,109.2611],[19.0565,45.4885,86.5338],[19.0792,45.4769,84.9665],[19.0966,45.4751,78.5977],[19.0997,45.473,78.4499],[19.1053,45.4619,78.7042],[19.1129,45.4582,79.7622],[19.1354,45.4572,79.1149],[19.1522,45.4616,91.6069],[19.1596,45.4609,81.6964],[19.1814,45.4521,92.7688],[19.1859,45.4467,90.0986],[19.1873,45.4384,82.8505],[19.1927,45.4343,81.9564],[19.2217,45.438,81.6846],[19.2367,45.4427,84.6152],[19.2545,45.4433,84.7485],[19.2572,45.4453,85.1173],[19.2583,45.4513,84.7411],[19.2611,45.456,83.7825],[19.2681,45.4594,83.863],[19.2744,45.4571,84.0723],[19.2904,45.4422,84.8781],[19.2974,45.4393,84.2026],[19.3022,45.4392,83.8186],[19.3155,45.4431,84.3236],[19.327,45.4437,84.2365],[19.3391,45.443,83.7512],[19.3643,45.4384,84.3079],[19.3683,45.4524,84.2744],[19.3661,45.4579,82.952],[19.3576,45.4682,82.5116],[19.3551,45.4851,82.1039],[19.3558,45.4917,82.5897],[19.3584,45.4944,82.7493],[19.3707,45.5004,83.0252],[19.388,45.5062,83.2831],[19.3994,45.5079,81.7781],[19.399,45.5195,82.3114],[19.3959,45.5249,82.874],[19.3945,45.5357,82.1506],[19.3788,45.5451,82.223],[19.3674,45.5551,81.3875],[19.355,45.5608,82.79],[19.3414,45.5627,83.5628],[19.3356,45.5672,84.2739],[19.3351,45.5725,84.2549],[19.3417,45.5808,83.6461],[19.3424,45.5872,84.2381],[19.3609,45.5959,84.756],[19.3677,45.6027,83.6843],[19.3683,45.607,83.5467],[19.361,45.6139,86.991],[19.3493,45.6186,85.1166],[19.3369,45.6193,84.7368],[19.3185,45.6176,84.3729],[19.3106,45.6192,84.7841],[19.3059,45.6226,85.41],[19.3016,45.6322,84.7282],[19.3027,45.6391,83.3676],[19.3229,45.6575,84.4879],[19.296,45.6611,85.208],[19.2825,45.6597,84.5492],[19.2741,45.6605,85.1686],[19.2554,45.6704,84.6909],[19.24,45.6717,85.6473],[19.2267,45.6683,84.9534],[19.2178,45.6639,84.2614],[19.2102,45.6533,86.0489],[19.2137,45.6403,86.1602],[19.2241,45.6297,87.6482],[19.2264,45.6183,86.3217],[19.2309,45.6101,85.7263],[19.2305,45.6069,85.8009],[19.227,45.6031,85.0233],[19.2019,45.5948,85.6936],[19.1883,45.5922,87.005],[19.1642,45.5823,106.5356],[19.1352,45.5836,83.0771],[19.1207,45.5743,81.3277],[19.0995,45.5657,81.3156],[19.0779,45.5607,79.8359],[19.0414,45.5459,83.3103],[19.0586,45.5427,81.6056],[19.0825,45.533,84.0581],[19.0857,45.5212,78.0587],[19.0833,45.5115,87.4345],[19.0771,45.5028,117.0937],[19.0657,45.4968,84.1952],[19.0486,45.4942,96.5182],[19.0308,45.4935,94.4343],[19.0178,45.4966,85.0535]]]]}
,"properties": {"GID_2": "SRB.24.3_1","GID_0": "SRB","country": "Serbia","GID_1": "SRB.24_1","province": "Zapadno-Bački","NL_NAME_1": "Западнобачки","county": "Odžaci","VARNAME_2": "NA","NL_NAME_2": "Оџаци","TYPE_2": "Opštine","ENGTYPE_2": "Town|Municipal","CC_2": "NA","HASC_2": "NA","name": "Odžaci.county","area_km2": 418.7397,"hist_schema_id": "Elevation0-9000","hist_area_km2": {"75": 396.2275,"100": 22.1111,"125": 0.4012}}}