{"type": "Feature","bbox": [20.9299,44.0469,21.1391,44.159],"geometry": {"type": "MultiPolygon","coordinates": [[[[21.1391,44.1029,153.3801],[21.1236,44.1183,208.931],[21.1236,44.1233,178.9671],[21.1293,44.1352,102.6505],[21.1188,44.1528,103.6465],[21.0931,44.1452,116.0211],[21.0706,44.145,111.9275],[21.0362,44.1507,116.0946],[21.0074,44.159,194.9194],[20.9961,44.1421,169.3746],[20.9718,44.1383,145.533],[20.9372,44.1233,254.3787],[20.9299,44.1175,212.8945],[20.9413,44.1005,175.3922],[20.9645,44.089,174.5163],[20.9848,44.0672,147.743],[20.9918,44.0649,147.2107],[20.9992,44.0654,283.0651],[21.0037,44.0617,283.73],[21.0144,44.0574,290.9305],[21.0199,44.0519,287.1229],[21.0326,44.0476,323.8105],[21.0535,44.0469,254.0964],[21.082,44.0645,314.0407],[21.1166,44.0746,220.6394],[21.1357,44.0891,184.1661],[21.1391,44.1029,153.3801]]]]}
,"properties": {"GID_2": "SRB.21.2_1","GID_0": "SRB","country": "Serbia","GID_1": "SRB.21_1","province": "Šumadijski","NL_NAME_1": "Шумадијски","county": "Batočina","VARNAME_2": "NA","NL_NAME_2": "Баточина","TYPE_2": "Opštine","ENGTYPE_2": "Town|Municipal","CC_2": "NA","HASC_2": "NA","name": "Batočina.county","area_km2": 132.7738,"hist_schema_id": "Elevation0-9000","hist_area_km2": {"100": 3.4234,"125": 19.099,"150": 24.4952,"175": 22.3022,"200": 20.7054,"225": 15.8661,"250": 11.4057,"275": 6.0771,"300": 3.8844,"325": 2.7726,"350": 1.5083,"375": 0.8684,"400": 0.32,"425": 0.0457}}}