{"type":"Feature","properties":{"GID_2":"SRB.14.3_1","GID_0":"SRB","country":"Serbia","GID_1":"SRB.14_1","province":"Pomoravski","NL_NAME_1":"Поморавски","county":"Jagodina","VARNAME_2":"NA","NL_NAME_2":"Јагодина","TYPE_2":"Opštine","ENGTYPE_2":"Town|Municipal","CC_2":"NA","HASC_2":"NA","name":"Jagodina.county"},
"geometry":{"type": "MultiPolygon","coordinates": [[[[21.3581,44.0413,243.3242],[21.3501,44.0537,176.7845],[21.3416,44.0574,216.0742],[21.3327,44.059,180.9878],[21.3174,44.0546,152.7136],[21.3109,44.0561,144.5636],[21.2984,44.0654,146.9546],[21.2927,44.0716,192.4577],[21.2935,44.0821,193.4131],[21.2919,44.0862,195.5639],[21.2808,44.0959,177.0212],[21.2742,44.0981,224.6132],[21.2564,44.0976,191.5215],[21.2576,44.0897,217.9275],[21.2566,44.0861,203.1644],[21.2432,44.0714,207.7069],[21.2362,44.0673,143.9388],[21.2242,44.0641,107.9254],[21.215,44.0578,107.9254],[21.214,44.0539,132.9524],[21.2172,44.0473,221.4731],[21.2147,44.0427,266.4534],[21.205,44.04,274.1335],[21.1897,44.0425,200.2132],[21.186,44.0448,187.5825],[21.1807,44.0516,142.3546],[21.1789,44.0607,153.6487],[21.163,44.0695,127.6297],[21.1644,44.072,142.8746],[21.175,44.0747,168.3103],[21.1785,44.0774,125.9952],[21.1688,44.0864,213.5354],[21.1707,44.1007,106.0307],[21.1694,44.1059,105.3593],[21.1626,44.1094,105.2013],[21.1391,44.1029,153.3801],[21.1357,44.0891,184.1661],[21.1166,44.0746,220.6394],[21.082,44.0645,314.0407],[21.0543,44.0474,266.7007],[21.0869,44.041,405.0676],[21.1009,44.0298,428.3924],[21.1033,44.0233,537.0293],[21.1022,44.019,519.4404],[21.0963,44.011,571.5349],[21.0956,43.9997,504.4619],[21.0906,43.9937,502.2546],[21.0849,43.9921,456.5574],[21.0644,43.9912,448.224],[21.0534,43.9833,492.4522],[21.0441,43.9795,468.3403],[21.041,43.9756,498.53],[21.0418,43.97,505.9696],[21.052,43.9612,432.4136],[21.0617,43.9485,391.0809],[21.0626,43.9449,361.4543],[21.0588,43.9387,307.4453],[21.0413,43.9308,345.0276],[21.0454,43.9152,359.865],[21.0437,43.9056,338.9214],[21.0511,43.8985,368.5085],[21.0635,43.8941,301.5779],[21.077,43.8944,357.0117],[21.09,43.8927,276.0298],[21.1041,43.894,250.5437],[21.1061,43.8915,253.5332],[21.1051,43.8833,312.6855],[21.1065,43.8799,289.3498],[21.115,43.8756,300.5648],[21.1207,43.8686,280.0688],[21.1346,43.8646,316.9019],[21.1537,43.8633,271.3843],[21.1636,43.8606,262.4501],[21.1804,43.8488,184.166],[21.2014,43.837,271.8711],[21.2102,43.8287,338.4672],[21.2253,43.8263,552.4819],[21.2419,43.8207,555.5014],[21.2554,43.8259,574.2426],[21.2579,43.8278,648.1899],[21.2606,43.841,676.9518],[21.2588,43.8445,648.9985],[21.259,43.8516,533.8187],[21.268,43.8555,641.92],[21.27,43.8631,564.8033],[21.255,43.8763,441.7544],[21.254,43.8815,395.5596],[21.2567,43.8842,335.8997],[21.2716,43.8914,370.5742],[21.2852,43.8948,379.8904],[21.2962,43.8996,348.6697],[21.3069,43.9123,253.3863],[21.3152,43.9169,122.8876],[21.316,43.9195,149.6389],[21.3134,43.9224,179.0133],[21.2952,43.931399999999996,247.1711],[21.2946,43.9343,269.2577],[21.3012,43.9392,169.2955],[21.321,43.945,116.4601],[21.3247,43.9489,116.4046],[21.3284,43.9583,117.4249],[21.3273,43.9664,113.3921],[21.3041,43.989,113.3634],[21.3019,43.9945,112.8269],[21.3056,43.9982,112.7601],[21.3146,44.0026,112.377],[21.3195,44.0108,111.5626],[21.3261,44.0148,111.5934],[21.3343,44.017,122.2907],[21.3526,44.018,131.8115],[21.3587,44.0203,138.0632],[21.3603,44.0239,161.7653],[21.3556,44.0344,195.4779],[21.3581,44.0413,243.3242]]]]}}