{"type": "Feature","bbox": [19.1713,43.3749,19.669,43.6147],"geometry": {"type": "MultiPolygon","coordinates": [[[[19.1857,43.5351,1218.928],[19.1718,43.4959,1318.7693],[19.1713,43.4875,1282.3602],[19.1795,43.4711,1145.9094],[19.1952,43.4566,1053.4393],[19.215699999999998,43.4468,1074.8037],[19.2361,43.4344,1060.5214],[19.2608,43.4261,1087.8662],[19.2771,43.4223,1051.7869],[19.2854,43.4178,1024.7413],[19.2971,43.4085,1006.3602],[19.3082,43.4028,1009.9413],[19.3396,43.3948,1136.0919],[19.3669,43.3779,1064.162],[19.3956,43.3749,1253.4293],[19.4114,43.3846,1261.7362],[19.4257,43.3899,1267.918],[19.4294,43.3963,1264.8345],[19.4272,43.4024,1202.7495],[19.4036,43.4243,1122.6953],[19.4017,43.4298,1190.7263],[19.4027,43.434,1186.2169],[19.4067,43.4376,1028.3846],[19.4386,43.4528,1264.7194],[19.4447,43.4644,1100.1023],[19.455,43.4751,1205.0674],[19.4757,43.479,715.6547],[19.4875,43.4789,904.9833],[19.5275,43.4661,1063.806],[19.541,43.4647,1243.4363],[19.5512,43.4666,1144.7427],[19.5817,43.4798,1091.7295],[19.604,43.4818,847.0748],[19.6075,43.4868,786.3223],[19.6179,43.513,837.3165],[19.6272,43.5219,977.8655],[19.6313,43.5306,623.4225],[19.6626,43.5448,1045.4017],[19.669,43.5519,1005.2932],[19.6669,43.5616,964.4826],[19.6672,43.5739,774.854],[19.6616,43.5782,657.4589],[19.656,43.5793,606.2053],[19.6507,43.5781,658.8315],[19.6468,43.5753,951.5721],[19.6435,43.5688,868.7326],[19.6396,43.5652,980.9257],[19.631,43.5608,839.2518],[19.6252,43.5599,895.814],[19.6167,43.5688,1054.5009],[19.5893,43.5842,1060.3691],[19.5818,43.5956,791.7672],[19.5763,43.5991,939.8525],[19.5534,43.6059,1030.7844],[19.5108,43.6096,545.4487],[19.4863,43.6147,502.5459],[19.4821,43.6073,534.2153],[19.4801,43.594,455.8972],[19.5003,43.5768,872.6766],[19.4829,43.5692,1283.1384],[19.4642,43.5811,959.1871],[19.4347,43.5808,908.8099],[19.4352,43.5681,632.5184],[19.4316,43.5597,542.835],[19.4308,43.5493,422.2219],[19.4013,43.5486,624.2972],[19.3934,43.5669,809.2017],[19.3923,43.5797,621.8578],[19.3754,43.5643,1079.3508],[19.3576,43.5699,773.1709],[19.3601,43.6045,649.1566],[19.3516,43.6095,534.2509],[19.3419,43.6027,682.5963],[19.3237,43.5968,901.0963],[19.2997,43.597,1037.3052],[19.2743,43.6002,1014.5067],[19.2563,43.5969,702.7339],[19.2486,43.584,637.9186],[19.2492,43.5529,1056.5593],[19.2471,43.538,1110.7908],[19.2327,43.5202,1233.0645],[19.2132,43.5255,1290.1515],[19.192,43.539,1049.8317],[19.1857,43.5351,1218.928]]]]}
,"properties": {"GID_2": "SRB.25.7_1","GID_0": "SRB","country": "Serbia","GID_1": "SRB.25_1","province": "Zlatiborski","NL_NAME_1": "Златиборски","county": "Priboj","VARNAME_2": "NA","NL_NAME_2": "Прибој","TYPE_2": "Opštine","ENGTYPE_2": "Town|Municipal","CC_2": "NA","HASC_2": "NA","name": "Priboj.county","area_km2": 564.2741,"hist_schema_id": "Elevation0-9000","hist_area_km2": {"375": 1.4588,"400": 4.8404,"425": 2.9345,"450": 4.3485,"475": 5.3169,"500": 6.6848,"525": 8.622,"550": 8.6839,"575": 9.7758,"600": 10.6675,"625": 12.143,"650": 12.851,"675": 13.6653,"700": 15.2645,"725": 15.8341,"750": 17.5255,"775": 17.5104,"800": 18.8633,"825": 19.0177,"850": 19.218,"875": 19.234,"900": 18.7729,"925": 19.2186,"950": 18.2193,"975": 18.2192,"1000": 17.5284,"1025": 17.3442,"1050": 17.9297,"1075": 17.6399,"1100": 21.5498,"1125": 19.9672,"1150": 17.7536,"1175": 18.0925,"1200": 18.2332,"1225": 17.6653,"1250": 15.5895,"1275": 15.3296,"1300": 10.6333,"1325": 8.9715,"1350": 5.9869,"1375": 2.8777,"1400": 1.3846,"1425": 0.5998,"1450": 0.1998,"1475": 0.1076}}}