{"type": "Feature","id": "273","bbox": [18.84498,45.43407,19.61206,46.02212],"geometry": {"type": "Polygon","coordinates": [[[19.48856,45.7453,110.0333],[19.48665,45.74558,110.4841],[19.48261,45.74695,111.3384],[19.4806,45.74791,112.6021],[19.47517,45.75124,114.5657],[19.4651,45.75581,113.5088],[19.45657,45.76057,113.1588],[19.4422,45.7677,113.9247],[19.43988,45.76935,112.8397],[19.43843,45.77137,112.6385],[19.43802,45.77333,112.7393],[19.43802,45.77824,111.4767],[19.43729,45.78031,111.0662],[19.43595,45.78212,111.1687],[19.4343,45.78382,110.7742],[19.42934,45.78795,111.7543],[19.4283,45.7894,111.6903],[19.42779,45.79095,110.9531],[19.42789,45.79294,111.8072],[19.4314,45.79987,112.001],[19.4313,45.80193,111.5418],[19.4299,45.80436,111.8885],[19.42763,45.80682,112.404],[19.42138,45.8126,113.0285],[19.41941,45.81485,112.3186],[19.41879,45.81596,112.9624],[19.40877,45.82273,112.5806],[19.40562,45.82521,112.6853],[19.39916,45.83105,112.4236],[19.39487,45.83418,112.033],[19.3898,45.83684,111.463],[19.37838,45.84144,112.0424],[19.37456,45.84371,110.8044],[19.36583,45.85079,111.7908],[19.35947,45.85689,111.2121],[19.35466,45.86108,111.3381],[19.35255,45.8632,111.9234],[19.35099,45.86542,111.3998],[19.35032,45.86754,112.1648],[19.35032,45.86966,111.5645],[19.3512,45.8749,112.137],[19.35105,45.87715,106.9824],[19.35058,45.87932,109.469],[19.34872,45.88379,112.9569],[19.34831,45.88593,112.1934],[19.34903,45.89327,114.6078],[19.34851,45.90317,116.6966],[19.34784,45.90872,118.1193],[19.34629,45.91293,119.2192],[19.34257,45.9196,119.5982],[19.33942,45.92614,118.3192],[19.33384,45.93247,121.0294],[19.33229,45.93464,121.2239],[19.33141,45.93683,121.4072],[19.33105,45.93911,121.1211],[19.3311,45.94143,121.0831],[19.33167,45.94366,120.8109],[19.33322,45.9466,121.4226],[19.33549,45.9495,121.9859],[19.33792,45.95125,119.8236],[19.34159,45.9534,120.3608],[19.34397,45.95539,120.7695],[19.34521,45.95678,119.8283],[19.34609,45.95823,119.3355],[19.3465,45.95957,118.838],[19.34655,45.96102,118.766],[19.34614,45.96174,118.766],[19.33911,45.97562,116.9691],[19.33875,45.97802,117.3607],[19.33895,45.98035,118.0115],[19.34112,45.98686,120.3377],[19.34123,45.98812,119.8569],[19.34081,45.98944,120.2071],[19.33978,45.99053,122.265],[19.33828,45.99133,122.263],[19.33637,45.99182,122.1711],[19.32821,45.99223,119.7594],[19.3265,45.99275,119.2398],[19.32464,45.99409,118.2821],[19.31772,46.00228,121.1725],[19.31606,46.00461,120.8158],[19.31368,46.01003,122.8554],[19.31198,46.01197,122.3198],[19.30971,46.01368,122.123],[19.30299,46.01781,125.2705],[19.30056,46.01988,127.7734],[19.29831,46.02212,126.7531],[19.28692,46.01616,123.4636],[19.27947,46.00381,111.0181],[19.27482,45.99161,118.5273],[19.26345,45.98143,112.8877],[19.23565,45.97771,111.5071],[19.14801,45.98407,101.9109],[19.12579,45.99311,98.6746],[19.12579,45.99327,98.6746],[19.11101,46.01295,95.6134],[19.08848,46.01885,101.4842],[19.06543,46.01202,97.3204],[19.04972,45.99311,94.1322],[19.04858,45.96345,92.5605],[19.03091,45.96004,90.8564],[19.00559,45.96257,92.6168],[18.98182,45.95079,88.8348],[18.97872,45.94717,89.0477],[18.97768,45.9435,89.4648],[18.97882,45.93978,88.8097],[18.98647,45.93125,87.8498],[18.98874,45.92702,88.7879],[18.9875,45.92381,87.2772],[18.98182,45.92185,87.9034],[18.9627,45.92795,89.5964],[18.90131,45.9312,85.6777],[18.90699,45.9157,94.6757],[18.88983,45.9079,113.8845],[18.88198,45.90263,83.973],[18.87288,45.89524,84.3511],[18.89345,45.88387,83.5478],[18.90399,45.8757,83.7809],[18.90699,45.86795,88.0263],[18.89976,45.86139,95.487799999999993],[18.88715,45.85948,85.8185],[18.85531,45.85736,81.0],[18.85242,45.83007,81.0],[18.85035,45.82423,81.0],[18.84674,45.82,81.0],[18.84498,45.81571,89.3651],[18.8487,45.80956,81.0],[18.864,45.79855,96.3211],[18.87113,45.78997,117.4365],[18.90017,45.76491,90.3887],[18.90482,45.74977,99.4413],[18.90895,45.71943,85.1363],[18.91733,45.70657,84.492],[18.93107,45.69892,82.534],[18.94812,45.69204,84.4815],[18.9627,45.68305,86.1621],[18.96849,45.66874,80.8374],[18.9629,45.66011,80.0],[18.93541,45.63339,79.5],[18.92446,45.62771,79.5],[18.91236,45.61923,93.8786],[18.90823,45.60042,80.8803],[18.90699,45.58166,82.9009],[18.90358,45.57309,86.479],[18.91205,45.56823,91.1153],[18.932,45.54554,85.7556],[18.94172,45.53893,81.8984],[18.96022,45.53913,89.0694],[18.97314,45.54626,86.7659],[18.98316,45.55474,85.1963],[19.00063,45.5612,80.1014],[19.00921,45.56549,78.9379],[19.01809,45.5674,79.015],[19.02719,45.56259,79.5576],[19.03339,45.55464,110.302],[19.03649,45.54947,80.8626],[19.04094,45.54502,90.8764],[19.05096,45.53893,102.6941],[19.06781,45.5334,77.0],[19.08228,45.53118,81.2569],[19.09509,45.52606,81.1247],[19.10625,45.51164,81.507],[19.07721,45.49164,95.4322],[19.01793,45.49781,84.4472],[19.01784,45.4966,85.0535],[19.01758,45.49454,77.0],[19.01784,45.49288,77.0],[19.01918,45.49092,77.0],[19.02492,45.48725,77.9738],[19.02972,45.48363,83.524],[19.0322,45.48224,87.8246],[19.03412,45.48172,97.6877],[19.03613,45.48162,99.0151],[19.03887,45.48234,80.3798],[19.04616,45.48709,97.4966],[19.04827,45.48792,109.2611],[19.0505,45.48846,103.6362],[19.05349,45.48872,97.322],[19.05654,45.48849,86.5338],[19.05882,45.48797,84.8319],[19.06094,45.48715,77.0],[19.06972,45.48144,101.6728],[19.07918,45.47689,84.9665],[19.08186,45.47604,89.3098],[19.08481,45.47562,80.8746],[19.09184,45.47583,79.1915],[19.09458,45.47562,78.6321],[19.09659,45.47511,78.5977],[19.0983,45.47423,78.9411],[19.09964,45.47299,78.4499],[19.10062,45.47151,78.9272],[19.10305,45.46498,78.9583],[19.10403,45.46338,78.8721],[19.10533,45.46193,78.7042],[19.10703,45.46069,78.7042],[19.11085,45.45883,79.0703],[19.11287,45.45816,79.7622],[19.11633,45.45748,78.6116],[19.12383,45.45702,78.5719],[19.13535,45.45723,79.1149],[19.13902,45.45759,81.7828],[19.14253,45.45829,82.0604],[19.14904,45.46069,91.6852],[19.1522,45.46157,91.6069],[19.15499,45.46175,81.4205],[19.15695,45.46151,80.9766],[19.15964,45.46089,81.6964],[19.17747,45.45413,89.8867],[19.18139,45.45214,92.7688],[19.18424,45.44942,93.181],[19.18589,45.44668,90.0986],[19.1863,45.44464,90.3028],[19.18625,45.44177,81.8012],[19.18666,45.43976,82.0146],[19.18734,45.43842,82.8505],[19.18951,45.43588,83.7247],[19.191,45.4349,82.4214],[19.19276,45.43426,81.9564],[19.19467,45.43407,81.7092],[19.1971,45.43441,81.7703],[19.20232,45.43578,83.4466],[19.20604,45.43637,82.2863],[19.21798,45.43733,81.5574],[19.22175,45.43795,81.6846],[19.22878,45.44007,82.8778],[19.234,45.44201,85.3693],[19.23669,45.44276,84.6152],[19.23968,45.44307,85.4151],[19.24268,45.44301,85.3223],[19.24687,45.44255,85.3048],[19.24981,45.44245,85.0998],[19.2526,45.4427,84.9312],[19.25452,45.44327,84.7485],[19.25612,45.4441,85.1173],[19.25715,45.44529,85.1173],[19.25772,45.44663,84.6261],[19.25829,45.45133,84.7411],[19.25968,45.45413,84.0909],[19.26108,45.45601,83.7825],[19.26299,45.45769,83.7235],[19.26532,45.45888,84.2516],[19.26811,45.45934,83.863],[19.271,45.45888,83.619],[19.27441,45.45712,84.0723],[19.28413,45.44932,85.0284],[19.28831,45.4442,84.3903],[19.29043,45.44221,84.8781],[19.29307,45.44069,83.844],[19.29735,45.43935,84.2026],[19.29932,45.43904,84.4402],[19.30216,45.43916,83.8186],[19.30536,45.44002,83.9933],[19.31193,45.44242,83.9273],[19.31544,45.44312,84.3236],[19.31921,45.44348,84.2909],[19.32702,45.44366,84.2365],[19.33508,45.44343,83.3553],[19.33911,45.44301,83.7512],[19.34603,45.4419,84.3579],[19.36428,45.43842,84.3079],[19.365,45.44113,83.9264],[19.36784,45.44792,84.0295],[19.36825,45.44994,84.1898],[19.36836,45.45242,84.2744],[19.36784,45.4548,82.8718],[19.36614,45.4579,82.952],[19.36464,45.45999,83.3813],[19.3589,45.46611,82.2621],[19.35761,45.46818,82.5116],[19.35714,45.4702,83.3834],[19.35735,45.47526,83.2709],[19.35699,45.47743,83.267],[19.35539,45.48281,82.2768],[19.35513,45.48513,82.1039],[19.35523,45.48968,82.6813],[19.3558,45.49172,82.5897],[19.35699,45.49345,82.4818],[19.35838,45.49443,82.7493],[19.37074,45.50032,83.0252],[19.388,45.50621,83.2831],[19.39425,45.50735,83.0261],[19.39942,45.50787,81.7781],[19.39905,45.5195,82.3114],[19.39849,45.5212,82.4315],[19.39626,45.52404,82.874],[19.3959,45.52487,82.874],[19.39451,45.53567,82.1506],[19.41197,45.53975,83.0804],[19.42096,45.54151,82.4331],[19.42314,45.54221,82.4501],[19.42598,45.54363,82.3913],[19.43213,45.54714,81.6521],[19.43616,45.54849,81.589],[19.44009,45.54926,81.8252],[19.44288,45.54921,81.7611],[19.44489,45.54885,81.5973],[19.4497,45.54738,81.7522],[19.46246,45.54177,82.2851],[19.46453,45.54068,82.3293],[19.47145,45.53603,82.0018],[19.47331,45.53515,81.8276],[19.47548,45.53448,81.8533],[19.47781,45.53409,81.8603],[19.4807,45.53412,81.6382],[19.48277,45.53448,81.5513],[19.48758,45.53593,81.9717],[19.49796,45.54058,81.4705],[19.50354,45.54353,80.4997],[19.50525,45.54471,80.6982],[19.50664,45.54611,80.8465],[19.51016,45.5513,81.4229],[19.51543,45.55681,81.3729],[19.51646,45.55836,81.5409],[19.51724,45.56006,81.7195],[19.51781,45.56236,81.7403],[19.51884,45.56947,83.6607],[19.51951,45.57169,83.4092],[19.52117,45.57458,82.0585],[19.52266,45.57647,81.9221],[19.52468,45.57815,81.9566],[19.52721,45.57939,82.4118],[19.52928,45.57996,82.6163],[19.53155,45.58016,82.6589],[19.54215,45.57949,81.861],[19.54861,45.57988,81.4589],[19.55563,45.58143,81.256],[19.5576,45.58202,81.5363],[19.55925,45.58285,81.7916],[19.5609,45.5845,81.9574],[19.56194,45.58655,81.5183],[19.56251,45.58921,83.0738],[19.56318,45.59781,83.461],[19.56406,45.60357,82.6617],[19.5638,45.60564,83.7227],[19.56323,45.60704,83.7227],[19.56008,45.61148,98.7521],[19.55718,45.61704,89.7389],[19.55662,45.61851,98.4902],[19.55636,45.62063,98.6413],[19.55682,45.62275,99.5624],[19.55791,45.62461,100.521],[19.56245,45.63013,104.6939],[19.56463,45.63215,100.5758],[19.57227,45.63742,103.5543],[19.57357,45.63892,102.5557],[19.5746,45.64063,101.7768],[19.57744,45.6476,103.4194],[19.58654,45.66,105.4882],[19.5993,45.66615,106.2716],[19.6085,45.66987,106.7059],[19.61072,45.67148,107.4192],[19.61196,45.6738,107.975],[19.61206,45.67639,108.2476],[19.61144,45.67848,107.2234],[19.61062,45.67987,107.8667],[19.60504,45.68569,109.4872],[19.60157,45.69122,109.379],[19.59899,45.69411,110.1583],[19.59522,45.69628,109.3793],[19.59129,45.69778,109.5988],[19.57925,45.70016,109.6621],[19.57408,45.70207,109.244],[19.56282,45.70801,110.421],[19.56039,45.70977,111.0659],[19.55842,45.71173,110.3571],[19.55713,45.7138,108.8257],[19.55569,45.71736,109.2304],[19.55538,45.71881,108.9817],[19.55563,45.72088,108.9584],[19.55703,45.7231,108.5086],[19.5592,45.72527,107.7576],[19.56183,45.72742,107.2879],[19.57362,45.73649,104.668],[19.5776,45.74052,107.8419],[19.57393,45.74243,107.8529],[19.56731,45.74532,104.2657],[19.55791,45.74837,105.6831],[19.55336,45.75036,104.0454],[19.54204,45.75881,107.6859],[19.53662,45.76227,107.0705],[19.53362,45.76367,105.821],[19.53129,45.76439,105.1456],[19.52887,45.76491,106.0981],[19.52566,45.76511,105.3429],[19.52251,45.76491,105.3248],[19.52008,45.76444,106.0587],[19.51775,45.76372,105.1383],[19.51491,45.76237,97.4396],[19.51223,45.7607,106.5083],[19.50799,45.75736,105.2574],[19.50246,45.75178,109.5016],[19.50044,45.7501,108.7934],[19.49569,45.74698,110.3682],[19.4929,45.74584,110.4092],[19.49078,45.74537,111.0785],[19.48856,45.7453,110.0333]]]}
,"properties": {"ISO3166-1-Alpha-3": "SRB","country": "Republic of Serbia","fill": "#F00","name": "Zapadno-Backi","area_km2": 2351.03,"hist_schema_id": "Elevation0-9000","hist_area_km2": {"50": 0.03,"75": 1391.389,"100": 816.404,"125": 143.208}}}