{"type": "Feature","bbox": [18.8087,45.4343,19.6114,46.0383],"geometry": {"type": "MultiPolygon","coordinates": [[[[19.0486,45.4942,96.5182],[19.0308,45.4935,94.4343],[19.0178,45.4966,85.0535],[19.0176,45.4945,77.0],[19.0192,45.4909,77.0],[19.0341,45.4817,97.6877],[19.0388,45.4823,80.3798],[19.0482,45.4879,109.2611],[19.0565,45.4885,86.5338],[19.0792,45.4769,84.9665],[19.0966,45.4751,78.5977],[19.0997,45.473,78.4499],[19.1053,45.4619,78.7042],[19.1129,45.4582,79.7622],[19.1354,45.4572,79.1149],[19.1522,45.4616,91.6069],[19.1596,45.4609,81.6964],[19.1814,45.4521,92.7688],[19.1859,45.4467,90.0986],[19.1873,45.4384,82.8505],[19.1927,45.4343,81.9564],[19.2217,45.438,81.6846],[19.2367,45.4427,84.6152],[19.2545,45.4433,84.7485],[19.2572,45.4453,85.1173],[19.2583,45.4513,84.7411],[19.2611,45.456,83.7825],[19.2681,45.4594,83.863],[19.2744,45.4571,84.0723],[19.2904,45.4422,84.8781],[19.2974,45.4393,84.2026],[19.3022,45.4392,83.8186],[19.3155,45.4431,84.3236],[19.327,45.4437,84.2365],[19.3391,45.443,83.7512],[19.3643,45.4384,84.3079],[19.3683,45.4524,84.2744],[19.3661,45.4579,82.952],[19.3576,45.4682,82.5116],[19.3551,45.4851,82.1039],[19.3558,45.4917,82.5897],[19.3584,45.4944,82.7493],[19.3707,45.5004,83.0252],[19.388,45.5062,83.2831],[19.3994,45.5079,81.7781],[19.399,45.5195,82.3114],[19.3959,45.5249,82.874],[19.3945,45.5357,82.1506],[19.421,45.5415,82.4331],[19.4321,45.5471,81.6521],[19.4401,45.5493,81.8252],[19.4497,45.5474,81.7522],[19.4778,45.5341,81.8603],[19.4876,45.5359,81.9717],[19.5035,45.5435,80.4997],[19.5165,45.5584,81.5409],[19.5195,45.5717,83.4092],[19.5247,45.5782,81.9566],[19.5315,45.5802,82.6589],[19.5486,45.5799,81.4589],[19.5576,45.582,81.5363],[19.5609,45.5845,81.9574],[19.564,45.6036,82.6617],[19.5572,45.617,89.7389],[19.5568,45.6227,99.5624],[19.5625,45.6301,104.6939],[19.5736,45.6389,102.5557],[19.5775,45.6476,103.4194],[19.5865,45.66,105.4882],[19.6107,45.6715,107.4192],[19.6114,45.6785,107.2234],[19.599,45.6941,110.1583],[19.5913,45.6978,109.5988],[19.5741,45.7021,108.0621],[19.5628,45.708,110.421],[19.5571,45.7138,108.8257],[19.5554,45.7188,108.9817],[19.557,45.7231,108.5086],[19.5776,45.7405,107.8419],[19.5533,45.7504,104.0454],[19.5421,45.7588,107.6859],[19.5313,45.7644,105.1456],[19.5178,45.7637,105.1383],[19.4957,45.747,110.3682],[19.4886,45.7453,110.0333],[19.4806,45.7479,112.6021],[19.4422,45.7677,113.9247],[19.4384,45.7714,112.6385],[19.4373,45.7803,111.0662],[19.4283,45.7894,111.6903],[19.4279,45.7929,111.8072],[19.4314,45.7999,112.001],[19.4276,45.8068,112.404],[19.4188,45.816,112.9624],[19.3949,45.8342,112.033],[19.3746,45.8437,110.8044],[19.3525,45.8632,111.9234],[19.3503,45.8675,112.1648],[19.3511,45.8771,106.9824],[19.3483,45.8859,112.1934],[19.3479,45.9087,118.1193],[19.3394,45.9262,118.3192],[19.3323,45.9346,121.2239],[19.331,45.9391,121.1211],[19.3332,45.9466,121.4226],[19.344,45.9554,120.7695],[19.3465,45.9596,118.838],[19.3391,45.9756,116.9691],[19.3408,45.9894,120.2071],[19.3383,45.9913,122.263],[19.3282,45.9922,119.7594],[19.3246,45.9941,118.2821],[19.312,46.012,122.3198],[19.2973,46.0232,126.7531],[19.2829,46.0164,123.7761],[19.2964,46.0014,120.1084],[19.2745,45.998,114.8086],[19.2439,46.0012,118.098],[19.2113,46.0024,118.9012],[19.191,45.9977,117.3621],[19.1487,45.998,96.3611],[19.1359,46.0079,101.1132],[19.134,46.0217,98.9735],[19.1275,46.0347,105.6261],[19.1099,46.0383,98.7272],[19.0943,46.0336,100.7507],[19.0792,46.0199,100.1073],[19.0607,45.9997,95.0215],[19.071,45.9712,94.1002],[19.0108,45.968,91.0794],[19.0014,45.9598,89.3357],[18.9968,45.9455,88.8621],[18.9864,45.9361,88.9921],[18.9702,45.9317,88.0611],[18.9493,45.9294,88.775],[18.9278,45.9348,84.3976],[18.8992,45.9378,96.5605],[18.8812,45.9256,85.9587],[18.8629,45.9179,84.63],[18.8413,45.9133,83.3201],[18.8113,45.9113,81.5],[18.8087,45.8987,83.9013],[18.8099,45.8873,95.2469],[18.8153,45.8819,86.7814],[18.8349,45.8729,94.7288],[18.8442,45.8637,86.7811],[18.8445,45.8508,166.262],[18.8359,45.8326,132.2636],[18.8344,45.8225,88.8389],[18.8419,45.811,95.8549],[18.8638,45.7914,103.1437],[18.8769,45.774,86.7145],[18.8837,45.7539,92.8919],[18.8846,45.7304,85.5175],[18.8905,45.7172,100.1307],[18.9144,45.7027,98.7769],[18.9438,45.6909,84.4449],[18.9471,45.6801,80.0],[18.9435,45.6709,82.6141],[18.9372,45.6631,82.1799],[18.9135,45.6409,84.2903],[18.8961,45.6343,89.4755],[18.8867,45.6282,85.4029],[18.8924,45.6196,81.5905],[18.8955,45.6102,81.1263],[18.8821,45.5904,84.4828],[18.8851,45.5799,87.7135],[18.92,45.5493,83.6626],[18.9349,45.5463,93.2444],[18.9502,45.5454,105.6803],[18.9655,45.5498,104.0927],[18.976,45.5584,86.9233],[18.9783,45.5656,79.7291],[18.9842,45.5711,79.9362],[18.9927,45.5745,79.6863],[19.0056,45.5726,78.9994],[19.0117,45.5654,78.9411],[19.0116,45.5525,85.9781],[19.0211,45.5482,92.8778],[19.0473,45.5456,113.9831],[19.0586,45.5427,81.6056],[19.0825,45.533,84.0581],[19.0857,45.5212,78.0587],[19.0833,45.5115,87.4345],[19.0771,45.5028,117.0937],[19.0657,45.4968,84.1952],[19.0486,45.4942,96.5182]]]]}
,"properties": {"GID_1": "SRB.24_1","GID_0": "SRB","country": "Serbia","province": "Zapadno-Bački","VARNAME_1": "WestBačka","NL_NAME_1": "Западнобачки","TYPE_1": "Okrug","ENGTYPE_1": "District","CC_1": "NA","HASC_1": "RS.ZC","ISO_1": "NA","name": "Zapadno-Bački.province","area_km2": 2467.305,"hist_schema_id": "Elevation0-9000","hist_area_km2": {"50": 0.03,"75": 1442.715,"100": 864.064,"125": 159.906,"150": 0.517,"175": 0.074}}}