{"type":"Feature","properties":{"GID_2":"SRB.16.1_1","GID_0":"SRB","country":"Serbia","GID_1":"SRB.16_1","province":"Raški","NL_NAME_1":"Рашки","county":"Kraljevo","VARNAME_2":"RudoPolje|Karanovac|Rankovićevo","NL_NAME_2":"Краљево","TYPE_2":"Opštine","ENGTYPE_2":"Town|Municipal","CC_2":"NA","HASC_2":"NA","name":"Kraljevo.county"},
"geometry":{"type": "MultiPolygon","coordinates": [[[[20.4367,43.7094,531.4745],[20.4544,43.7025,489.6315],[20.4602,43.6978,575.9797],[20.4596,43.6798,402.3319],[20.4663,43.6636,1018.2448],[20.4651,43.6555,892.0018],[20.4616,43.6484,782.7029],[20.4554,43.6445,825.9374],[20.4482,43.6447,852.3183],[20.4346,43.6531,657.3248],[20.4302,43.654,819.7404],[20.4204,43.6474,966.9833],[20.4134,43.6449,974.9389],[20.3951,43.6477,1001.3344],[20.39,43.6471,985.7084],[20.3584,43.6314,926.3746],[20.3578,43.6276,999.6141],[20.3734,43.6084,1078.7903],[20.3724,43.605,1125.9291],[20.3692,43.6029,1102.127],[20.3667,43.5943,1155.9972],[20.3672,43.5781,1163.5603],[20.3542,43.5592,1151.1393],[20.3488,43.5541,1112.8247],[20.3095,43.5371,1103.5297],[20.3053,43.5332,892.1951],[20.3188,43.52,1174.7113],[20.3403,43.5057,905.8864],[20.3536,43.5004,794.5821],[20.36,43.4928,922.2813],[20.3702,43.4859,910.5385],[20.3835,43.474,759.0337],[20.3886,43.4648,1123.9309],[20.4019,43.4541,1460.3555],[20.4034,43.4487,1231.3887],[20.4027,43.4432,1096.4424],[20.3997,43.4318,1046.6318],[20.3947,43.4217,892.1738],[20.398,43.4102,1014.6369],[20.404,43.4043,1142.4574],[20.4057,43.4003,1116.8259],[20.3966,43.388,959.0251],[20.3977,43.3834,913.3469],[20.4016,43.38,957.1562],[20.4124,43.3767,997.4088],[20.4267,43.3753,1091.2419],[20.4444,43.3706,1269.5652],[20.455,43.3737,1250.9961],[20.4642,43.3812,1173.9388],[20.475,43.385,1057.8392],[20.4859,43.3943,1113.222],[20.4918,43.3969,1158.531],[20.5278,43.3997,727.4938],[20.5334,43.3977,728.6255],[20.5345,43.3914,651.8246],[20.5368,43.3889,694.321],[20.5449,43.3856,688.8876],[20.5548,43.3843,690.5262],[20.5616,43.3869,781.4258],[20.5833,43.4009,767.1061],[20.6037,43.4059,688.0939],[20.6158,43.4107,669.7618],[20.6277,43.411,703.8159],[20.6528,43.4051,373.9441],[20.6592,43.4057,383.5358],[20.6633,43.4111,429.5607],[20.6603,43.4185,443.4525],[20.6609,43.4204,420.797],[20.6692,43.4246,559.7464],[20.6965,43.4238,840.6681],[20.7367,43.436,828.079],[20.7746,43.4379,924.285],[20.7768,43.4471,1245.1199],[20.7825,43.4578,1374.7511],[20.7759,43.4676,1275.3228],[20.7806,43.4755,1551.8022],[20.7808,43.4811,1399.4058],[20.7709,43.4919,1189.2808],[20.7603,43.5092,984.6936],[20.7481,43.5088,843.5915],[20.7255,43.514,825.541],[20.7227,43.5175,932.4402],[20.7176,43.5317,1148.9897],[20.7201,43.5354,1144.1338],[20.7284,43.5378,1161.064],[20.752,43.5376,1228.8157],[20.767,43.5325,1296.5115],[20.7745,43.5326,1310.2809],[20.7888,43.54,1325.8497],[20.7934,43.546,1153.4023],[20.7903,43.5486,1155.9543],[20.7774,43.5513,1118.0815],[20.774,43.556,1036.3337],[20.7648,43.56,1002.4695],[20.7601,43.5641,892.7743],[20.7508,43.583,828.0066],[20.7403,43.5938,617.9371],[20.7312,43.6094,605.2538],[20.7292,43.6144,676.3645],[20.7304,43.62,589.778],[20.7456,43.6286,724.2469],[20.7552,43.6482,452.2322],[20.7709,43.655,333.2274],[20.7848,43.6688,265.7993],[20.7954,43.6754,232.7493],[20.8021,43.6841,189.5063],[20.8068,43.6863,182.1754],[20.8115,43.6854,181.6161],[20.8229,43.6758,189.015],[20.8403,43.6581,212.9636],[20.852,43.6595,186.4094],[20.8567,43.6586,184.9829],[20.8711,43.6509,191.9839],[20.8781,43.6445,204.8799],[20.8895,43.6579,181.2198],[20.9172,43.6753,261.9973],[20.9137,43.6849,426.8757],[20.9128,43.6954,428.5835],[20.9143,43.7032,624.0369],[20.9214,43.7144,605.4998],[20.9203,43.719,584.653],[20.9163,43.7236,507.804],[20.9164,43.7269,506.9426],[20.9227,43.727,642.7588],[20.9262,43.7247,649.5982],[20.9345,43.7239,631.9608],[20.9404,43.7277,509.8853],[20.957,43.7282,691.7715],[20.9358,43.7478,732.6537],[20.9247,43.7552,481.9154],[20.9214,43.7742,532.5166],[20.9138,43.7843,542.1924],[20.9094,43.797,516.5095],[20.9084,43.8073,596.5878],[20.9045,43.8122,468.4764],[20.8999,43.8149,511.2587],[20.8981,43.8215,573.1337],[20.8941,43.8266,632.9095],[20.8739,43.8303,439.5782],[20.8629,43.8394,622.4232],[20.8557,43.8401,723.4946],[20.8499,43.838,599.1493],[20.8369,43.8284,441.4394],[20.7953,43.8318,253.4287],[20.7631,43.8231,297.5735],[20.7588,43.818,328.4158],[20.7607,43.8141,326.3305],[20.768,43.8091,300.1382],[20.7701,43.8059,313.2453],[20.7702,43.7892,308.5927],[20.7404,43.7762,467.3089],[20.7215,43.7753,392.6233],[20.7129,43.777,354.6311],[20.6901,43.7884,486.9041],[20.672,43.8106,448.5593],[20.6625,43.8194,378.9454],[20.662,43.8277,462.0333],[20.6593,43.8323,429.0766],[20.6364,43.845,349.9957],[20.6208,43.8592,336.5728],[20.5938,43.8452,232.521],[20.5691,43.8255,210.8873],[20.5591,43.8198,211.1562],[20.5578,43.8143,208.0975],[20.5639,43.8063,202.3987],[20.5638,43.8008,209.3761],[20.5462,43.7878,214.1572],[20.5331,43.7828,228.6691],[20.5234,43.7699,247.7968],[20.5236,43.7644,258.7003],[20.5306,43.7521,249.2436],[20.5294,43.7484,247.0671],[20.5259,43.7452,265.3107],[20.5095,43.7379,308.4272],[20.5027,43.7372,347.0958],[20.4892,43.739,321.3693],[20.4739,43.7327,428.4311],[20.4498,43.7276,519.6394],[20.4435,43.7224,730.5946],[20.4367,43.7094,531.4745]]]]}}