{"type":"Feature","properties":{"GID_2":"SRB.3.3_1","GID_0":"SRB","country":"Serbia","GID_1":"SRB.3_1","province":"GradBeograd","NL_NAME_1":"Београд","county":"Grocka","VARNAME_2":"NA","NL_NAME_2":"Гроцка","TYPE_2":"Opštine","ENGTYPE_2":"Town|Municipal","CC_2":"NA","HASC_2":"NA","name":"Grocka.county"},
"geometry":{"type": "MultiPolygon","coordinates": [[[[20.7371,44.533,217.7018],[20.7529,44.5417,275.0966],[20.762,44.5487,203.5063],[20.786,44.5569,247.4638],[20.8006,44.5593,240.555],[20.8064,44.5632,223.4912],[20.8057,44.5678,182.3574],[20.7992,44.5781,161.1711],[20.7856,44.5845,116.9035],[20.7807,44.5892,151.5981],[20.7852,44.5949,136.3272],[20.7853,44.6001,159.7888],[20.7814,44.6067,212.9082],[20.7725,44.6142,174.5514],[20.771,44.6187,216.1204],[20.7714,44.6252,225.5238],[20.7782,44.6329,171.8587],[20.7566,44.6308,199.5768],[20.7456,44.632,225.9311],[20.7367,44.6363,170.308],[20.7269,44.645,226.5367],[20.7042,44.6496,99.2393],[20.6919,44.6555,140.6716],[20.682,44.6628,105.1252],[20.6666,44.6819,166.2573],[20.6571,44.7004,239.8606],[20.6522,44.7058,184.1017],[20.6451,44.7106,176.2608],[20.624,44.7199,121.5587],[20.6028,44.7376,82.9979],[20.5969,44.7552,141.2596],[20.6101,44.782,84.6945],[20.5846,44.7742,231.0917],[20.5805,44.771,229.5831],[20.5745,44.7615,157.4211],[20.5687,44.7565,168.0982],[20.5566,44.7529,128.1761],[20.5363,44.7539,243.0623],[20.5306,44.7515,245.4799],[20.5242,44.7422,244.9253],[20.5244,44.738,224.1574],[20.5389,44.7196,118.6885],[20.5445,44.716,113.5422],[20.5557,44.698,202.3039],[20.5674,44.688,192.92],[20.5701,44.6808,163.7511],[20.5667,44.6708,167.9982],[20.5689,44.6627,211.1326],[20.5605,44.6566,189.4343],[20.5529,44.6554,237.3263],[20.541,44.6598,245.1173],[20.5269,44.66,206.4325],[20.5215,44.6576,157.445],[20.5217,44.6522,228.2397],[20.533,44.6421,170.3817],[20.5336,44.6246,176.2753],[20.5359,44.6185,188.3168],[20.5439,44.6148,206.2671],[20.5575,44.6148,295.9218],[20.5827,44.6217,196.2881],[20.5878,44.618899999999996,218.7961],[20.5862,44.6133,253.1963],[20.5921,44.6096,226.5307],[20.5975,44.6022,234.8152],[20.6014,44.5874,172.8453],[20.6254,44.5795,221.3192],[20.6384,44.5644,149.5166],[20.6598,44.5466,237.0205],[20.6773,44.5431,190.9231],[20.7143,44.5302,262.8121],[20.7268,44.5303,181.6862],[20.7371,44.533,217.7018]]]]}}