{"type":"Feature","properties":{"GID_2":"SRB.10.3_1","GID_0":"SRB","country":"Serbia","GID_1":"SRB.10_1","province":"Nišavski","NL_NAME_1":"Нишавски","county":"GadžinHan","VARNAME_2":"NA","NL_NAME_2":"ГаџинХан","TYPE_2":"Opštine","ENGTYPE_2":"Town|Municipal","CC_2":"NA","HASC_2":"NA","name":"Gadžin_Han.county"},
"geometry":{"type": "MultiPolygon","coordinates": [[[[22.1552,43.0587,634.4125],[22.1752,43.0599,540.8983],[22.193,43.0547,469.2505],[22.215,43.0575,409.2897],[22.2198,43.0601,426.0615],[22.234,43.074,604.302],[22.2367,43.0835,681.9093],[22.2408,43.0879,714.3387],[22.2956,43.1099,1387.5875],[22.2818,43.1301,1385.2515],[22.2755,43.1361,1311.3975],[22.2775,43.141,1194.5679],[22.2764,43.1441,1225.6908],[22.2688,43.1487,1364.0044],[22.2605,43.1515,1406.8043],[22.2458,43.148,1403.5778],[22.2379,43.1479,1389.9395],[22.2258,43.1514,1515.4004],[22.2137,43.162,1597.9332],[22.1965,43.165,1612.906],[22.1741,43.1805,1770.0768],[22.1552,43.185,1340.7738],[22.1351,43.196,1080.2],[22.1136,43.203,1125.1572],[22.0894,43.2206,779.8852],[22.0829,43.2308,791.6119],[22.0765,43.2363,635.0646],[22.0503,43.2457,541.9846],[22.0079,43.2456,253.2418],[21.9968,43.2402,611.1689],[21.9873,43.2325,743.2368],[21.9659,43.2288,734.9545],[21.9521,43.2194,592.8476],[21.9192,43.2192,718.6901],[21.9166,43.2137,635.0737],[21.9062,43.2015,416.9822],[21.9053,43.1933,343.0642],[21.8977,43.174,245.9957],[21.8989,43.1637,195.691],[21.8974,43.1555,198.7182],[21.9166,43.1268,204.3625],[21.922,43.1272,203.8208],[21.9419,43.1373,319.628],[21.9633,43.1408,383.7102],[21.9798,43.1499,567.0845],[21.987,43.1522,593.5269],[21.9936,43.1514,591.4114],[22.0017,43.1444,676.6487],[22.0107,43.1404,725.5981],[22.0267,43.1442,878.2985],[22.0292,43.1426,892.4966],[22.034,43.1345,899.7665],[22.0505,43.1258,947.8869],[22.0776,43.1022,782.6398],[22.109,43.0867,648.8129],[22.1271,43.0813,650.5643],[22.138,43.0741,688.7582],[22.1552,43.0587,634.4125]]]]}}