{"type":"Feature","properties":{"GID_2":"SRB.5.7_1","GID_0":"SRB","country":"Serbia","GID_1":"SRB.5_1","province":"Južno-Bački","NL_NAME_1":"Јужнобачки","county":"Srbobran","VARNAME_2":"Szenttamás|Thomasberg","NL_NAME_2":"Србобран","TYPE_2":"Opštine","ENGTYPE_2":"Town|Municipal","CC_2":"NA","HASC_2":"NA","name":"Srbobran.county"},
"geometry":{"type": "MultiPolygon","coordinates": [[[[19.7566,45.6998,96.3171],[19.7533,45.6884,97.4475],[19.7437,45.6781,95.4058],[19.7372,45.6656,96.9589],[19.7366,45.6546,95.9067],[19.7394,45.6414,94.0599],[19.737,45.6362,93.1892],[19.7073,45.6231,89.2451],[19.6842,45.618899999999996,89.0687],[19.6963,45.6064,85.8827],[19.6966,45.5936,85.2196],[19.7109,45.5796,85.3693],[19.7141,45.5744,86.3953],[19.7135,45.5701,84.5029],[19.7088,45.5647,84.9682],[19.7003,45.5476,80.5686],[19.7086,45.5336,80.8297],[19.7095,45.5245,80.9505],[19.7246,45.5076,82.5993],[19.7441,45.4997,81.1457],[19.7695,45.4951,79.974],[19.8096,45.4742,81.3515],[19.8312,45.47,81.5388],[19.8398,45.4709,81.3537],[19.8519,45.4761,80.7451],[19.8688,45.4788,81.6235],[19.8793,45.4771,81.5098],[19.8961,45.4707,80.8854],[19.9087,45.47,80.6851],[19.9291,45.4917,80.3074],[19.9586,45.5045,79.2705],[19.9364,45.5235,80.3745],[19.9295,45.5321,80.5086],[19.919,45.5394,79.0006],[19.914,45.5408,79.0323],[19.905,45.5368,79.6223],[19.8975,45.5375,80.1474],[19.8645,45.5482,78.2566],[19.8524,45.5561,78.8028],[19.8509,45.5622,81.0965],[19.8525,45.5767,81.7601],[19.8598,45.5859,81.0258],[19.862,45.5925,81.7699],[19.8741,45.6065,80.8157],[19.8831,45.6129,82.4331],[19.8851,45.6174,83.4865],[19.8799,45.6253,84.1871],[19.8597,45.6426,86.7647],[19.8568,45.6532,88.8561],[19.8482,45.6607,91.1422],[19.8499,45.6723,91.1536],[19.843,45.6817,91.033],[19.841,45.6899,92.7251],[19.8106,45.6964,91.7376],[19.7812,45.6981,93.5881],[19.7678,45.7017,94.7165],[19.7566,45.6998,96.3171]]]]}}