{"type": "Feature","bbox": [21.7725,43.8756,22.7656,44.7156],"geometry": {"type": "MultiPolygon","coordinates": [[[[22.2278,44.1621,505.7242],[22.2327,44.1686,496.529],[22.244,44.1575,476.3677],[22.2733,44.1391,481.3428],[22.2987,44.135,379.2758],[22.3174,44.134,279.0263],[22.3352,44.1301,315.9778],[22.344,44.1309,299.5356],[22.3544,44.1379,294.4583],[22.3623,44.1406,284.8349],[22.3918,44.1408,265.718],[22.4128,44.1311,282.3109],[22.4207,44.1209,235.1985],[22.4257,44.1175,258.0348],[22.4692,44.1085,103.1921],[22.4739,44.104,73.3235],[22.4828,44.09,77.7013],[22.4833,44.0849,104.8361],[22.4793,44.0789,203.8711],[22.4662,44.0664,208.4507],[22.4504,44.0591,229.8046],[22.4486,44.0552,217.2655],[22.4534,44.041,260.8591],[22.4529,44.0321,295.7062],[22.4642,44.0242,267.5048],[22.4665,44.0185,302.5915],[22.4648,44.013,291.2525],[22.4699,44.0083,224.2365],[22.4781,44.0109,250.8747],[22.4973,44.0072,237.8669],[22.5197,44.0105,164.9651],[22.5213,44.0149,237.625],[22.528,44.0157,276.2925],[22.5296,44.0211,304.7437],[22.5327,44.0239,307.8564],[22.5269,44.0283,308.6987],[22.5312,44.0322,270.8636],[22.5298,44.034,253.4587],[22.5199,44.0383,237.9347],[22.5237,44.0419,217.12],[22.5452,44.0445,284.4122],[22.5513,44.0487,269.5784],[22.5736,44.046,235.0685],[22.5765,44.0543,279.5267],[22.6177,44.0572,210.9438],[22.6166,44.0632,243.7902],[22.6223,44.0672,249.7275],[22.6155,44.0698,247.0119],[22.6136,44.0731,230.5393],[22.6174,44.0751,252.2003],[22.6188,44.0779,221.823],[22.6202,44.0922,151.8854],[22.6133,44.0966,126.5848],[22.6116,44.1002,127.9835],[22.6122,44.1047,111.0306],[22.6225,44.1333,44.8457],[22.6281,44.142,44.2766],[22.634,44.1438,43.7605],[22.6335,44.1476,44.425],[22.6367,44.1545,48.6602],[22.6315,44.1551,43.4225],[22.6307,44.1594,46.5162],[22.6245,44.158,44.6187],[22.6215,44.1623,44.1036],[22.6252,44.1631,42.048],[22.6259,44.1676,40.721],[22.6291,44.1704,40.3632],[22.6322,44.1705,39.4844],[22.6352,44.1674,39.3035],[22.6385,44.1691,40.5377],[22.6386,44.1717,39.2369],[22.6462,44.1724,44.1593],[22.6474,44.1759,49.9511],[22.6406,44.1813,54.9689],[22.6449,44.1823,55.0386],[22.6496,44.1796,51.6016],[22.6558,44.1839,51.273],[22.6556,44.1863,51.4892],[22.6508,44.1872,47.1357],[22.6497,44.1888,41.0993],[22.6519,44.1908,33.773],[22.6555,44.1912,40.76],[22.66,44.1968,33.915],[22.6631,44.203,36.2019],[22.66,44.2063,37.8416],[22.6605,44.2078,39.9873],[22.6625,44.2081,35.1301],[22.6674,44.2057,35.0051],[22.6685,44.2036,33.7637],[22.6705,44.2038,34.2238],[22.6726,44.205,33.9345],[22.6731,44.208,34.0379],[22.6809,44.2127,29.0],[22.6738,44.2195,29.0],[22.6736,44.2291,29.0],[22.6866,44.2527,29.5],[22.6868,44.2657,29.5],[22.6848,44.2716,29.5],[22.6803,44.2785,30.0],[22.6734,44.2839,30.0],[22.6463,44.293,30.0],[22.619,44.2936,30.0],[22.6068,44.2958,30.5],[22.5797,44.3039,44.4244],[22.5652,44.3059,37.6391],[22.5594,44.3094,37.0],[22.5493,44.323,37.0],[22.5252,44.3399,37.0],[22.5179,44.3591,37.0],[22.5053,44.3808,37.5],[22.5017,44.395,37.5],[22.5004,44.4112,37.5],[22.5032,44.4176,37.5],[22.4827,44.433,37.5],[22.4734,44.4371,37.5],[22.4683,44.4419,37.5],[22.4592,44.4594,37.5],[22.4575,44.4704,37.5],[22.4625,44.4778,37.5],[22.4689,44.4805,37.5],[22.4755,44.481,37.5],[22.498,44.4779,37.5],[22.5184,44.472,38.0],[22.5278,44.4736,38.0],[22.5498,44.4821,38.0],[22.5567,44.4901,38.0],[22.5619,44.5055,38.0],[22.5621,44.523,38.0],[22.5644,44.5335,38.0],[22.5741,44.5438,38.0],[22.5837,44.5497,38.0],[22.6011,44.5525,38.0],[22.6224,44.552,38.0],[22.644,44.545,38.0],[22.6564,44.5362,38.0],[22.6824,44.5219,38.5],[22.6975,44.5169,38.5],[22.7131,44.5199,38.5],[22.7618,44.5378,38.5],[22.7648,44.5406,38.5],[22.7656,44.5461,38.5],[22.7604,44.5594,38.5],[22.7454,44.5742,38.5],[22.7109,44.6022,39.0],[22.6871,44.6075,39.4991],[22.683,44.6104,39.0],[22.6805,44.6168,39.0],[22.6779,44.6181,39.0],[22.6697,44.6196,39.0],[22.6392,44.6148,39.0],[22.6235,44.6149,39.0],[22.5738,44.6353,40.0],[22.5684,44.6392,40.0],[22.566,44.6466,40.0],[22.5636,44.6487,40.125],[22.5551,44.6529,41.4801],[22.5253,44.6766,64.0],[22.5213,44.6777,64.0],[22.5075,44.6926,64.0],[22.4921,44.701,64.0],[22.4849,44.7086,64.0],[22.4675,44.7154,64.5],[22.463,44.7156,64.5],[22.4449,44.7107,64.5],[22.4324,44.7105,64.5],[22.4197,44.7035,64.5],[22.4058,44.6889,64.5],[22.3987,44.6838,64.5],[22.3778,44.6742,64.5],[22.3664,44.6726,65.0],[22.3408,44.6769,65.0],[22.3332,44.6756,65.0],[22.31,44.6591,65.0],[22.305,44.6535,77.5617],[22.3034,44.6495,76.6607],[22.3035,44.6424,65.0],[22.3015,44.639,65.0],[22.2759,44.6258,65.0],[22.2738,44.6133,73.3469],[22.2661,44.5966,68.8161],[22.2427,44.5711,65.5],[22.2318,44.5617,65.5],[22.209,44.5239,65.5],[22.1967,44.5102,66.0],[22.1844,44.483,66.0],[22.1811,44.4797,66.0],[22.1627,44.4726,66.0],[22.1421,44.4707,66.0],[22.1362,44.4716,66.0],[22.1212,44.4792,66.0],[22.0964,44.4956,66.5],[22.0841,44.5009,66.5],[22.0805,44.506,66.5],[22.0787,44.5133,66.5],[22.0715,44.5244,66.5],[22.058,44.5332,66.5],[22.0416,44.5399,66.5],[22.0371,44.5445,66.5],[22.0272,44.5646,66.5],[22.0294,44.5704,66.75],[22.0299,44.5834,67.0],[22.0264,44.5921,67.0],[22.0013,44.5694,460.7469],[21.9614,44.5385,489.5992],[21.9561,44.5323,443.9578],[21.9556,44.5258,450.6659],[21.9534,44.5226,517.3939],[21.9383,44.5196,608.4617],[21.9298,44.5144,458.1237],[21.935,44.5061,597.7159],[21.9348,44.4948,630.085],[21.9286,44.4864,602.0862],[21.9244,44.4742,607.4982],[21.9174,44.4657,545.3948],[21.9176,44.4568,600.1802],[21.9247,44.4418,656.0158],[21.9182,44.4282,495.7985],[21.9125,44.4257,597.9365],[21.8892,44.4267,470.2762],[21.882,44.4245,463.6417],[21.8718,44.414,281.6669],[21.8642,44.4088,351.5638],[21.8583,44.3993,563.3725],[21.854,44.3958,527.644],[21.8492,44.395,509.9954],[21.8349,44.3988,603.2958],[21.8231,44.3962,642.9033],[21.8194,44.3921,531.723],[21.8177,44.3785,506.0563],[21.8152,44.3731,568.5996],[21.8091,44.3679,634.0317],[21.7997,44.3638,747.5737],[21.7948,44.356,463.5103],[21.7947,44.3451,562.5125],[21.7964,44.3409,595.7725],[21.8085,44.3328,635.4797],[21.813,44.3274,703.9775],[21.8129,44.3233,649.6445],[21.8071,44.3131,829.2117],[21.8157,44.2981,745.0505],[21.8417,44.3029,725.7703],[21.8511,44.3031,792.7601],[21.8617,44.2981,579.0836],[21.8762,44.2943,644.0963],[21.8916,44.2819,621.6619],[21.894,44.2769,559.812],[21.894,44.2678,566.0847],[21.8966,44.2602,742.4767],[21.8951,44.2505,693.0457],[21.8979,44.24,739.8963],[21.8956,44.2292,794.5805],[21.8972,44.2211,879.8359],[21.9119,44.2106,890.8322],[21.916,44.2093,912.3127],[21.9224,44.2121,825.0383],[21.9401,44.2262,625.5707],[21.9489,44.2279,561.2078],[21.9543,44.226,608.673],[21.957,44.2231,642.1835],[21.9568,44.2204,605.2322],[21.9514,44.2139,678.468],[21.9508,44.2104,715.9932],[21.9581,44.1952,731.3123],[21.9554,44.1779,783.2649],[21.9578,44.1554,792.8416],[21.9548,44.1506,869.9934],[21.9454,44.1438,802.338],[21.9443,44.1411,825.1095],[21.9496,44.1222,1016.9163],[21.9589,44.114,665.387],[21.9603,44.1089,627.4781],[21.9507,44.099,550.7642],[21.9447,44.0964,528.82],[21.9088,44.0956,896.7898],[21.8913,44.0907,968.1169],[21.8698,44.0801,1006.3038],[21.8546,44.0688,894.3049],[21.8366,44.0688,990.3017],[21.8178,44.0656,978.8538],[21.8118,44.0543,1000.3303],[21.8085,44.0436,1029.849],[21.8011,44.039,1132.1953],[21.7883,44.0347,1131.459],[21.7854,44.0187,1040.4437],[21.7764,44.0119,1063.1169],[21.7738,44.0079,1145.1296],[21.7725,43.9919,1023.844],[21.7956,43.9886,910.9871],[21.8105,43.9929,797.2982],[21.8165,43.993,821.4352],[21.8314,43.988,768.6669],[21.8419,43.9869,813.5831],[21.8736,43.9925,736.9381],[21.8957,43.9881,837.4048],[21.9056,43.9805,858.6574],[21.9117,43.9722,812.1479],[21.9263,43.9664,783.0845],[21.9422,43.9532,559.9015],[21.9556,43.9471,368.2776],[21.9739,43.9448,372.2304],[21.9979,43.9366,321.3075],[22.0051,43.9384,272.5508],[22.018,43.9522,222.6601],[22.0328,43.952,336.3388],[22.0362,43.9497,307.9653],[22.04,43.9414,286.7919],[22.0495,43.9308,205.6008],[22.0508,43.9226,191.8658],[22.056,43.9158,187.4257],[22.0612,43.9015,268.752],[22.072,43.8962,300.4677],[22.1036,43.8866,303.21],[22.1217,43.8756,400.2959],[22.1245,43.8845,415.0829],[22.1325,43.8977,349.394],[22.1571,43.9052,241.4473],[22.162,43.9094,222.3002],[22.1684,43.9243,190.8582],[22.1671,43.942,302.3334],[22.1739,43.954,340.7823],[22.1862,43.9662,421.114],[22.1939,43.9801,369.7015],[22.2078,43.9929,397.8991],[22.2116,44.0035,352.7183],[22.2185,44.0074,300.7277],[22.2334,44.0103,347.8785],[22.2387,44.0162,309.2283],[22.2379,44.03,246.5938],[22.24,44.0419,327.4092],[22.229,44.0528,410.2275],[22.2252,44.063,386.6272],[22.2162,44.0716,360.954],[22.2171,44.0904,309.0407],[22.2154,44.0988,318.2081],[22.2098,44.1034,408.1558],[22.1952,44.1102,449.9069],[22.1914,44.1155,497.7779],[22.1929,44.1198,451.6868],[22.2007,44.1292,382.0388],[22.2115,44.1365,401.576],[22.2212,44.1477,402.1182],[22.2278,44.1621,505.7242]]],
[[[22.6851,44.2098,29.0],[22.6828,44.2108,29.0],[22.683,44.2088,29.0],[22.6853,44.2075,29.0],[22.6851,44.2098,29.0]]]]}
,"properties": {"GID_1": "SRB.1_1","GID_0": "SRB","country": "Serbia","province": "Borski","VARNAME_1": "Bor","NL_NAME_1": "Борски","TYPE_1": "Okrug","ENGTYPE_1": "District","CC_1": "NA","HASC_1": "RS.BO","ISO_1": "NA","name": "Borski.province","area_km2": 3663.491,"hist_schema_id": "Elevation0-9000","hist_area_km2": {"25": 61.857,"50": 258.545,"75": 125.009,"100": 92.212,"125": 101.924,"150": 107.335,"175": 104.266,"200": 121.856,"225": 145.597,"250": 164.91,"275": 169.741,"300": 165.856,"325": 165.539,"350": 174.501,"375": 184.814,"400": 189.632,"425": 185.964,"450": 167.367,"475": 137.843,"500": 112.093,"525": 95.907,"550": 83.145,"575": 72.96,"600": 64.792,"625": 57.408,"650": 49.079,"675": 40.423,"700": 34.587,"725": 29.603,"750": 26.446,"775": 24.418,"800": 19.84,"825": 17.088,"850": 18.728,"875": 21.305,"900": 15.93,"925": 14.5,"950": 13.053,"975": 8.681,"1000": 5.544,"1025": 3.686,"1050": 2.666,"1075": 2.225,"1100": 1.798,"1125": 1.311,"1150": 0.869,"1175": 0.473,"1200": 0.168}}}