{"type": "Feature","id": "125","bbox": [21.77245,43.87564,22.76515,44.73365],"geometry": {"type": "Polygon","coordinates": [[[22.70014,44.54183,52.3213],[22.71937,44.54436,54.8614],[22.74169,44.55186,56.1213],[22.75926,44.56467,38.5],[22.76515,44.58281,66.8657],[22.71472,44.62307,73.1276],[22.70014,44.63061,56.0713],[22.62118,44.63743,82.8689],[22.58749,44.64937,202.4702],[22.55328,44.66916,128.9213],[22.48372,44.72399,215.1589],[22.46894,44.73019,122.8344],[22.45055,44.73298,222.7461],[22.42605,44.73365,212.7068],[22.41551,44.72781,64.5],[22.38068,44.70053,190.3366],[22.36115,44.69205,123.0435],[22.3197,44.68534,227.0507],[22.30492,44.67738,328.4471],[22.29903,44.66167,67.1202],[22.18514,44.51511,311.3662],[22.17211,44.50535,359.6211],[22.14824,44.5009,371.6182],[22.12664,44.50266,473.607],[22.10431,44.50964,445.1273],[22.08695,44.52178,335.4322],[22.07631,44.55072,259.8058],[22.06711,44.55723,531.5599],[22.05574,44.56214,559.6466],[22.0452,44.56922,364.4836],[22.03982,44.57687,316.9249],[22.03617,44.58949,242.3814],[22.03584,44.58935,242.3814],[22.01698,44.58116,224.6016],[22.00138,44.56937,460.7469],[21.98789,44.55922,455.5674],[21.97838,44.55167,606.8713],[21.97016,44.54617,748.612],[21.96143,44.53847,489.5992],[21.95786,44.53488,538.3984],[21.95611,44.53235,443.9578],[21.95569,44.53043,395.6152],[21.95554,44.52578,450.6659],[21.95476,44.524,474.3411],[21.95337,44.52261,517.3939],[21.95182,44.52199,534.5435],[21.95001,44.52162,571.9678],[21.9437,44.52106,550.325],[21.93833,44.51961,608.4617],[21.93559,44.51842,631.1251],[21.93275,44.51677,608.3323],[21.9298,44.51441,458.1237],[21.93218,44.51134,569.11],[21.93378,44.50881,597.8676],[21.93497,44.50615,597.7159],[21.93538,44.50287,632.7083],[21.93492,44.49976,613.5311],[21.93482,44.49478,630.085],[21.93435,44.49325,640.2661],[21.93347,44.49181,600.9227],[21.92975,44.48798,597.8641],[21.92862,44.48643,602.0862],[21.92712,44.48261,554.5214],[21.92531,44.47589,617.7933],[21.92443,44.47424,607.4982],[21.92329,44.47274,564.9113],[21.91931,44.46881,563.0754],[21.91823,44.46731,535.291],[21.91745,44.46566,545.3948],[21.91688,44.46349,506.2875],[21.91673,44.46121,523.5074],[21.91699,44.45899,566.7662],[21.91761,44.4568,600.1802],[21.92205,44.44886,576.9997],[21.92381,44.44463,590.282],[21.92469,44.44176,656.0158],[21.92464,44.43972,669.149],[21.92376,44.43762,654.3574],[21.91957,44.43005,474.9721],[21.91818,44.42822,495.7985],[21.91632,44.42677,549.2684],[21.91456,44.4261,573.7222],[21.91249,44.42569,597.9365],[21.90944,44.42545,571.5135],[21.90298,44.42551,534.0686],[21.89968,44.42571,520.3209],[21.89224,44.42672,442.8409],[21.88924,44.42675,470.2762],[21.88691,44.42638,523.8298],[21.88474,44.42576,472.3632],[21.882,44.42452,463.6417],[21.87823,44.42171,429.5474],[21.87704,44.42042,429.5474],[21.87425,44.41651,291.9074],[21.87187,44.41403,281.6669],[21.8696,44.4123,351.4639],[21.86635,44.41042,382.0949],[21.86423,44.40881,351.5638],[21.86319,44.40752,386.6408],[21.85823,44.39931,563.3725],[21.8571,44.39791,546.4733],[21.85575,44.39667,489.016],[21.85405,44.39579,527.644],[21.85213,44.39522,485.2652],[21.84919,44.39504,509.9954],[21.84743,44.39538,519.8126],[21.83792,44.39832,561.4577],[21.83487,44.39876,603.2958],[21.83183,44.39879,612.3788],[21.82888,44.39843,649.4363],[21.82692,44.39788,663.9913],[21.82314,44.39621,642.9033],[21.82149,44.39507,609.4094],[21.82025,44.39367,531.723],[21.81937,44.39207,494.9773],[21.81865,44.38954,500.4773],[21.81772,44.37848,506.0563],[21.81689,44.37592,548.1958],[21.81519,44.37308,568.5996],[21.81369,44.37119,576.7159],[21.81157,44.36944,611.7374],[21.80909,44.36794,634.0317],[21.80216,44.3652,747.8699],[21.79968,44.3638,747.5737],[21.79736,44.36125,594.9885],[21.7956,44.35848,526.9929],[21.79477,44.35595,463.5103],[21.79426,44.35052,450.6373],[21.79472,44.34505,562.5125],[21.7955,44.34251,579.5609],[21.79643,44.34091,595.7725],[21.79772,44.33949,659.9742],[21.79937,44.33825,576.7332],[21.80852,44.33285,635.4797],[21.81136,44.33006,682.4897],[21.81302,44.32737,703.9775],[21.81338,44.32536,671.3718],[21.81291,44.32334,649.6445],[21.81167,44.32127,719.3979],[21.80836,44.3173,774.3278],[21.80723,44.31523,838.2021],[21.80707,44.31311,829.2117],[21.80785,44.31094,801.6216],[21.81291,44.30334,785.4189],[21.81565,44.29812,745.0505],[21.82728,44.2998,694.9897],[21.8417,44.30293,725.7703],[21.8449,44.30329,839.7261],[21.84805,44.30332,836.2497],[21.8511,44.30306,792.7601],[21.85399,44.30241,734.9791],[21.85648,44.30143,618.3923],[21.86169,44.29807,579.0836],[21.86567,44.29693,541.414],[21.87167,44.2958,618.5646],[21.87622,44.29435,644.0963],[21.87973,44.29239,644.2148],[21.88924,44.28495,643.5126],[21.89162,44.2819,621.6619],[21.89399,44.27694,559.812],[21.89435,44.27487,539.7274],[21.89389,44.26986,541.0121],[21.89399,44.26784,566.0847],[21.89663,44.26024,742.4767],[21.89668,44.25823,754.8818],[21.89539,44.25337,711.1462],[21.89513,44.25045,693.0457],[21.89544,44.24893,727.0154],[21.89699,44.24541,811.52],[21.89771,44.24283,809.8048],[21.89792,44.24004,739.8963],[21.89776,44.23722,731.6597],[21.89714,44.23441,691.0554],[21.89559,44.22919,794.5805],[21.89554,44.22482,895.894],[21.89606,44.22283,869.0067],[21.8972,44.22113,879.8359],[21.89854,44.22014,872.8594],[21.90536,44.21622,835.6365],[21.90924,44.212649999999996,829.4125],[21.91192,44.21058,890.8322],[21.91425,44.2095,924.9521],[21.91601,44.20929,912.3127],[21.91766,44.2095,912.3127],[21.92009,44.21053,910.515],[21.92241,44.21213,825.0383],[21.92624,44.21508,777.0491],[21.93316,44.2218,727.2387],[21.93544,44.22363,658.6774],[21.93797,44.22521,602.8305],[21.94009,44.22616,625.5707],[21.94417,44.22753,597.679],[21.94608,44.2279,585.4666],[21.94887,44.2279,561.2078],[21.95249,44.22686,562.2367],[21.95425,44.22598,608.673],[21.95575,44.22495,643.6376],[21.95699,44.22311,642.1835],[21.95714,44.22175,630.2516],[21.95683,44.22038,605.2322],[21.95611,44.21911,605.2322],[21.95239,44.21534,678.468],[21.9514,44.21394,678.468],[21.95084,44.21239,703.3425],[21.95084,44.21038,715.9932],[21.95125,44.20898,712.707],[21.9529,44.20552,692.0887],[21.95673,44.19903,743.048],[21.95807,44.19518,731.3123],[21.95833,44.19281,753.9151],[21.95817,44.19033,752.4788],[21.95771,44.18785,728.2593],[21.95606,44.18265,760.8719],[21.95544,44.17787,783.2649],[21.9559,44.16826,844.9745],[21.95673,44.1632,861.3876],[21.95776,44.15994,805.6766],[21.95802,44.15767,790.4489],[21.95776,44.15544,802.1378],[21.95699,44.15333,890.9977],[21.95482,44.15064,869.9934],[21.95254,44.14873,827.4408],[21.94743,44.14552,820.9852],[21.94536,44.14384,802.338],[21.94453,44.14253,816.9707],[21.94432,44.14108,825.1095],[21.94479,44.13937,846.5526],[21.9467,44.1357,851.3732],[21.94753,44.13312,889.8057],[21.94882,44.12483,976.3928],[21.94965,44.12219,1016.9163],[21.95058,44.12056,1003.3291],[21.95182,44.11909,944.1034],[21.9589,44.11395,665.387],[21.96034,44.11209,646.5336],[21.96076,44.11012,627.4781],[21.96029,44.10894,627.4781],[21.95879,44.1071,648.0753],[21.95358,44.10155,607.946],[21.95068,44.09896,550.7642],[21.94898,44.09785,529.0741],[21.94691,44.097,518.5978],[21.94464,44.09638,528.82],[21.94091,44.09589,537.6943],[21.93296,44.09566,533.8575],[21.9127,44.09576,881.6407],[21.90877,44.09555,896.7898],[21.90505,44.09503,902.7426],[21.90298,44.09457,896.4399],[21.89807,44.09312,943.127],[21.8913,44.09075,968.1169],[21.88521,44.08821,987.2701],[21.8805,44.08597,986.4539],[21.86976,44.0801,1006.3038],[21.86733,44.0784,1034.2307],[21.86045,44.0723,917.2572],[21.8573,44.07013,882.0175],[21.85461,44.06881,894.3049],[21.8526,44.06827,887.991],[21.85038,44.06798,919.4862],[21.84728,44.0679,943.5986],[21.83978,44.06868,966.091],[21.83658,44.06883,990.3017],[21.83338,44.06852,963.8971],[21.82433,44.06615,1009.4383],[21.82227,44.06576,995.3745],[21.81927,44.06548,978.8538],[21.81777,44.06555,978.8538],[21.81183,44.05431,1000.3303],[21.81115,44.05266,1041.4495],[21.81074,44.05044,1096.0928],[21.81059,44.04752,1158.048],[21.80997,44.04553,1106.093],[21.80847,44.04362,1029.849],[21.80635,44.04183,1113.6248],[21.80392,44.04028,1121.8445],[21.80113,44.03899,1132.1953],[21.79663,44.03767,1107.9946],[21.79183,44.03674,1102.7202],[21.79007,44.03612,1067.943],[21.78831,44.03468,1131.459],[21.78713,44.03186,1174.472],[21.78635,44.02341,1084.9413],[21.78599,44.02067,1017.7783],[21.78537,44.01866,1040.4437],[21.78423,44.01695,1047.73],[21.78289,44.01594,1047.73],[21.7787,44.01362,1060.2997],[21.77638,44.01194,1063.1169],[21.77462,44.00982,1081.4216],[21.77379,44.00791,1145.1296],[21.77291,44.00357,1070.4144],[21.77245,43.99184,1023.844],[21.77824,43.99106,1059.2533],[21.79064,43.98884,980.7572],[21.79317,43.98858,953.6278],[21.7956,43.98861,910.9871],[21.79891,43.98923,856.1627],[21.8064,43.99179,869.4941],[21.81048,43.99287,797.2982],[21.81348,43.99318,838.5984],[21.81653,43.99303,821.4352],[21.82118,43.99194,758.1052],[21.82903,43.98874,784.9258],[21.83136,43.98801,768.6669],[21.83384,43.9875,751.9821],[21.83782,43.98701,820.0786],[21.84185,43.98688,813.5831],[21.84588,43.98703,817.2328],[21.84976,43.9876,751.7563],[21.86381,43.99132,750.9764],[21.87079,43.99251,753.8971],[21.87363,43.99248,736.9381],[21.87761,43.99176,780.0262],[21.88459,43.99008,779.7386],[21.89358,43.98861,844.796],[21.89565,43.98812,837.4048],[21.89751,43.98739,858.0013],[21.89962,43.986,915.3062],[21.90557,43.98055,858.6574],[21.90903,43.97664,828.8552],[21.91079,43.97339,812.1479],[21.91172,43.9722,812.1479],[21.91378,43.97086,773.0381],[21.92252,43.96832,798.1561],[21.92624,43.96639,799.0778],[21.93177,43.96223,734.1997],[21.93859,43.95582,629.45],[21.9405,43.95419,556.2266],[21.94221,43.95323,559.9015],[21.95042,43.94915,382.9041],[21.95332,43.94781,366.1414],[21.95559,43.94709,368.2776],[21.95797,43.94657,353.8295],[21.96189,43.94605,359.9945],[21.97001,43.94538,331.3414],[21.97388,43.94481,372.2304],[21.97838,43.94344,334.0091],[21.98386,43.94057,312.5411],[21.98592,43.9397,297.982],[21.98815,43.93897,324.5754],[21.99791,43.93654,321.3075],[22.00091,43.93654,282.7721],[22.00355,43.93737,272.3356],[22.0051,43.93838,272.5508],[22.00851,43.9415,286.1057],[22.01032,43.94349,284.6692],[22.01595,43.95081,251.5958],[22.01802,43.95215,222.6601],[22.01993,43.95267,225.1979],[22.02499,43.95298,222.8221],[22.02799,43.95282,284.6959],[22.03088,43.95246,322.9582],[22.03285,43.95199,336.3388],[22.03455,43.95127,336.4599],[22.03626,43.94972,307.9653],[22.03745,43.94781,295.57],[22.04003,43.94145,286.7919],[22.04174,43.93923,282.0927],[22.04799,43.93298,212.4171],[22.04949,43.93081,205.6008],[22.05021,43.92879,201.7664],[22.05037,43.92406,194.1702],[22.05078,43.92259,191.8658],[22.05161,43.92114,191.3241],[22.05502,43.91732,188.2687],[22.05605,43.91577,187.4257],[22.05739,43.91195,194.761],[22.05879,43.90528,277.2532],[22.05977,43.90326,273.5757],[22.06122,43.90151,268.752],[22.06261,43.90052,284.9067],[22.06675,43.89835,327.7007],[22.07202,43.89624,300.4677],[22.07765,43.89469,277.8988],[22.09538,43.88905,272.3611],[22.10106,43.88755,279.4848],[22.10359,43.88657,303.21],[22.11103,43.8813,329.9322],[22.11754,43.87768,392.0031],[22.12173,43.87564,400.2959],[22.12323,43.8812,415.0229],[22.12447,43.88456,415.0829],[22.12566,43.88683,428.2896],[22.12984,43.89326,420.3909],[22.13155,43.89649,384.6371],[22.13253,43.89768,349.394],[22.1347,43.89887,339.8135],[22.13661,43.89944,350.644],[22.14462,43.90099,375.2609],[22.15708,43.90518,241.4473],[22.15878,43.906,269.5707],[22.16054,43.90755,226.8338],[22.16193,43.90941,222.3002],[22.16478,43.91422,213.0389],[22.16571,43.91634,198.9062],[22.16783,43.92148,170.8597],[22.16839,43.92424,190.8582],[22.16839,43.92995,172.0289],[22.16648,43.93786,283.555],[22.16659,43.93995,272.2774],[22.16715,43.94197,302.3334],[22.17082,43.94796,330.6161],[22.17392,43.95396,340.7823],[22.17578,43.9561,364.084],[22.18266,43.96212,418.9326],[22.18472,43.96419,420.6226],[22.18617,43.96615,421.114],[22.18798,43.969,430.516],[22.19061,43.97535,380.9163],[22.19392,43.98011,369.7015],[22.19609,43.98228,413.087],[22.20369,43.98845,378.0379],[22.20596,43.9906,374.1491],[22.20777,43.99287,397.8991],[22.20875,43.99499,411.7498],[22.21056,44.0015,342.8412],[22.2116,44.00352,352.7183],[22.2132,44.00514,372.6246],[22.2148,44.00605,342.0742],[22.21847,44.00739,307.4241],[22.22343,44.00843,310.0437],[22.22948,44.00923,365.1814],[22.23154,44.00967,359.9587],[22.2334,44.01034,347.8785],[22.23537,44.01173,329.8795],[22.23697,44.01349,335.045],[22.23867,44.01618,309.2283],[22.23929,44.01824,277.3479],[22.2394,44.02041,263.7508],[22.23909,44.02261,234.1601],[22.23826,44.02563,207.7853],[22.2379,44.02783,261.4368],[22.23795,44.030029999999996,246.5938],[22.23836,44.03222,245.4614],[22.23986,44.03731,257.0012],[22.24012,44.03943,302.2274],[22.23997,44.04189,327.4092],[22.23888,44.04403,375.2094],[22.23733,44.04574,394.368],[22.23025,44.05137,402.5119],[22.22906,44.05282,410.2275],[22.22813,44.05437,415.9517],[22.22606,44.06088,406.3949],[22.22519,44.06294,386.6272],[22.22358,44.06501,362.7924],[22.21712,44.07023,361.8516],[22.21625,44.07157,360.954],[22.21583,44.07307,310.1143],[22.21588,44.07444,293.3535],[22.21676,44.08144,250.8642],[22.21712,44.09036,309.0407],[22.21656,44.09612,336.8336],[22.21542,44.09876,318.2081],[22.21397,44.10051,356.6637],[22.21206,44.10206,362.2012],[22.20984,44.10346,408.1558],[22.20684,44.1048,426.701],[22.1994,44.10759,428.4084],[22.19527,44.11015,449.9069],[22.19382,44.11126,466.6601],[22.19217,44.11312,475.3969],[22.19139,44.1155,497.7779],[22.1918,44.11801,469.106],[22.19289,44.11979,451.6868],[22.20074,44.12919,382.0388],[22.20204,44.13043,312.8176],[22.20441,44.13193,302.567],[22.20787,44.13374,343.6737],[22.21154,44.13653,401.576],[22.21273,44.1378,426.9927],[22.21552,44.1417,468.5176],[22.22116,44.14774,402.1182],[22.22281,44.14992,457.4665],[22.22389,44.15214,421.9661],[22.22544,44.15699,465.9958],[22.22777,44.16211,505.7242],[22.22989,44.16521,505.56],[22.23273,44.1686,496.529],[22.23836,44.16252,502.1585],[22.24405,44.15746,476.3677],[22.25335,44.15178,462.4831],[22.26782,44.14188,482.5296],[22.27051,44.14036,484.9966],[22.2733,44.13911,481.3428],[22.27552,44.13844,463.3695],[22.27779,44.13803,456.3518],[22.28069,44.13787,440.4756],[22.28467,44.138,420.7086],[22.28746,44.13777,414.6536],[22.29521,44.1356,384.0585],[22.29872,44.13503,379.2758],[22.31743,44.13395,279.0263],[22.32094,44.13338,274.4836],[22.33216,44.13048,321.4883],[22.33515,44.13007,315.9778],[22.3382,44.13002,305.8365],[22.3412,44.13023,302.9915],[22.34404,44.13087,300.3518],[22.34647,44.13193,300.1779],[22.35195,44.13638,296.0767],[22.35443,44.13793,294.4583],[22.35836,44.13948,293.7573],[22.36234,44.14061,284.8349],[22.3658,44.14118,279.6053],[22.36942,44.14144,270.8569],[22.37691,44.1416,263.4315],[22.3845,44.14144,255.2107],[22.39184,44.14077,265.718],[22.3966,44.13948,243.2664],[22.39923,44.13839,286.0782],[22.41019,44.13276,303.7185],[22.41282,44.13105,282.3109],[22.41629,44.1278,258.8829],[22.42068,44.12087,235.1985],[22.42202,44.11953,242.0325],[22.42378,44.11844,255.9614],[22.42574,44.11751,258.0348],[22.43231,44.1154,230.8559],[22.44249,44.11307,160.3597],[22.45282,44.111,131.2338],[22.46528,44.10966,116.1516],[22.46734,44.10919,107.2912],[22.46915,44.10852,103.1921],[22.47117,44.1071,102.8648],[22.47391,44.10403,73.3235],[22.47794,44.09708,64.3815],[22.48279,44.09005,77.7013],[22.48367,44.08827,79.9527],[22.48378,44.0863,88.1752],[22.48331,44.08491,104.8361],[22.4815,44.0816,185.5584],[22.47928,44.07891,203.8711],[22.47639,44.07602,163.3446],[22.47173,44.07235,126.6297],[22.46615,44.06638,208.4507],[22.46471,44.06527,256.5049],[22.46217,44.06377,261.9256],[22.45546,44.06163,189.8684],[22.45205,44.0601,209.2264],[22.45044,44.05912,229.8046],[22.44931,44.05798,229.8786],[22.44874,44.05669,244.9827],[22.44864,44.05519,217.2655],[22.44889,44.05315,207.9177],[22.44998,44.04956,231.6512],[22.45298,44.0431,241.1881],[22.45339,44.04098,260.8591],[22.45334,44.03886,261.004],[22.45267,44.03597,273.1337],[22.45251,44.03395,289.4591],[22.45287,44.03204,298.301],[22.45391,44.03044,293.3719],[22.45582,44.02928,285.5147],[22.46068,44.02729,261.3176],[22.46305,44.02569,264.0805],[22.46419,44.02424,267.5048],[22.46497,44.02264,276.2097],[22.46646,44.01845,302.5915],[22.4661,44.01793,302.5915],[22.46589,44.01762,302.5915],[22.48145,44.01943,304.3381],[22.50367,44.0199,286.5945],[22.51494,44.03029,290.2234],[22.52258,44.0447,190.7322],[22.53416,44.05716,263.7678],[22.55462,44.06243,189.4897],[22.57519,44.06139,256.7484],[22.59297,44.06393,259.7473],[22.60475,44.07938,206.4489],[22.60465,44.08816,186.951],[22.59813,44.1093,48.8029],[22.5971,44.11907,98.8983],[22.59906,44.13033,88.7497],[22.6094,44.15994,42.1918],[22.60795,44.15999,42.1918],[22.60599,44.16315,42.7729],[22.60485,44.16847,40.6816],[22.6062,44.17457,39.2976],[22.60857,44.17586,39.0122],[22.6248,44.1894,40.6018],[22.63999,44.20733,34.73],[22.64878,44.21399,34.0131],[22.69164,44.22843,35.4615],[22.69074,44.22888,35.0297],[22.68536,44.24366,29.5],[22.6895,44.29172,83.8906],[22.68154,44.30531,73.1955],[22.66252,44.31166,66.6331],[22.62118,44.3159,38.9213],[22.58284,44.32841,41.487],[22.54935,44.34897,31.0],[22.52269,44.37507,40.2991],[22.50512,44.40406,38.637],[22.50398,44.41171,37.5],[22.50636,44.42752,77.0358],[22.50543,44.43501,86.7239],[22.50098,44.44194,93.776],[22.48,44.45579,56.5665],[22.477,44.46395,48.2675],[22.47721,44.47698,51.8577],[22.4798,44.49041,41.511],[22.48414,44.49977,45.2786],[22.49106,44.50421,46.6761],[22.50036,44.50638,46.015],[22.5355,44.50752,46.41],[22.54842,44.5117,40.5645],[22.55669,44.52147,38.0],[22.55979,44.53878,72.2258],[22.56558,44.55542,91.6002],[22.58046,44.5655,137.6549],[22.6003,44.56979,113.1941],[22.62118,44.56922,115.44],[22.64216,44.56312,93.8889],[22.67854,44.54555,50.8854],[22.70014,44.54183,52.3213]]]}
,"properties": {"ISO3166-1-Alpha-3": "SRB","country": "Republic of Serbia","fill": "#F0F","name": "Borski","area_km2": 3751.627,"hist_schema_id": "Elevation0-9000","hist_area_km2": {"25": 76.004,"50": 245.371,"75": 176.89,"100": 96.04,"125": 107.411,"150": 113.939,"175": 109.506,"200": 126.126,"225": 147.876,"250": 164.696,"275": 167.661,"300": 167.326,"325": 167.97,"350": 176.254,"375": 185.917,"400": 190.931,"425": 186.734,"450": 167.76,"475": 138.145,"500": 112.274,"525": 96.058,"550": 83.327,"575": 72.945,"600": 64.716,"625": 57.332,"650": 48.988,"675": 40.407,"700": 34.572,"725": 29.618,"750": 26.339,"775": 24.418,"800": 19.87,"825": 17.104,"850": 18.819,"875": 21.305,"900": 15.839,"925": 14.454,"950": 13.052,"975": 8.711,"1000": 5.62,"1025": 3.717,"1050": 2.727,"1075": 2.255,"1100": 1.767,"1125": 1.311,"1150": 0.854,"1175": 0.488,"1200": 0.183}}}