{"type":"Feature","properties":{"GID_1":"SRB.9_1","GID_0":"SRB","country":"Serbia","province":"Moravički","VARNAME_1":"Moravica|Morava","NL_NAME_1":"Моравички","TYPE_1":"Okrug","ENGTYPE_1":"District","CC_1":"NA","HASC_1":"RS.MR","ISO_1":"NA","name":"Moravički.province"},
"geometry":{"type": "MultiPolygon","coordinates": [[[[20.3667,43.5943,1155.9972],[20.3692,43.6029,1102.127],[20.3724,43.605,1125.9291],[20.3734,43.6084,1078.7903],[20.3578,43.6276,999.6141],[20.3574,43.6297,970.2522],[20.3606,43.6329,842.1139],[20.3772,43.6397,1098.1404],[20.39,43.6471,985.7084],[20.3951,43.6477,1001.3344],[20.4134,43.6449,974.9389],[20.4204,43.6474,966.9833],[20.4302,43.654,819.7404],[20.4346,43.6531,657.3248],[20.4482,43.6447,852.3183],[20.4554,43.6445,825.9374],[20.4616,43.6484,782.7029],[20.4651,43.6555,892.0018],[20.4663,43.6636,1018.2448],[20.4596,43.6798,402.3319],[20.4602,43.6978,575.9797],[20.4544,43.7025,489.6315],[20.4367,43.7094,531.4745],[20.4462,43.7253,661.0462],[20.459,43.7304,404.2568],[20.4739,43.7327,428.4311],[20.4873,43.7387,333.2624],[20.5095,43.7379,308.4272],[20.5259,43.7452,265.3107],[20.5294,43.7484,247.0671],[20.5306,43.7521,249.2436],[20.5236,43.7644,258.7003],[20.5234,43.7699,247.7968],[20.5331,43.7828,228.6691],[20.5462,43.7878,214.1572],[20.5638,43.8008,209.3761],[20.5639,43.8063,202.3987],[20.5578,43.8143,208.0975],[20.5591,43.8198,211.1562],[20.5691,43.8255,210.8873],[20.5938,43.8452,232.521],[20.6208,43.8592,336.5728],[20.6061,43.8699,288.871],[20.5911,43.8919,284.3954],[20.5833,43.9004,308.0737],[20.5764,43.9046,335.0497],[20.5609,43.9086,439.7868],[20.5477,43.9156,424.7046],[20.5448,43.9198,437.1573],[20.5444,43.9304,536.4101],[20.5424,43.9356,561.8777],[20.5315,43.942,644.2987],[20.5262,43.9469,722.9976],[20.545,43.9545,637.7431],[20.565,43.9668,443.9733],[20.567,43.9708,475.0735],[20.5663,43.98,531.3181],[20.5688,43.9849,587.2251],[20.5752,43.9921,681.8177],[20.5912,44.0015,645.5439],[20.595,44.0113,637.3474],[20.6009,44.012,536.775],[20.6133,44.0055,499.5992],[20.6186,44.0048,485.6117],[20.6279,44.0144,456.1509],[20.6369,44.0202,443.5793],[20.6235,44.033,362.3312],[20.6119,44.0406,340.8442],[20.6063,44.0484,428.3558],[20.5981,44.0541,568.6771],[20.5416,44.0775,842.1614],[20.5391,44.0814,718.1544],[20.5399,44.0914,900.5914],[20.5383,44.0999,648.9086],[20.5323,44.1104,801.275],[20.5186,44.1225,684.364],[20.5159,44.1329,971.1636],[20.5133,44.1367,807.8584],[20.4884,44.1511,584.7131],[20.4692,44.1531,414.8164],[20.462,44.1558,470.795],[20.4597,44.1599,537.0718],[20.4622,44.1697,649.5902],[20.4619,44.176,483.2194],[20.4502,44.1776,522.252],[20.4404,44.1895,468.549],[20.4322,44.2137,401.7403],[20.4362,44.2269,308.1511],[20.4231,44.2418,213.9479],[20.4053,44.2219,324.0579],[20.3992,44.2061,402.0375],[20.3958,44.2039,419.3896],[20.3828,44.2021,389.7052],[20.3791,44.2,382.4867],[20.3751,44.1911,307.4949],[20.3759,44.1816,344.909],[20.3722,44.1759,246.2739],[20.3665,44.1733,366.4691],[20.3512,44.1733,418.5994],[20.3396,44.1682,338.4166],[20.3363,44.1647,318.9031],[20.3373,44.1551,286.6022],[20.3351,44.152,304.6902],[20.328,44.1472,308.8434],[20.2984,44.1368,552.954],[20.293,44.1326,582.9302],[20.2868,44.1214,577.1149],[20.2797,44.12,658.1123],[20.2536,44.1192,635.781],[20.2292,44.1116,677.8275],[20.2096,44.114,599.5345],[20.1956,44.1115,643.8934],[20.1765,44.1119,691.7323],[20.1674,44.1071,735.025],[20.1603,44.1004,686.6279],[20.1252,44.0954,696.8473],[20.1226,44.0896,649.9492],[20.1277,44.0761,645.8835],[20.1246,44.0737,675.7868],[20.0833,44.0841,795.3905],[20.062,44.0853,778.8745],[20.0711,44.0674,727.0988],[20.0691,44.063,708.7269],[20.0595,44.0513,596.7332],[20.0591,44.047,552.573],[20.063,44.0374,519.5289],[20.0553,44.0267,630.9238],[20.0583,44.0217,599.6738],[20.0716,44.0134,784.8337],[20.0747,44.0077,802.605],[20.071,44.0019,811.9653],[20.0604,43.9933,777.1024],[20.0558,43.9812,612.5171],[20.069,43.9748,654.4153],[20.0643,43.9658,585.4409],[20.0659,43.962,592.744],[20.0872,43.9511,672.6634],[20.0962,43.9499,716.5284],[20.103,43.9375,681.3628],[20.1041,43.9328,531.3109],[20.1017,43.9293,527.9774],[20.0874,43.9193,584.8918],[20.0871,43.9158,617.0637],[20.0892,43.9118,612.1044],[20.0995,43.9011,581.2665],[20.1163,43.8905,323.6886],[20.1556,43.877,591.0206],[20.136,43.8735,382.9601],[20.1168,43.8739,294.3073],[20.1096,43.872,302.8335],[20.1004,43.8619,296.4831],[20.0919,43.8552,297.9094],[20.0879,43.8464,300.4869],[20.0877,43.8421,301.2371],[20.0935,43.8348,303.4153],[20.1054,43.8292,317.6915],[20.1068,43.8252,312.0717],[20.1051,43.814,392.6904],[20.1135,43.8049,314.2282],[20.1259,43.7975,384.0091],[20.1301,43.7916,363.6907],[20.1295,43.7867,390.0303],[20.122,43.7807,360.4529],[20.1191,43.7747,423.46],[20.1226,43.7645,529.6841],[20.1214,43.753,457.031],[20.1238,43.7465,464.2109],[20.1241,43.74,419.5404],[20.127,43.737,479.3691],[20.1433,43.7286,473.46],[20.1628,43.7219,506.4025],[20.1654,43.7193,509.774],[20.169,43.7015,607.41],[20.1605,43.6861,491.632],[20.1542,43.6798,567.9791],[20.1536,43.6769,557.2278],[20.1587,43.6715,576.7859],[20.1729,43.663,593.5687],[20.1749,43.6561,644.4567],[20.1656,43.638,504.4828],[20.1607,43.6336,415.8152],[20.1559,43.6319,413.7792],[20.1241,43.6421,498.2359],[20.1104,43.6438,760.2224],[20.0975,43.6417,921.1473],[20.089,43.6449,882.7616],[20.0827,43.6448,713.3945],[20.0825,43.6415,707.4307],[20.0858,43.6379,845.9231],[20.0848,43.619,689.5569],[20.086,43.6127,631.8032],[20.0825,43.6071,714.1317],[20.0752,43.6032,874.1788],[20.0659,43.6013,933.7716],[20.0485,43.6058,976.5485],[20.0384,43.6041,1098.1249],[20.0128,43.587,1012.7292],[19.9966,43.5803,1147.2404],[19.9809,43.5674,1075.0979],[19.977,43.5608,882.6485],[19.9737,43.5585,929.7836],[19.9568,43.5538,1244.1517],[19.9496,43.5542,1198.5996],[19.9252,43.5685,1121.5077],[19.9089,43.5758,854.0731],[19.9063,43.5637,1107.7958],[19.9113,43.5499,1241.0917],[19.9084,43.5461,1176.1121],[19.8967,43.5403,1072.3004],[19.8937,43.5347,1167.5479],[19.905,43.5185,1187.2477],[19.9148,43.5116,1084.3154],[19.9225,43.509,1226.1082],[19.9386,43.5073,1150.083],[19.9509,43.5028,1257.7854],[19.9541,43.5003,1125.4565],[19.958,43.4924,1264.7496],[19.9615,43.4902,1142.0793],[19.986,43.4884,1259.7487],[19.9996,43.484,1304.5868],[20.0029,43.479,1204.6438],[20.0056,43.4686,1181.5383],[20.0131,43.4605,1142.7593],[20.011,43.4506,1272.9409],[20.0119,43.4424,1253.8325],[20.0221,43.4273,1229.6576],[20.0293,43.4205,1262.5284],[20.028199999999998,43.4193,1259.7335],[20.0482,43.3983,1147.2769],[20.0549,43.3856,1148.0957],[20.075,43.3677,1161.7264],[20.0775,43.3593,1169.1887],[20.0858,43.3463,1265.12],[20.0972,43.3349,1396.9468],[20.097,43.3289,1428.8562],[20.0912,43.3237,1214.7522],[20.0903,43.321,1188.2096],[20.0933,43.3144,1195.6355],[20.1004,43.309,1183.2191],[20.1096,43.3046,1284.0417],[20.119,43.2974,1311.7944],[20.1236,43.2964,1258.8716],[20.1376,43.3012,1225.2755],[20.1591,43.3031,1294.0361],[20.1738,43.308,1221.3505],[20.2061,43.31,1275.7747],[20.2406,43.3178,1356.0164],[20.2447,43.3175,1272.52],[20.2541,43.3148,1284.9915],[20.2644,43.3067,1173.485],[20.2674,43.2985,1070.5815],[20.2778,43.289,1289.2102],[20.287,43.2769,1456.2136],[20.3025,43.2674,1054.9312],[20.3189,43.2605,1158.0771],[20.3262,43.26,1270.4404],[20.3283,43.2607,1389.7319],[20.3358,43.2844,1701.4468],[20.3662,43.3003,1500.5131],[20.3787,43.3148,1582.115],[20.3827,43.3222,1571.2458],[20.388,43.3271,1498.468],[20.395,43.3302,1548.3427],[20.4058,43.3303,1448.366],[20.4116,43.3325,1342.5796],[20.4137,43.3354,1414.9165],[20.4147,43.3421,1452.4644],[20.4215,43.3488,1425.9418],[20.4207,43.3513,1379.2947],[20.4106,43.3596,1312.0933],[20.4089,43.3633,1166.5594],[20.4124,43.3767,997.4088],[20.4016,43.38,957.1562],[20.3964,43.3861,910.6972],[20.3978,43.3901,1072.947],[20.4039,43.3962,1223.4772],[20.4057,43.4003,1116.8259],[20.404,43.4043,1142.4574],[20.398,43.4102,1014.6369],[20.3947,43.4217,892.1738],[20.3997,43.4318,1046.6318],[20.4027,43.4432,1096.4424],[20.4034,43.4487,1231.3887],[20.4019,43.4541,1460.3555],[20.3886,43.4648,1123.9309],[20.3835,43.474,759.0337],[20.3702,43.4859,910.5385],[20.36,43.4928,922.2813],[20.3536,43.5004,794.5821],[20.3403,43.5057,905.8864],[20.3188,43.52,1174.7113],[20.3053,43.5332,892.1951],[20.3095,43.5371,1103.5297],[20.3436,43.551,1034.0769],[20.3527,43.5574,1144.0458],[20.3672,43.5781,1163.5603],[20.3667,43.5943,1155.9972]]]]}}