{"type": "Feature","id": "829","bbox": [19.89365,43.25984,20.63691,44.2418],"geometry": {"type": "Polygon","coordinates": [[[20.61681,44.0046,500.1787],[20.61862,44.00476,485.6117],[20.62022,44.00538,472.1695],[20.62172,44.00682,456.4728],[20.6243,44.01075,429.2699],[20.62792,44.01437,456.1509],[20.63304,44.01804,442.2162],[20.63691,44.02021,443.5793],[20.62353,44.03297,362.3312],[20.62105,44.03494,383.8863],[20.61428,44.03886,348.524],[20.6119,44.04057,340.8442],[20.61035,44.04238,356.2903],[20.60797,44.04656,392.6953],[20.60632,44.04842,428.3558],[20.6042,44.05018,468.2911],[20.5981,44.05406,568.6771],[20.59536,44.05561,535.4514],[20.59025,44.05788,614.9793],[20.57805,44.06186,512.8598],[20.57128,44.06434,517.0972],[20.56529,44.06695,515.8656],[20.55785,44.07106,566.8078],[20.5534,44.07261,739.7277],[20.54761,44.07426,777.2753],[20.544,44.07591,786.2212],[20.54162,44.07746,842.1614],[20.54017,44.07891,785.0873],[20.53935,44.08051,718.1544],[20.53914,44.08144,718.1544],[20.53991,44.09144,900.5914],[20.53929,44.09713,670.8873],[20.53826,44.09987,648.9086],[20.5349,44.10522,682.1586],[20.53232,44.11038,801.275],[20.52875,44.11354,711.0593],[20.52033,44.12015,736.0608],[20.51857,44.1225,684.364],[20.51785,44.12421,728.5679],[20.51589,44.13286,971.1636],[20.51485,44.13495,918.0011],[20.51335,44.13674,807.8584],[20.51185,44.13777,783.0936],[20.50596,44.14103,692.9152],[20.49909,44.14402,545.5923],[20.49661,44.14563,550.0471],[20.49098,44.14999,617.1271],[20.48844,44.15105,584.7131],[20.4855,44.15175,544.1833],[20.48235,44.15214,512.6278],[20.47237,44.15276,446.9692],[20.46917,44.15312,414.8164],[20.46674,44.15364,431.7782],[20.46452,44.15439,518.9568],[20.46193,44.15583,470.795],[20.46028,44.1578,481.6615],[20.45971,44.15989,537.0718],[20.45987,44.16211,557.7444],[20.46219,44.16976,649.5902],[20.46245,44.17255,526.1199],[20.4623,44.17493,488.4342],[20.46193,44.17606,483.2194],[20.45682,44.17617,519.0268],[20.4531,44.17668,533.1537],[20.4502,44.17759,522.252],[20.44793,44.17911,524.6031],[20.44617,44.18102,496.3066],[20.44261,44.18599,444.7291],[20.44044,44.18955,468.549],[20.43873,44.19322,384.1713],[20.43594,44.20071,376.9369],[20.43424,44.20738,515.7729],[20.43217,44.21374,401.7403],[20.43253,44.21609,379.5908],[20.43573,44.22335,285.1704],[20.4362,44.22482,306.6227],[20.4362,44.22691,308.1511],[20.43563,44.22862,342.9648],[20.4346,44.23022,388.5786],[20.42705,44.23725,282.7537],[20.42313,44.2418,213.9479],[20.4177,44.23647,351.8851],[20.41057,44.22877,424.1973],[20.40886,44.22686,402.074],[20.4053,44.2219,324.0579],[20.40251,44.21684,381.9968],[20.40028,44.208,385.1943],[20.3992,44.20609,402.0375],[20.39755,44.20461,378.5052],[20.39579,44.20392,419.3896],[20.39383,44.2035,425.4638],[20.38483,44.20252,399.5482],[20.38277,44.20211,389.7052],[20.38101,44.20141,339.7812],[20.37915,44.19996,382.4867],[20.37781,44.19813,331.1108],[20.37605,44.19472,309.8552],[20.37507,44.1911,307.4949],[20.37502,44.18883,321.11],[20.376,44.18369,347.0094],[20.37584,44.18164,344.909],[20.37465,44.17891,262.0765],[20.37336,44.17705,236.3299],[20.37222,44.17591,246.2739],[20.37088,44.17487,302.3844],[20.36845,44.17369,373.3895],[20.36654,44.17332,373.3895],[20.36447,44.17325,366.4691],[20.35739,44.17382,409.5869],[20.35424,44.17374,485.2994],[20.35124,44.17327,418.5994],[20.34856,44.17247,423.7617],[20.34597,44.17141,463.6674],[20.33962,44.16816,338.4166],[20.3376,44.1665,336.6924],[20.33626,44.16469,318.9031],[20.33595,44.16278,302.6257],[20.33714,44.15803,323.4594],[20.33729,44.15513,286.6022],[20.33677,44.15374,307.5508],[20.33512,44.15196,304.6902],[20.33063,44.14862,276.5372],[20.32804,44.14723,308.8434],[20.3161,44.14402,471.1879],[20.30825,44.14069,587.2614],[20.30081,44.13803,546.9467],[20.29843,44.13682,552.954],[20.29621,44.13539,565.6859],[20.29295,44.13255,582.9302],[20.29197,44.13116,545.6729],[20.29099,44.12909,520.5359],[20.28954,44.12485,511.1528],[20.28846,44.12294,541.1374],[20.28675,44.12144,577.1149],[20.2851,44.12072,607.5095],[20.28308,44.1203,639.3323],[20.27972,44.11994,658.1123],[20.26091,44.11984,609.3063],[20.25719,44.11966,569.4487],[20.25358,44.11922,635.781],[20.24892,44.11801,743.8661],[20.23957,44.11431,750.2112],[20.23626,44.11328,698.0063],[20.22918,44.11165,677.8275],[20.22624,44.11147,651.4937],[20.22329,44.11173,683.0264],[20.21244,44.11395,636.0988],[20.2096,44.114,599.5345],[20.20758,44.11372,610.7167],[20.19864,44.11183,644.6992],[20.19559,44.11152,643.8934],[20.19249,44.11149,656.7905],[20.18206,44.11253,693.6378],[20.1789,44.11235,672.567],[20.17653,44.11193,691.7323],[20.17425,44.11126,673.3427],[20.17141,44.10992,720.3891],[20.16738,44.10708,753.1065],[20.16252,44.10193,673.0477],[20.16035,44.10046,688.7664],[20.15828,44.09979,706.2473],[20.15606,44.09948,707.9654],[20.15182,44.09953,699.6011],[20.15048,44.09979,699.6011],[20.12914,44.09669,665.0783],[20.12697,44.09617,688.0226],[20.12521,44.09537,696.8473],[20.12356,44.09377,688.9734],[20.12273,44.09178,660.0956],[20.12263,44.08966,649.9492],[20.12304,44.08744,662.6589],[20.12748,44.07741,641.9691],[20.12769,44.07607,645.8835],[20.12738,44.07493,640.6968],[20.1263,44.07416,640.6968],[20.12464,44.07369,675.7868],[20.12278,44.07359,721.0417],[20.12072,44.07377,731.0258],[20.11756,44.07457,739.865],[20.10966,44.07793,717.2993],[20.10728,44.07871,713.6947],[20.1048,44.07933,696.498],[20.09519,44.08103,711.1009],[20.08325,44.08413,795.3905],[20.07922,44.08473,762.9614],[20.07493,44.08504,800.6423],[20.06201,44.08532,778.8745],[20.06372,44.08183,721.0983],[20.07012,44.07108,735.5854],[20.07105,44.06739,727.0988],[20.07069,44.06532,716.6509],[20.06914,44.06294,708.7269],[20.06237,44.05612,639.1227],[20.05948,44.05126,596.7332],[20.05901,44.04917,585.8414],[20.05907,44.04703,552.573],[20.05963,44.04493,564.3683],[20.06242,44.0399,517.1934],[20.06304,44.03736,519.5289],[20.06253,44.03581,521.7365],[20.06139,44.03437,581.2887],[20.05731,44.03088,584.6331],[20.05627,44.02966,593.3224],[20.05534,44.02765,618.3227],[20.05529,44.02672,630.9238],[20.05555,44.02538,616.7362],[20.05648,44.02351,574.786],[20.05824,44.02168,599.6738],[20.06062,44.02,674.9232],[20.06925,44.01519,760.4771],[20.07162,44.01336,784.8337],[20.07343,44.01153,754.502],[20.07457,44.00961,789.1814],[20.07472,44.0077,802.605],[20.0739,44.00574,843.3539],[20.071,44.00191,811.9653],[20.06894,44.00011,760.4783],[20.0617,43.99473,810.6006],[20.06041,43.99328,777.1024],[20.05938,43.99168,699.2854],[20.05596,43.98357,631.8473],[20.05565,43.98238,608.8218],[20.05576,43.98119,621.843],[20.05643,43.98011,598.7609],[20.05834,43.97887,625.5598],[20.0664,43.97685,635.977],[20.06785,43.97618,635.977],[20.06899,43.97476,654.4153],[20.06899,43.97354,629.811],[20.06847,43.9723,629.811],[20.06542,43.96874,614.3022],[20.06465,43.96729,614.3022],[20.06428,43.96579,585.4409],[20.06454,43.96391,591.4007],[20.06589,43.96202,592.744],[20.06801,43.96029,557.5723],[20.07085,43.95866,527.7178],[20.08723,43.95106,672.6634],[20.09167,43.95008,722.1245],[20.09622,43.94988,716.5284],[20.09948,43.94316,730.6948],[20.10304,43.93753,681.3628],[20.10418,43.93489,527.877],[20.10408,43.93282,531.3109],[20.10315,43.93101,578.7966],[20.10165,43.92928,527.9774],[20.09839,43.92629,501.4962],[20.09669,43.92507,590.7762],[20.09033,43.92202,612.9478],[20.08826,43.92052,589.3101],[20.08744,43.91923,584.8918],[20.08707,43.91784,591.6347],[20.08707,43.91582,617.0637],[20.08775,43.91381,633.5703],[20.08914,43.91174,612.1044],[20.09948,43.90104,581.2665],[20.10123,43.89985,609.3066],[20.11054,43.89453,411.8236],[20.11632,43.8905,323.6886],[20.12826,43.88549,398.5629],[20.13932,43.88249,567.2976],[20.1556,43.87704,591.0206],[20.14371,43.87453,516.5269],[20.13596,43.87345,382.9601],[20.12821,43.87321,409.6164],[20.11679,43.87391,294.3073],[20.11451,43.8737,352.5021],[20.11234,43.87324,351.6258],[20.10955,43.87205,302.8335],[20.10594,43.86916,299.8066],[20.1048,43.86787,296.5392],[20.10222,43.86394,296.5045],[20.10041,43.8619,296.4831],[20.09317,43.85665,298.1544],[20.09193,43.8552,297.9094],[20.08992,43.85154,323.5388],[20.0879,43.84642,300.4869],[20.08759,43.84425,300.6053],[20.08769,43.84208,302.8145],[20.08842,43.84001,302.4441],[20.09038,43.83732,303.0607],[20.09348,43.83479,303.4153],[20.09539,43.83384,303.2521],[20.10216,43.83161,307.906],[20.10377,43.83081,314.4184],[20.10537,43.82924,317.6915],[20.10635,43.8273,316.162],[20.10676,43.82523,312.0717],[20.10671,43.82306,311.3472],[20.1063,43.82094,311.4786],[20.10526,43.8181,313.6518],[20.10485,43.81487,392.6904],[20.10516,43.81399,392.6904],[20.10645,43.81216,399.7314],[20.11343,43.80492,314.2282],[20.11539,43.80353,313.7612],[20.12201,43.80032,342.2209],[20.12593,43.79748,384.0091],[20.12862,43.79433,362.3099],[20.13012,43.79157,363.6907],[20.13048,43.78952,350.7178],[20.13022,43.78808,369.7588],[20.12955,43.78668,390.0303],[20.12759,43.78492,400.6249],[20.12423,43.78275,397.6654],[20.12201,43.78074,360.4529],[20.12077,43.77916,386.5069],[20.11963,43.77681,377.1886],[20.11911,43.77469,423.46],[20.11917,43.77366,463.027],[20.1219,43.76694,525.6912],[20.12263,43.76446,529.6841],[20.12273,43.76214,523.7227],[20.12175,43.75666,476.5921],[20.12144,43.75299,457.031],[20.1218,43.751,453.4994],[20.12382,43.74648,464.2109],[20.12361,43.74183,419.5688],[20.12407,43.74002,419.5404],[20.12526,43.73847,423.2148],[20.12697,43.73705,479.3691],[20.12914,43.73581,486.72],[20.13586,43.73281,446.7827],[20.14335,43.72862,473.46],[20.1494,43.72609,470.8679],[20.16278,43.72193,474.3707],[20.16469,43.72056,506.4025],[20.16542,43.7193,509.774],[20.16573,43.71787,471.6928],[20.16624,43.71098,583.4601],[20.16671,43.70955,590.8325],[20.16898,43.70565,602.1157],[20.16934,43.70426,623.8757],[20.16893,43.70147,587.3024],[20.1681,43.6995,554.7127],[20.16433,43.694,504.4138],[20.16149,43.68772,533.4906],[20.16045,43.68617,491.632],[20.15927,43.6847,531.4868],[20.15518,43.681,595.957],[20.1542,43.67981,567.9791],[20.15348,43.6778,591.3815],[20.15358,43.6769,557.2278],[20.15456,43.67503,536.8918],[20.15637,43.67325,582.3215],[20.1587,43.67152,576.7859],[20.16939,43.6656,622.5594],[20.17296,43.66297,593.5687],[20.1741,43.66137,618.5981],[20.17482,43.65961,589.3822],[20.17503,43.65785,568.7162],[20.17487,43.6561,644.4567],[20.17384,43.65351,679.1938],[20.17296,43.65227,641.5332],[20.17105,43.65,607.0266],[20.1697,43.64798,591.1744],[20.16852,43.64579,556.9308],[20.16666,43.64028,493.5587],[20.16557,43.63798,504.4828],[20.16443,43.63656,521.5792],[20.16304,43.63524,508.2545],[20.16066,43.63359,415.8152],[20.15797,43.63238,413.4116],[20.15586,43.63191,413.7792],[20.15368,43.63186,416.1584],[20.15079,43.63248,417.2343],[20.14516,43.63455,418.9423],[20.13534,43.63922,416.1237],[20.13234,43.64039,454.8949],[20.1294,43.64113,477.4769],[20.12413,43.64212,498.2359],[20.11038,43.6438,760.2224],[20.10749,43.64369,778.3781],[20.10046,43.64183,936.1964],[20.09751,43.64173,921.1473],[20.09245,43.64261,912.0457],[20.08924,43.64483,882.7616],[20.08904,43.64493,882.7616],[20.08852,43.64498,846.5913],[20.08738,43.64498,846.5913],[20.08434,43.64506,713.3945],[20.08309,43.64498,713.3945],[20.08268,43.6448,713.3945],[20.08242,43.64452,671.6043],[20.08232,43.64413,671.6043],[20.08232,43.64328,681.4449],[20.08232,43.64235,681.4449],[20.08253,43.6415,707.4307],[20.08278,43.64111,727.5663],[20.0834,43.64033,783.4578],[20.08578,43.63791,845.9231],[20.08568,43.62504,667.775],[20.0848,43.61902,689.5569],[20.0849,43.61692,707.8809],[20.08599,43.61269,631.8032],[20.08568,43.61078,632.9135],[20.08439,43.60886,692.1934],[20.08247,43.60705,741.7231],[20.0801,43.60545,726.0257],[20.07741,43.60406,812.4924],[20.07519,43.60323,874.1788],[20.06997,43.60194,980.5912],[20.06594,43.60132,933.7716],[20.06304,43.60142,902.2712],[20.06103,43.60181,956.6183],[20.05627,43.60323,932.7827],[20.05111,43.60514,997.3817],[20.04852,43.60581,976.5485],[20.04568,43.60602,956.4614],[20.04341,43.60581,1016.7382],[20.04119,43.60525,1078.1755],[20.03839,43.60408,1098.1249],[20.03281,43.6007,1341.6343],[20.0184,43.59052,899.3298],[20.01276,43.58706,1012.7292],[20.0077,43.58483,1152.1027],[20.00036,43.58246,1153.0931],[19.9984,43.5815,1165.6575],[19.99664,43.58034,1147.2404],[19.98088,43.56742,1075.0979],[19.977,43.56078,882.6485],[19.9753,43.55925,906.5712],[19.97364,43.55848,929.7836],[19.9661,43.55662,918.3959],[19.95675,43.55378,1244.1517],[19.95365,43.55341,1260.5599],[19.94961,43.55419,1198.5996],[19.94579,43.55584,1168.4534],[19.93907,43.56049,1277.906],[19.92517,43.5685,1121.5077],[19.90884,43.57584,854.0731],[19.90698,43.56969,1033.2192],[19.90646,43.56682,1040.4303],[19.90631,43.56375,1107.7958],[19.90683,43.56137,1151.0781],[19.90745,43.55982,1197.3971],[19.91065,43.55414,1257.0432],[19.91132,43.5522,1258.9878],[19.91132,43.5499,1241.0917],[19.91075,43.54866,1228.1743],[19.90977,43.54732,1228.1743],[19.90843,43.54613,1176.1121],[19.90662,43.54509,1223.0513],[19.89908,43.54192,1085.0593],[19.8967,43.54034,1072.3004],[19.89473,43.53858,1133.2367],[19.89365,43.53662,1154.0978],[19.8937,43.53476,1167.5479],[19.89463,43.5328,1205.0773],[19.8997,43.52659,1099.2261],[19.90321,43.52055,1216.4857],[19.90497,43.51853,1187.2477],[19.90951,43.51481,1116.0911],[19.91478,43.51156,1084.3154],[19.91768,43.51026,1144.6268],[19.92248,43.509,1226.1082],[19.92652,43.50851,1205.3086],[19.93468,43.50789,1207.244],[19.93856,43.50732,1150.083],[19.94202,43.50639,1114.4845],[19.95096,43.50282,1257.7854],[19.95251,43.50194,1212.5123],[19.95406,43.50029,1125.4565],[19.9552,43.49835,1152.8291],[19.95685,43.4943,1211.1288],[19.95804,43.49244,1264.7496],[19.95974,43.49094,1206.241],[19.96145,43.49021,1142.0793],[19.96346,43.48977,1122.2361],[19.96693,43.48939,1053.5791],[19.97845,43.48905,1177.4569],[19.98605,43.48843,1259.7487],[19.9953,43.48629,1248.2751],[19.99721,43.48556,1266.5682],[19.99953,43.48401,1304.5868],[20.00181,43.48156,1239.7092],[20.00289,43.47895,1204.6438],[20.00465,43.47063,1073.0342],[20.00563,43.46859,1181.5383],[20.00703,43.4668,1202.7325],[20.01106,43.46365,1126.7168],[20.01209,43.46249,1126.7168],[20.01313,43.46045,1142.7593],[20.01318,43.45817,1254.1431],[20.01101,43.45055,1272.9409],[20.0108,43.44779,1245.1813],[20.01106,43.445,1257.8701],[20.01183,43.44241,1253.8325],[20.01834,43.43228,1219.0073],[20.02212,43.42732,1229.6576],[20.02393,43.42533,1201.9451],[20.02821,43.42185,1263.3441],[20.0293,43.42048,1262.5284],[20.02904,43.41968,1259.7335],[20.02827,43.41937,1259.7335],[20.03566,43.41048,1173.9658],[20.0433,43.4035,1147.0499],[20.04821,43.39833,1147.2769],[20.04961,43.39642,1109.5747],[20.05204,43.38996,1178.3738],[20.05307,43.38787,1187.1401],[20.05493,43.38562,1148.0957],[20.05731,43.3835,1207.2627],[20.06511,43.37735,1248.3491],[20.07503,43.36771,1161.7264],[20.07633,43.36578,1146.1226],[20.07684,43.36387,1161.8978],[20.077,43.36118,1134.6515],[20.07746,43.35929,1169.1887],[20.0787,43.35735,1190.8877],[20.08346,43.35154,1179.8091],[20.08573,43.3463,1265.12],[20.08733,43.34438,1242.6577],[20.09576,43.33684,1341.8296],[20.0972,43.33482,1396.9468],[20.09782,43.33286,1413.2146],[20.09772,43.33084,1440.9213],[20.097,43.32891,1428.8562],[20.0957,43.32723,1349.3633],[20.09297,43.32526,1245.766],[20.09121,43.32366,1214.7522],[20.09048,43.32237,1219.718],[20.09028,43.32097,1188.2096],[20.09048,43.31906,1224.9368],[20.09193,43.31632,1209.6376],[20.09333,43.31444,1195.6355],[20.09601,43.31193,1231.1663],[20.10041,43.30901,1183.2191],[20.10687,43.30609,1214.5801],[20.1096,43.30464,1284.0417],[20.1173,43.29844,1300.5507],[20.11896,43.29741,1311.7944],[20.12165,43.29653,1258.8716],[20.12361,43.29635,1258.8716],[20.12562,43.29653,1262.7463],[20.128,43.29725,1314.4437],[20.13555,43.30064,1205.6676],[20.13767,43.30121,1225.2755],[20.14371,43.30191,1274.3245],[20.15539,43.30258,1284.7891],[20.15911,43.30315,1294.0361],[20.16598,43.30516,1205.6592],[20.17379,43.308,1221.3505],[20.17756,43.30867,1222.92],[20.18159,43.30898,1264.1438],[20.19818,43.30924,1293.1182],[20.20226,43.30945,1352.7817],[20.20614,43.30997,1275.7747],[20.2173,43.31278,1313.6609],[20.22893,43.31431,1387.6251],[20.23249,43.31511,1426.6671],[20.23797,43.3172,1490.3031],[20.24066,43.31782,1356.0164],[20.2419,43.31787,1297.3142],[20.24469,43.31751,1272.52],[20.25223,43.31555,1233.0693],[20.25409,43.31477,1284.9915],[20.25637,43.31322,1248.1411],[20.25905,43.31074,1177.0718],[20.26443,43.30666,1173.485],[20.26598,43.30459,1238.1556],[20.26691,43.30229,1222.2383],[20.26742,43.29855,1070.5815],[20.27781,43.28904,1289.2102],[20.28169,43.28413,1418.1423],[20.2851,43.27875,1382.2012],[20.28706,43.27695,1456.2136],[20.29321,43.27369,1117.288],[20.29791,43.27007,996.7733],[20.30039,43.26839,1027.2764],[20.30246,43.26744,1054.9312],[20.31063,43.26506,1279.7527],[20.31321,43.26392,1186.4983],[20.31631,43.26186,1140.1453],[20.31889,43.26051,1158.0771],[20.32106,43.26002,1167.1121],[20.32334,43.25984,1220.7268],[20.32623,43.26005,1270.4404],[20.3283,43.26072,1389.7319],[20.33357,43.2754,1653.496],[20.3345,43.28237,1684.2593],[20.33579,43.28439,1701.4468],[20.33703,43.28547,1689.7838],[20.33853,43.2864,1701.4291],[20.34504,43.2894,1712.9497],[20.35031,43.29237,1736.1428],[20.35936,43.29565,1671.3138],[20.36117,43.29656,1591.3074],[20.36618,43.3003,1500.5131],[20.36902,43.30291,1469.0405],[20.37336,43.30929,1534.0404],[20.37868,43.31482,1582.115],[20.38266,43.32224,1571.2458],[20.38411,43.324,1567.7554],[20.38799,43.32712,1498.468],[20.39021,43.32842,1505.5398],[20.39253,43.32945,1542.2439],[20.39507,43.33017,1548.3427],[20.39724,43.33038,1493.8029],[20.40581,43.3303,1448.366],[20.40762,43.33069,1406.3926],[20.40933,43.33128,1373.2761],[20.4116,43.3325,1342.5796],[20.41274,43.33348,1403.1407],[20.41372,43.33539,1414.9165],[20.41357,43.33909,1293.3489],[20.41398,43.34087,1377.4167],[20.41465,43.34211,1452.4644],[20.41739,43.34495,1509.8894],[20.42003,43.34684,1472.6862],[20.42096,43.34779,1446.8213],[20.42142,43.34883,1425.9418],[20.42142,43.35007,1425.9418],[20.4207,43.35131,1379.2947],[20.41884,43.35296,1333.0089],[20.41398,43.35629,1261.4048],[20.41057,43.35963,1312.0933],[20.40964,43.3611,1240.0951],[20.40891,43.36332,1166.5594],[20.40902,43.36689,1245.5776],[20.41155,43.37293,1120.4509],[20.41238,43.37544,997.4088],[20.41243,43.37668,997.4088],[20.41207,43.37699,997.4088],[20.41088,43.3774,985.6696],[20.40375,43.37916,1013.61],[20.40163,43.37999,957.1562],[20.39941,43.38154,964.5208],[20.39775,43.3834,913.3469],[20.39641,43.38609,910.6972],[20.39656,43.38802,959.0251],[20.39786,43.39012,1072.947],[20.4039,43.39621,1223.4772],[20.4053,43.39833,1152.5212],[20.40571,43.40025,1116.8259],[20.4054,43.40218,1108.071],[20.40401,43.40433,1142.4574],[20.40003,43.40784,1063.2965],[20.39796,43.41019,1014.6369],[20.39729,43.41239,1024.7031],[20.39656,43.41658,1028.1763],[20.39507,43.41999,829.2045],[20.39465,43.42167,892.1738],[20.39476,43.42257,987.5205],[20.39569,43.42469,1001.8898],[20.39868,43.42913,1054.8296],[20.39972,43.43177,1046.6318],[20.4009,43.43735,972.0162],[20.40271,43.44316,1096.4424],[20.40328,43.44593,1159.7628],[20.40339,43.44872,1231.3887],[20.40297,43.45148,1416.7291],[20.40189,43.45404,1460.3555],[20.40044,43.4558,1414.0587],[20.39858,43.4574,1430.3583],[20.39269,43.46117,1321.016],[20.39041,43.46288,1210.1244],[20.38866,43.46476,1123.9309],[20.38747,43.46675,1131.9255],[20.38561,43.47091,895.6893],[20.38349,43.47399,759.0337],[20.37026,43.4859,910.5385],[20.3623,43.49094,899.3547],[20.36003,43.4928,922.2813],[20.35755,43.49538,871.5795],[20.35481,43.49915,825.2867],[20.35362,43.50034,794.5821],[20.35228,43.50143,834.5292],[20.34995,43.50282,839.1305],[20.34814,43.50344,839.1305],[20.34308,43.50458,877.6558],[20.34029,43.50569,905.8864],[20.33781,43.50727,933.8196],[20.32665,43.51523,1020.4515],[20.31879,43.51998,1174.7113],[20.31693,43.52166,1164.4386],[20.3128,43.52659,1033.1055],[20.30742,43.53068,936.7989],[20.30577,43.5322,892.1951],[20.3053,43.53321,892.1951],[20.30587,43.53476,938.3912],[20.30773,43.53615,989.2936],[20.30949,43.53706,1059.7853],[20.31528,43.53946,1222.7675],[20.32494,43.54298,1120.6029],[20.3436,43.55099,1034.0769],[20.34887,43.55414,1112.8247],[20.35269,43.55739,1144.0458],[20.35419,43.55915,1151.1393],[20.35734,43.56535,1173.3059],[20.36613,43.57628,1188.2749],[20.36726,43.57812,1163.5603],[20.36778,43.58023,1102.8715],[20.36773,43.5824,1145.4922],[20.36654,43.5883,1204.6133],[20.36644,43.59122,1136.2002],[20.36664,43.59426,1155.9972],[20.36804,43.59977,1084.0332],[20.36923,43.60292,1102.127],[20.37062,43.60346,1102.127],[20.37238,43.60499,1125.9291],[20.37326,43.60664,1081.1766],[20.37341,43.60845,1078.7903],[20.37284,43.6101,1102.9575],[20.37109,43.61189,1073.9771],[20.36809,43.61403,985.0109],[20.36633,43.61579,990.0058],[20.36354,43.61909,1033.5762],[20.35776,43.62757,999.6141],[20.35734,43.62881,970.2522],[20.35739,43.62964,970.2522],[20.35843,43.63145,926.3746],[20.36055,43.63294,842.1139],[20.36649,43.63558,830.6724],[20.37719,43.63974,1098.1404],[20.38127,43.64201,1116.5066],[20.3854,43.64483,1091.1412],[20.38799,43.64635,1052.251],[20.39005,43.6471,985.7084],[20.39222,43.64752,973.2976],[20.39507,43.64767,1001.3344],[20.39786,43.64736,963.5096],[20.40633,43.64504,897.3773],[20.40985,43.64467,967.7706],[20.41346,43.64493,974.9389],[20.41723,43.64602,1118.3116],[20.42044,43.64736,966.9833],[20.42209,43.64842,965.2634],[20.42638,43.65253,906.9055],[20.42855,43.65372,853.5201],[20.43021,43.65403,819.7404],[20.43196,43.65392,711.9849],[20.43455,43.65305,657.3248],[20.43687,43.6515,566.9036],[20.44152,43.64765,686.1123],[20.44323,43.64659,755.287],[20.44623,43.64524,799.098],[20.44819,43.64465,852.3183],[20.45186,43.64421,914.212],[20.45542,43.64455,825.9374],[20.45821,43.64555,681.6592],[20.46007,43.64685,696.9207],[20.46157,43.64845,782.7029],[20.46514,43.65548,892.0018],[20.46607,43.65989,1011.2433],[20.46628,43.66359,1018.2448],[20.46586,43.66566,948.5566],[20.461,43.6756,619.0776],[20.45961,43.67976,402.3319],[20.45935,43.6825,464.3139],[20.45956,43.68803,500.4031],[20.4608,43.69372,552.8503],[20.46085,43.69583,614.8555],[20.46018,43.69785,575.9797],[20.45883,43.69958,554.615],[20.45687,43.70116,504.0309],[20.45439,43.70253,489.6315],[20.43672,43.70937,531.4745],[20.43863,43.71222,581.8517],[20.44245,43.72085,753.145],[20.44349,43.7224,730.5946],[20.44617,43.72532,661.0462],[20.44783,43.72658,597.7379],[20.44979,43.72762,519.6394],[20.45196,43.72847,482.3746],[20.45899,43.73041,404.2568],[20.4685,43.73165,501.2687],[20.47387,43.73273,428.4311],[20.47599,43.73356,407.6365],[20.48338,43.73733,381.5516],[20.48736,43.73867,333.2624],[20.48922,43.73904,321.3693],[20.49201,43.73909,300.4796],[20.49397,43.73886,368.3926],[20.50271,43.73723,347.0958],[20.50555,43.7372,336.5842],[20.50953,43.73795,308.4272],[20.51439,43.7394,340.5063],[20.51857,43.74105,304.2572],[20.52343,43.74353,288.1027],[20.52591,43.74521,265.3107],[20.52937,43.74844,247.0671],[20.53035,43.75017,249.6024],[20.53056,43.75211,249.2436],[20.53015,43.75345,249.2436],[20.52844,43.75686,249.1153],[20.52364,43.76441,258.7003],[20.52276,43.76772,248.784],[20.52333,43.76986,247.7968],[20.52389,43.77069,246.9476],[20.52803,43.77472,236.8169],[20.5288,43.77598,232.9365],[20.53025,43.77996,231.4552],[20.53108,43.7812,232.0149],[20.53309,43.78283,228.6691],[20.5364,43.78449,219.2574],[20.54193,43.78614,215.2744],[20.54617,43.78777,214.1572],[20.56126,43.7981,205.8708],[20.5627,43.79934,207.3733],[20.56379,43.80076,209.3761],[20.56441,43.80229,204.8746],[20.56451,43.8043,205.1665],[20.56394,43.80634,202.3987],[20.56255,43.80839,204.4771],[20.55909,43.81231,207.8464],[20.55785,43.81433,208.0975],[20.55743,43.81624,208.3161],[20.55785,43.8181,209.2717],[20.55909,43.81975,211.1562],[20.56048,43.82074,211.0458],[20.56906,43.82549,210.8873],[20.57113,43.82733,212.8791],[20.57345,43.82993,210.7677],[20.57547,43.83164,212.1718],[20.5811,43.83484,219.4877],[20.58544,43.83784,218.3023],[20.59381,43.84518,232.521],[20.5966,43.84686,231.8161],[20.62079,43.85918,336.5728],[20.61392,43.8644,297.6452],[20.60606,43.86991,288.871],[20.60415,43.87208,279.6615],[20.60115,43.87735,261.774],[20.59671,43.88293,258.0197],[20.59433,43.88637,270.7946],[20.59107,43.89189,284.3954],[20.58803,43.89551,298.2776],[20.58327,43.90042,304.712],[20.57924,43.90321,330.9889],[20.57645,43.90456,324.6901],[20.57175,43.906,381.6188],[20.56549,43.90724,422.0339],[20.56084,43.90861,439.7868],[20.55309,43.91238,379.9073],[20.54767,43.91561,424.7046],[20.54612,43.91711,433.5504],[20.54508,43.91882,437.1573],[20.54477,43.9198,437.1573],[20.54436,43.93045,543.0482],[20.54338,43.93422,543.8372],[20.5424,43.93564,561.8777],[20.54017,43.93734,584.0699],[20.53614,43.93923,615.1855],[20.53149,43.94197,644.2987],[20.52813,43.94484,710.1946],[20.52622,43.94693,722.9976],[20.53769,43.95112,700.8782],[20.54152,43.95274,680.1422],[20.54493,43.95453,637.7431],[20.55402,43.96055,562.8215],[20.5627,43.96512,465.0471],[20.56503,43.96677,443.9733],[20.56648,43.96882,463.1221],[20.56694,43.97083,475.0735],[20.56689,43.97287,483.6143],[20.56617,43.97582,497.8229],[20.56601,43.97794,532.3803],[20.56632,43.98005,531.3181],[20.5688,43.98491,587.2251],[20.57242,43.98956,594.6523],[20.57521,43.99204,627.6146],[20.58033,43.9953,757.3389],[20.58803,43.99928,697.9023],[20.59123,44.00153,645.5439],[20.59221,44.00284,623.1967],[20.59273,44.00429,663.4246],[20.59319,44.00879,695.1954],[20.59392,44.01013,695.1954],[20.595,44.01127,637.3474],[20.59728,44.01217,523.5965],[20.59903,44.0123,523.5965],[20.60089,44.01204,536.775],[20.6026,44.01145,515.0901],[20.60771,44.00827,484.619],[20.61045,44.00675,525.2966],[20.61335,44.00551,499.5992],[20.6151,44.00491,511.7743],[20.61681,44.0046,500.1787]]]}
,"properties": {"ISO3166-1-Alpha-3": "SRB","country": "Republic of Serbia","fill": "#F0F","name": "Moravicki","area_km2": 3046.852,"hist_schema_id": "Elevation0-9000","hist_area_km2": {"200": 14.335,"225": 108.69,"250": 83.357,"275": 63.004,"300": 73.121,"325": 82.095,"350": 102.966,"375": 111.6,"400": 120.235,"425": 130.194,"450": 130.61,"475": 123.11,"500": 116.013,"525": 107.036,"550": 99.057,"575": 92.704,"600": 87.684,"625": 80.457,"650": 77.303,"675": 73.697,"700": 69.338,"725": 58.701,"750": 53.555,"775": 48.983,"800": 43.453,"825": 39.578,"850": 36.488,"875": 35.995,"900": 34.222,"925": 35.442,"950": 34.51,"975": 35.145,"1000": 34.579,"1025": 33.506,"1050": 33.557,"1075": 33.422,"1100": 33.703,"1125": 33.199,"1150": 34.835,"1175": 35.053,"1200": 36.211,"1225": 39.464,"1250": 38.592,"1275": 35.608,"1300": 31.531,"1325": 27.575,"1350": 27.374,"1375": 22.845,"1400": 19.536,"1425": 14.715,"1450": 12.067,"1475": 10.666,"1500": 8.849,"1525": 7.632,"1550": 6.632,"1575": 5.907,"1600": 5.013,"1625": 4.596,"1650": 4.751,"1675": 4.458,"1700": 3.178,"1725": 2.406,"1750": 1.296,"1775": 0.756,"1800": 0.509,"1825": 0.154}}}