{"type":"Feature","properties":{"GID_2":"SRB.10.4_1","GID_0":"SRB","country":"Serbia","GID_1":"SRB.10_1","province":"Nišavski","NL_NAME_1":"Нишавски","county":"Merošina","VARNAME_2":"NA","NL_NAME_2":"Мерошина","TYPE_2":"Opštine","ENGTYPE_2":"Town|Municipal","CC_2":"NA","HASC_2":"NA","name":"Merošina.county"},
"geometry":{"type": "MultiPolygon","coordinates": [[[[21.5939,43.3492,569.4545],[21.5923,43.3335,472.9174],[21.5862,43.3235,511.0366],[21.5787,43.3153,485.5732],[21.5782,43.3117,471.144],[21.5846,43.3035,434.0594],[21.5881,43.2936,409.9687],[21.6015,43.2773,443.2811],[21.6074,43.2746,422.3894],[21.6196,43.2726,390.8391],[21.626,43.2676,384.8093],[21.6253,43.2649,418.9298],[21.6146,43.257,347.92],[21.6107,43.2502,319.3284],[21.611,43.2459,302.6182],[21.6149,43.2394,306.7654],[21.6232,43.2342,282.116],[21.6291,43.2319,272.9224],[21.655,43.2282,260.175],[21.6883,43.2097,276.8413],[21.6934,43.2085,252.7109],[21.701,43.2131,273.2576],[21.6978,43.2288,262.8857],[21.7003,43.2448,293.3319],[21.7025,43.2513,308.6568],[21.708,43.2556,324.4543],[21.7145,43.2553,311.7747],[21.7234,43.2477,282.0243],[21.7289,43.2456,270.0738],[21.7406,43.2465,263.1556],[21.7581,43.2443,249.3446],[21.7758,43.2492,253.0344],[21.7826,43.2493,256.1927],[21.7861,43.2469,248.2],[21.7898,43.2386,230.7762],[21.8006,43.2342,228.3729],[21.8169,43.2367,206.8391],[21.8285,43.2414,184.4661],[21.8129,43.2546,231.9076],[21.8119,43.2652,210.3651],[21.7971,43.2741,206.0882],[21.7911,43.2828,219.223],[21.7871,43.2933,227.2365],[21.7898,43.3102,181.3416],[21.7881,43.3133,178.5453],[21.7762,43.3193,219.921],[21.7515,43.318,286.088],[21.7403,43.3191,269.0206],[21.7377,43.3229,278.1891],[21.7394,43.3308,287.3449],[21.7328,43.3424,230.5984],[21.7019,43.3659,499.3655],[21.6906,43.3662,434.9649],[21.6503,43.3565,556.3229],[21.6432,43.3574,595.564],[21.6313,43.3659,668.6464],[21.6208,43.3671,638.5804],[21.6116,43.3647,694.1965],[21.5961,43.3567,638.8372],[21.5929,43.3525,526.769],[21.5939,43.3492,569.4545]]]]}}