{"type":"Feature","properties":{"GID_2":"SRB.3.10_1","GID_0":"SRB","country":"Serbia","GID_1":"SRB.3_1","province":"GradBeograd","NL_NAME_1":"Београд","county":"SavskiVenac","VARNAME_2":"NA","NL_NAME_2":"СавскиВенац","TYPE_2":"Opštine","ENGTYPE_2":"Town|Municipal","CC_2":"NA","HASC_2":"NA","name":"Savski_Venac.county"},
"geometry":{"type": "MultiPolygon","coordinates": [[[[20.4305,44.7578,217.1075],[20.4372,44.7487,149.8728],[20.4389,44.7371,97.76],[20.4458,44.7353,107.7739],[20.457,44.7398,207.4977],[20.4568,44.7435,200.4205],[20.4521,44.7503,115.2133],[20.4478,44.767,89.4259],[20.4478,44.7748,141.1649],[20.4511,44.7839,175.6909],[20.4342,44.7828,79.588],[20.4307,44.7864,85.3394],[20.4183,44.7841,108.2057],[20.4071,44.7852,76.2062],[20.4118,44.7689,101.3278],[20.4305,44.7578,217.1075]]]]}}