{"type": "Feature","bbox": [19.7035,45.3481,19.964,45.4988],"geometry": {"type": "MultiPolygon","coordinates": [[[[19.9107,45.3523,81.3848],[19.931,45.3667,80.636],[19.937,45.3731,81.5842],[19.9377,45.3781,81.6523],[19.9261,45.3914,80.8751],[19.9255,45.3956,80.868],[19.9275,45.4042,81.8049],[19.9359,45.4135,80.1819],[19.9461,45.4303,79.9685],[19.9629,45.4429,79.1238],[19.964,45.4468,77.6801],[19.9607,45.4525,77.9185],[19.9328,45.4662,77.4975],[19.9187,45.4694,79.8629],[19.8961,45.4707,80.8854],[19.8751,45.4783,81.5172],[19.8656,45.4785,81.1459],[19.8519,45.4761,80.7451],[19.8344,45.4701,81.1706],[19.8142,45.4727,81.9554],[19.7887,45.4841,81.3582],[19.7695,45.4951,79.974],[19.7487,45.4988,80.922],[19.743,45.4828,81.4598],[19.7449,45.4678,80.3574],[19.7387,45.4568,79.8126],[19.7437,45.4502,80.231],[19.7438,45.4474,80.5319],[19.7213,45.4317,80.7395],[19.7035,45.4152,83.0421],[19.7371,45.4213,80.8993],[19.7863,45.4177,80.1278],[19.7943,45.4138,81.4728],[19.8015,45.4056,79.5323],[19.8025,45.4017,80.0576],[19.7998,45.3919,79.6364],[19.8034,45.3857,80.6714],[19.8089,45.3815,80.4174],[19.8257,45.3766,80.2809],[19.842,45.3657,81.3118],[19.8627,45.3588,80.5434],[19.8822,45.3487,80.8213],[19.8928,45.3481,81.1352],[19.9107,45.3523,81.3848]]]]}
,"properties": {"GID_2": "SRB.5.9_1","GID_0": "SRB","country": "Serbia","GID_1": "SRB.5_1","province": "Južno-Bački","NL_NAME_1": "Јужнобачки","county": "Temerin","VARNAME_2": "NA","NL_NAME_2": "Темерин","TYPE_2": "Opštine","ENGTYPE_2": "Town|Municipal","CC_2": "NA","HASC_2": "NA","name": "Temerin.county","area_km2": 174.7978,"hist_schema_id": "Elevation0-9000","hist_area_km2": {"75": 174.6787,"100": 0.1191}}}