{"type": "Feature","bbox": [20.7603,43.1258,21.5672,43.841],"geometry": {"type": "MultiPolygon","coordinates": [[[[20.8894,43.1265,985.7751],[20.8939,43.1258,951.0901],[20.9072,43.1343,1111.3297],[20.9326,43.1624,1220.6979],[20.945,43.1671,1120.1418],[20.9549,43.1753,1005.8194],[20.9557,43.1781,1130.8719],[20.9524,43.1852,1081.4142],[20.9484,43.2084,848.608],[20.9483,43.2191,824.7916],[20.9511,43.2246,917.4779],[20.9658,43.2377,1040.7476],[20.9671,43.2418,1021.0331],[20.9655,43.2478,886.9008],[20.968,43.2511,799.6862],[20.9874,43.255,700.1844],[21.0012,43.2499,698.309],[21.0119,43.248,721.765],[21.0361,43.255,626.5094],[21.0514,43.2491,564.9911],[21.058,43.2411,581.8323],[21.0726,43.2359,628.796],[21.0879,43.2363,684.7396],[21.1064,43.2423,994.35],[21.1318,43.2531,1028.3812],[21.1404,43.263,866.7002],[21.1496,43.2674,792.0189],[21.1513,43.2709,839.2855],[21.1525,43.2817,1012.8462],[21.1601,43.29,793.3233],[21.164,43.3,770.6856],[21.1973,43.3204,659.8972],[21.2004,43.3294,613.4382],[21.1975,43.3369,437.6887],[21.1982,43.3424,399.2836],[21.202,43.3467,538.2059],[21.2128,43.354,630.7816],[21.25,43.3603,622.1782],[21.2976,43.3793,698.4341],[21.3252,43.3818,728.9139],[21.3397,43.3867,784.0458],[21.3574,43.3835,900.147],[21.3763,43.3775,796.323],[21.4041,43.3808,1092.9012],[21.4043,43.3829,1131.0341],[21.4065,43.3841,1195.27],[21.4159,43.3846,1015.202],[21.4231,43.3818,904.7443],[21.4297,43.373,994.2551],[21.434,43.3708,1059.7723],[21.4502,43.3664,941.1663],[21.4634,43.3667,867.3514],[21.4949,43.3741,1108.8127],[21.5116,43.3807,860.879],[21.5148,43.3831,768.8758],[21.5201,43.3928,898.0636],[21.5308,43.3991,709.428],[21.5378,43.4017,666.8015],[21.5499,43.4014,464.5181],[21.5548,43.4038,493.5462],[21.5657,43.4156,412.8947],[21.5667,43.4244,369.417],[21.5641,43.4297,303.1848],[21.5532,43.441,342.5025],[21.5426,43.4622,376.1503],[21.5482,43.472,336.2733],[21.5459,43.4856,322.6876],[21.5655,43.5058,336.8588],[21.5672,43.5119,325.6785],[21.5663,43.5186,342.6369],[21.5642,43.5215,340.553],[21.5403,43.5387,267.0827],[21.5383,43.5427,276.0529],[21.538,43.5509,283.2935],[21.5222,43.5606,224.7957],[21.5182,43.5711,220.7379],[21.514,43.5771,214.4941],[21.481,43.5863,256.6068],[21.4787,43.5917,251.2255],[21.4788,43.5956,286.2441],[21.491,43.6035,159.3114],[21.4924,43.6065,144.3495],[21.4788,43.6098,192.5611],[21.4755,43.612,241.5506],[21.4743,43.6159,300.2201],[21.4755,43.6291,347.3179],[21.4726,43.6383,296.8422],[21.4669,43.6485,194.1782],[21.4564,43.655,257.9116],[21.4543,43.6586,274.2139],[21.4554,43.6619,259.4392],[21.4614,43.6649,259.7932],[21.4702,43.6736,154.1025],[21.4721,43.6777,158.1883],[21.4718,43.6846,203.3298],[21.4736,43.6872,226.5155],[21.4787,43.6891,204.9661],[21.489,43.6874,279.9103],[21.4947,43.688,208.2578],[21.5019,43.6908,282.9677],[21.5078,43.6952,262.5581],[21.5089,43.6985,274.0421],[21.5066,43.7079,342.7452],[21.5012,43.7189,317.152],[21.4766,43.727,225.741],[21.4743,43.73,257.7039],[21.4715,43.741,158.1424],[21.4659,43.7494,169.5374],[21.4603,43.7431,146.2429],[21.4561,43.7409,144.9191],[21.446,43.7404,140.2742],[21.4375,43.7356,136.4251],[21.4214,43.7306,131.5941],[21.4082,43.724,130.8878],[21.4,43.7255,130.6213],[21.3916,43.729,130.8882],[21.3899,43.7314,128.674],[21.3897,43.7347,129.9348],[21.393,43.7375,130.2047],[21.3916,43.7425,131.2091],[21.3772,43.7385,128.4862],[21.3732,43.7397,130.247],[21.3701,43.7435,124.0],[21.3713,43.7479,128.0445],[21.3828,43.7561,129.7012],[21.3827,43.7595,128.0117],[21.3763,43.7608,130.548],[21.3696,43.7561,127.1546],[21.3629,43.7551,128.247],[21.3566,43.7579,127.3927],[21.3561,43.7656,127.4615],[21.3659,43.7712,126.7369],[21.3644,43.7738,127.0774],[21.3612,43.7751,126.9732],[21.3494,43.7704,131.9899],[21.3343,43.772,141.8966],[21.2834,43.7611,246.3932],[21.2755,43.7619,256.2731],[21.2672,43.765,301.5336],[21.2623,43.7684,329.7902],[21.2604,43.7729,377.0204],[21.2672,43.7828,360.5886],[21.2664,43.7932,476.1544],[21.2741,43.8067,386.9137],[21.2749,43.8133,472.004],[21.2736,43.8205,413.987],[21.2777,43.8293,491.2668],[21.2752,43.8334,456.2767],[21.2606,43.841,676.9518],[21.2575,43.8272,634.1924],[21.2419,43.8207,555.5014],[21.2481,43.8064,672.4424],[21.2486,43.7953,649.1936],[21.2415,43.7733,421.2876],[21.2389,43.7692,477.0998],[21.2302,43.7653,421.6311],[21.2154,43.7615,264.9891],[21.2055,43.7529,258.9035],[21.1778,43.738,280.6873],[21.1695,43.7391,247.8765],[21.1542,43.7472,302.7448],[21.1444,43.7489,294.4448],[21.1396,43.747,386.4383],[21.1387,43.7364,464.2136],[21.1353,43.7285,464.0066],[21.137,43.7138,357.4542],[21.1481,43.6871,331.1698],[21.1215,43.6977,276.9547],[21.1102,43.7051,256.5991],[21.0906,43.7133,308.6802],[21.0644,43.7128,324.6337],[21.049,43.7186,367.8979],[21.0244,43.7201,454.4286],[20.9896,43.7285,727.0085],[20.9739,43.7233,450.588],[20.957,43.7282,691.7715],[20.9404,43.7277,509.8853],[20.9345,43.7239,631.9608],[20.9262,43.7247,649.5982],[20.9227,43.727,642.7588],[20.9164,43.7269,506.9426],[20.9163,43.7236,507.804],[20.9203,43.719,584.653],[20.9214,43.7144,605.4998],[20.9143,43.7032,624.0369],[20.9128,43.6954,428.5835],[20.9137,43.6849,426.8757],[20.9172,43.6753,261.9973],[20.8895,43.6579,181.2198],[20.8781,43.6445,204.8799],[20.9139,43.6396,183.856],[20.9178,43.6366,186.5751],[20.9201,43.6304,200.4234],[20.923,43.6276,203.3083],[20.9371,43.6237,225.7436],[20.9514,43.613,238.6318],[20.9504,43.6093,241.3693],[20.9368,43.5995,295.7312],[20.9154,43.5885,438.0878],[20.9082,43.5791,450.3929],[20.9065,43.5723,541.4178],[20.9081,43.5643,741.2579],[20.9159,43.5541,729.7461],[20.9188,43.5446,871.5272],[20.9201,43.5324,905.2687],[20.9301,43.5191,956.6533],[20.9452,43.506,823.9109],[20.9187,43.4967,761.5848],[20.8962,43.4933,705.936],[20.8777,43.4929,863.1934],[20.867,43.4938,889.0351],[20.8545,43.4981,895.7686],[20.8443,43.5074,817.9985],[20.8308,43.5156,890.7983],[20.8246,43.5147,1008.1193],[20.8133,43.5065,1067.3784],[20.806,43.505,1142.6035],[20.7906,43.5045,1295.2782],[20.7791,43.512,1171.1884],[20.7748,43.5129,1141.6456],[20.7603,43.5092,984.6936],[20.7709,43.4919,1189.2808],[20.7808,43.4811,1399.4058],[20.7806,43.4755,1551.8022],[20.7759,43.4676,1275.3228],[20.7825,43.4578,1374.7511],[20.7768,43.4471,1245.1199],[20.7701,43.4244,923.5447],[20.771,43.4158,915.3168],[20.7617,43.4069,1030.8645],[20.7615,43.404,925.5546],[20.7731,43.3887,685.717],[20.7911,43.3821,742.9673],[20.7982,43.3812,786.7409],[20.8147,43.3856,1036.3201],[20.8291,43.383,1309.2666],[20.8326,43.3625,1328.6243],[20.8291,43.3527,1185.2327],[20.832,43.3405,1510.0559],[20.8381,43.3319,1620.3563],[20.8331,43.3238,1736.4187],[20.8237,43.3167,1908.7991],[20.8182,43.3083,1774.2795],[20.8087,43.3025,1656.7473],[20.8058,43.2987,1644.8423],[20.8052,43.2933,1710.0441],[20.8093,43.2834,1728.9138],[20.8081,43.2718,1755.9517],[20.8097,43.2598,1464.9402],[20.8061,43.252,1292.6968],[20.7984,43.2441,1128.213],[20.8048,43.2353,1135.6758],[20.8194,43.2244,1059.9224],[20.8298,43.212,752.1826],[20.8402,43.2054,951.1619],[20.8441,43.1985,1078.5461],[20.8438,43.1904,978.7015],[20.8394,43.1873,1028.272],[20.8246,43.1862,826.6594],[20.8115,43.1827,756.6564],[20.8113,43.1795,835.7496],[20.8187,43.1726,955.9091],[20.8187,43.1689,941.6652],[20.8159,43.1664,888.5005],[20.8007,43.1611,897.1605],[20.7979,43.1553,889.7306],[20.7994,43.153,935.9144],[20.8043,43.151,855.9977],[20.8171,43.1503,612.7971],[20.8314,43.1457,819.2997],[20.8465,43.1452,1039.0901],[20.8718,43.1285,1007.6228],[20.8768,43.1268,1020.0181],[20.8894,43.1265,985.7751]]]]}
,"properties": {"GID_1": "SRB.15_1","GID_0": "SRB","country": "Serbia","province": "Rasinski","VARNAME_1": "Rasina","NL_NAME_1": "Расински","TYPE_1": "Okrug","ENGTYPE_1": "District","CC_1": "NA","HASC_1": "RS.RN","ISO_1": "NA","name": "Rasinski.province","area_km2": 2667.653,"hist_schema_id": "Elevation0-9000","hist_area_km2": {"125": 34.517,"150": 175.094,"175": 134.611,"200": 122.028,"225": 148.2,"250": 153.691,"275": 156.436,"300": 135.723,"325": 115.587,"350": 95.22,"375": 75.807,"400": 65.4,"425": 58.195,"450": 50.435,"475": 47.394,"500": 45.464,"525": 43.872,"550": 43.291,"575": 41.911,"600": 43.5,"625": 43.383,"650": 40.033,"675": 39.485,"700": 36.567,"725": 34.85,"750": 33.702,"775": 32.367,"800": 31.555,"825": 31.264,"850": 30.021,"875": 29.854,"900": 28.685,"925": 28.916,"950": 28.286,"975": 28.379,"1000": 27.993,"1025": 27.916,"1050": 27.698,"1075": 27.928,"1100": 27.619,"1125": 25.677,"1150": 24.442,"1175": 21.712,"1200": 19.446,"1225": 18.107,"1250": 15.376,"1275": 14.527,"1300": 12.922,"1325": 11.071,"1350": 9.93,"1375": 7.925,"1400": 6.799,"1425": 5.997,"1450": 5.643,"1475": 4.918,"1500": 4.609,"1525": 4.871,"1550": 3.545,"1575": 3.315,"1600": 2.698,"1625": 2.035,"1650": 2.052,"1675": 1.82,"1700": 1.759,"1725": 2.129,"1750": 1.944,"1775": 1.883,"1800": 1.775,"1825": 1.343,"1850": 1.543,"1875": 1.08,"1900": 0.988,"1925": 0.417,"1950": 0.232,"1975": 0.154,"2000": 0.093}}}