{"type":"Feature","properties":{"GID_2":"SRB.4.6_1","GID_0":"SRB","country":"Serbia","GID_1":"SRB.4_1","province":"Jablanički","NL_NAME_1":"Јабланички","county":"Vlasotince","VARNAME_2":"NA","NL_NAME_2":"Власотинце","TYPE_2":"Opštine","ENGTYPE_2":"Town|Municipal","CC_2":"NA","HASC_2":"NA","name":"Vlasotince.county"},
"geometry":{"type": "MultiPolygon","coordinates": [[[[22.3592,42.9296,826.1871],[22.3931,42.936,766.5796],[22.4002,42.9407,867.7161],[22.4016,42.9445,906.0248],[22.3979,42.9502,943.7432],[22.39,42.956,803.15],[22.3639,42.9674,740.9063],[22.3427,42.9692,672.3411],[22.3185,42.9805,673.2866],[22.2851,42.992,602.6067],[22.2583,42.9918,583.5094],[22.2423,43.0022,685.5369],[22.2179,43.0067,594.0283],[22.2021,43.0149,721.031],[22.2005,43.0187,589.1086],[22.2024,43.0222,520.5222],[22.216,43.0302,438.8994],[22.2242,43.0373,447.9525],[22.243,43.0437,514.2246],[22.2578,43.0552,833.6364],[22.257,43.0585,835.4355],[22.234,43.074,604.302],[22.2198,43.0601,426.0615],[22.2127,43.0568,406.7439],[22.193,43.0547,469.2505],[22.1752,43.0599,540.8983],[22.1552,43.0587,634.4125],[22.1303,43.041,616.5384],[22.106,43.0321,568.0225],[22.0851,43.0182,487.7116],[22.0815,43.0142,452.8468],[22.0817,43.0108,399.5089],[22.0905,43.0002,355.2448],[22.0889,42.9961,343.6271],[22.079,42.9921,322.4636],[22.0655,42.9898,289.2679],[22.0564,42.9818,234.8085],[22.0521,42.9736,236.8251],[22.0505,42.9644,248.8222],[22.0411,42.947,239.4327],[22.0455,42.9361,335.8393],[22.0459,42.9271,336.6971],[22.0547,42.9196,411.9814],[22.0615,42.9181,421.6834],[22.0757,42.9244,426.7655],[22.1036,42.9213,567.2373],[22.1283,42.9231,459.3472],[22.1323,42.9207,411.644],[22.1335,42.9104,609.6339],[22.145,42.8984,855.0895],[22.159,42.8919,696.9637],[22.1692,42.8839,630.9973],[22.1888,42.8778,909.3752],[22.2021,42.8776,1006.2229],[22.2211,42.8748,1364.115],[22.2324,42.8973,1276.0482],[22.2527,42.9038,1346.3464],[22.2676,42.9139,1386.0581],[22.277,42.9145,1247.0374],[22.289,42.9076,1278.5587],[22.2933,42.9067,1308.8188],[22.3049,42.909,1203.7352],[22.3213,42.9153,677.8623],[22.3213,42.9184,616.9652],[22.311,42.9239,775.7833],[22.3065,42.928,697.0716],[22.3053,42.9334,480.6261],[22.3078,42.9359,442.8535],[22.3212,42.9365,684.0493],[22.3592,42.9296,826.1871]]]]}}