{"type":"Feature","properties":{"GID_2":"SRB.14.5_1","GID_0":"SRB","country":"Serbia","GID_1":"SRB.14_1","province":"Pomoravski","NL_NAME_1":"Поморавски","county":"Rekovac","VARNAME_2":"NA","NL_NAME_2":"Рековац","TYPE_2":"Opštine","ENGTYPE_2":"Town|Municipal","CC_2":"NA","HASC_2":"NA","name":"Rekovac.county"},
"geometry":{"type": "MultiPolygon","coordinates": [[[[21.0437,43.9056,338.9214],[21.0339,43.9081,352.9213],[21.0256,43.9079,397.4491],[21.0068,43.9005,367.5036],[21.0012,43.8958,337.4375],[20.9998,43.892,372.3459],[21.0026,43.8847,423.4794],[21.015,43.8707,466.6782],[21.0166,43.8601,561.5771],[21.0147,43.8548,561.1357],[20.997,43.8402,627.069],[20.9825,43.8333,709.9028],[20.965699999999998,43.8305,672.157],[20.9507,43.8234,640.5173],[20.945,43.818,658.2623],[20.9409,43.8085,581.6703],[20.938,43.8054,630.1792],[20.9343,43.8045,726.729],[20.9217,43.8069,669.504],[20.9084,43.8073,596.5878],[20.9094,43.797,516.5095],[20.9138,43.7843,542.1924],[20.9214,43.7742,532.5166],[20.9247,43.7552,481.9154],[20.9358,43.7478,732.6537],[20.957,43.7282,691.7715],[20.9653,43.725,471.057],[20.975,43.7234,450.588],[20.9896,43.7285,727.0085],[21.0244,43.7201,454.4286],[21.049,43.7186,367.8979],[21.0644,43.7128,324.6337],[21.0927,43.7129,332.228],[21.1126,43.7039,268.1408],[21.1215,43.6977,276.9547],[21.1481,43.6871,331.1698],[21.137,43.7138,357.4542],[21.1353,43.7285,464.0066],[21.1387,43.7364,464.2136],[21.1396,43.747,386.4383],[21.1444,43.7489,294.4448],[21.1542,43.7472,302.7448],[21.1695,43.7391,247.8765],[21.1778,43.738,280.6873],[21.2055,43.7529,258.9035],[21.2154,43.7615,264.9891],[21.2302,43.7653,421.6311],[21.2389,43.7692,477.0998],[21.2415,43.7733,421.2876],[21.2486,43.7953,649.1936],[21.2481,43.8064,672.4424],[21.2419,43.8207,555.5014],[21.2253,43.8263,552.4819],[21.2084,43.8294,306.8261],[21.2014,43.837,271.8711],[21.1804,43.8488,184.166],[21.1636,43.8606,262.4501],[21.1573,43.8628,283.7579],[21.1346,43.8646,316.9019],[21.1225,43.8676,275.2867],[21.115,43.8756,300.5648],[21.1065,43.8799,289.3498],[21.1051,43.8833,312.6855],[21.1061,43.8915,253.5332],[21.1041,43.894,250.5437],[21.09,43.8927,276.0298],[21.077,43.8944,357.0117],[21.0635,43.8941,301.5779],[21.0511,43.8985,368.5085],[21.0437,43.9056,338.9214]]]]}}