{"type":"Feature","properties":{"GID_2":"SRB.21.6_1","GID_0":"SRB","country":"Serbia","GID_1":"SRB.21_1","province":"Šumadijski","NL_NAME_1":"Шумадијски","county":"Rača","VARNAME_2":"NA","NL_NAME_2":"Рача","TYPE_2":"Opštine","ENGTYPE_2":"Town|Municipal","CC_2":"NA","HASC_2":"NA","name":"Rača.county"},
"geometry":{"type": "MultiPolygon","coordinates": [[[[20.8163,44.2576,135.0579],[20.8067,44.2502,136.3344],[20.7957,44.2337,208.8778],[20.7942,44.2297,209.1001],[20.7943,44.2206,175.5868],[20.7869,44.2084,204.4084],[20.8007,44.1943,235.4422],[20.8193,44.1825,259.7317],[20.8255,44.1766,241.444],[20.8268,44.1711,243.5205],[20.8256,44.1653,223.8815],[20.8153,44.1481,279.0437],[20.8419,44.1518,233.7659],[20.8564,44.159,220.881],[20.8601,44.1589,221.933],[20.8633,44.1568,266.4828],[20.8649,44.1494,292.7551],[20.8587,44.14,303.6143],[20.8614,44.1334,305.6226],[20.8612,44.1303,300.2645],[20.8506,44.119,280.7479],[20.8493,44.115,268.1802],[20.8537,44.1087,281.3676],[20.8781,44.0917,271.616],[20.8842,44.0916,256.6107],[20.891,44.0944,224.2401],[20.8968,44.1064,246.7956],[20.9061,44.1126,233.7755],[20.9237,44.1138,182.7407],[20.9372,44.1233,254.3787],[20.9718,44.1383,145.533],[20.9961,44.1421,169.3746],[21.0074,44.159,194.9194],[21.018,44.1714,189.2284],[21.0194,44.1774,194.0464],[21.0165,44.1859,194.2068],[21.0182,44.1897,182.1094],[21.0227,44.1922,150.9206],[21.0515,44.2,237.117],[21.0202,44.2148,115.9673],[20.9963,44.22,122.4727],[20.9795,44.2301,144.6552],[20.9753,44.2363,162.5456],[20.9739,44.259,224.1596],[20.9499,44.2507,206.5693],[20.904,44.2419,267.1289],[20.8969,44.2426,183.7106],[20.8862,44.2469,200.7883],[20.8719,44.2478,215.3971],[20.858,44.2565,170.468],[20.8495,44.2597,126.6438],[20.8163,44.2576,135.0579]]]]}}