{"type": "Feature","bbox": [21.3693,42.6544,21.6987,42.9831],"geometry": {"type": "MultiPolygon","coordinates": [[[[21.6851,42.6806,1001.2518],[21.6792,42.6892,1022.6927],[21.6787,42.6937,910.1564],[21.6807,42.6962,952.8771],[21.69,42.6972,1094.7479],[21.6971,42.7034,971.2126],[21.6957,42.7179,896.2446],[21.6987,42.7318,874.4587],[21.6926,42.7467,894.5492],[21.6818,42.7575,851.4305],[21.6745,42.769,876.5802],[21.6515,42.792,924.8928],[21.6546,42.7967,850.478],[21.6822,42.8081,668.7031],[21.6878,42.8128,595.9675],[21.689,42.816,654.0843],[21.6874,42.8198,613.5536],[21.6757,42.8285,731.2863],[21.6727,42.834,753.5085],[21.674,42.847,671.9518],[21.6827,42.8577,647.7577],[21.6838,42.8613,610.4865],[21.6776,42.8774,652.9379],[21.6683,42.8866,537.4201],[21.6638,42.8952,468.5215],[21.6591,42.8973,325.032],[21.6399,42.8968,399.7143],[21.6317,42.8985,421.1219],[21.6276,42.9015,446.7788],[21.6265,42.9117,564.544],[21.6228,42.9159,561.4383],[21.6106,42.9189,503.0583],[21.5971,42.9251,531.0913],[21.5894,42.9263,564.942],[21.5659,42.9255,766.1588],[21.5638,42.928,766.3052],[21.5637,42.9368,692.4368],[21.5603,42.9419,794.519],[21.5224,42.9721,843.2039],[21.5075,42.9797,938.652],[21.4755,42.9831,993.6083],[21.452,42.9755,1105.1138],[21.4503,42.9732,1176.4285],[21.4513,42.9697,1173.9802],[21.4577,42.9586,1023.0668],[21.4649,42.9519,1029.3438],[21.4682,42.9445,1025.7399],[21.4743,42.9364,894.8158],[21.4741,42.9325,878.1589],[21.4625,42.9203,906.4194],[21.4485,42.9117,930.5294],[21.4485,42.8892,806.6027],[21.4383,42.8779,878.1432],[21.4372,42.8686,909.6104],[21.4324,42.858,902.6197],[21.4218,42.8369,932.0215],[21.4144,42.8285,815.3557],[21.4102,42.8199,838.3516],[21.4068,42.8096,881.6009],[21.4088,42.8029,939.3539],[21.4084,42.7949,837.6778],[21.4057,42.7914,837.0239],[21.3957,42.7876,774.606],[21.391,42.7826,807.9463],[21.3904,42.7666,1010.9192],[21.393,42.7603,1044.8843],[21.3926,42.7563,1034.6742],[21.3693,42.7372,912.0818],[21.3743,42.7329,877.9205],[21.3815,42.7306,876.0569],[21.4227,42.7358,906.3098],[21.4307,42.7346,796.3636],[21.4462,42.726,884.0134],[21.4608,42.7302,749.5891],[21.4659,42.73,768.4767],[21.5088,42.7136,799.4084],[21.5344,42.717,982.8577],[21.5459,42.7216,1030.177],[21.5519,42.721,967.1015],[21.5737,42.7133,892.7663],[21.5788,42.7101,857.2164],[21.582,42.7043,991.4254],[21.5769,42.6941,817.5379],[21.5877,42.6865,873.8375],[21.609,42.6828,847.2708],[21.6256,42.685,891.8757],[21.6291,42.6842,852.3867],[21.6343,42.6773,759.7402],[21.6403,42.6615,795.7427],[21.6463,42.6569,714.5123],[21.6539,42.6544,892.6467],[21.6621,42.6574,1066.9869],[21.6692,42.6708,1136.7056],[21.6851,42.6806,1001.2518]]]]}
,"properties": {"GID_2": "SRB.4.5_1","GID_0": "SRB","country": "Serbia","GID_1": "SRB.4_1","province": "Jablanički","NL_NAME_1": "Јабланички","county": "Medveđa","VARNAME_2": "Medvegjë|Medvegja","NL_NAME_2": "Медвеђа","TYPE_2": "Opštine","ENGTYPE_2": "Town|Municipal","CC_2": "NA","HASC_2": "NA","name": "Medveđa.county","area_km2": 551.6603,"hist_schema_id": "Elevation0-9000","hist_area_km2": {"325": 1.165,"350": 3.1233,"375": 5.3153,"400": 6.4498,"425": 8.9211,"450": 11.6727,"475": 13.445,"500": 17.7207,"525": 20.5042,"550": 23.3967,"575": 25.3411,"600": 26.589,"625": 28.9387,"650": 29.1576,"675": 32.6103,"700": 31.8487,"725": 32.3795,"750": 29.008,"775": 28.4676,"800": 27.1336,"825": 25.0805,"850": 21.801,"875": 20.5734,"900": 17.245,"925": 14.7224,"950": 11.6433,"975": 9.8063,"1000": 8.234,"1025": 6.4734,"1050": 4.8709,"1075": 2.458,"1100": 1.7422,"1125": 1.462,"1150": 0.8703,"1175": 0.5899,"1200": 0.5275,"1225": 0.2017,"1250": 0.1706}}}