{"type": "Feature","bbox": [19.5554,45.618899999999996,19.7595,45.7761],"geometry": {"type": "MultiPolygon","coordinates": [[[[19.7498,45.7415,101.8292],[19.7481,45.7501,101.9359],[19.7411,45.761,101.3044],[19.7311,45.7715,102.2747],[19.7234,45.7754,104.1228],[19.7112,45.7761,105.6784],[19.6931,45.7703,104.9444],[19.6661,45.7674,107.5892],[19.6287,45.7714,108.2194],[19.6215,45.7688,107.3523],[19.6124,45.762,106.1643],[19.5911,45.7525,89.715],[19.5592,45.7253,107.7576],[19.5554,45.7188,108.9817],[19.5584,45.7118,110.3571],[19.5628,45.708,110.421],[19.5741,45.7021,108.0621],[19.5913,45.6978,109.5988],[19.599,45.6941,110.1583],[19.6114,45.6785,107.2234],[19.6107,45.6715,107.4192],[19.5865,45.66,105.4882],[19.6084,45.6515,100.565],[19.6301,45.6396,99.8663],[19.6583,45.6321,94.6796],[19.6842,45.618899999999996,89.0687],[19.7073,45.6231,89.2451],[19.7316,45.633,93.3693],[19.7382,45.6376,93.5598],[19.7393,45.6437,94.1942],[19.7366,45.6546,95.9067],[19.7372,45.6656,96.9589],[19.7437,45.6781,95.4058],[19.7547,45.6909,97.3046],[19.7566,45.6998,96.3171],[19.7522,45.7035,97.9119],[19.751,45.7069,98.7001],[19.7595,45.7206,99.3925],[19.7586,45.7269,100.6595],[19.7498,45.7415,101.8292]]]]}
,"properties": {"GID_2": "SRB.17.2_1","GID_0": "SRB","country": "Serbia","GID_1": "SRB.17_1","province": "Severno-Bački","NL_NAME_1": "Севернобачки","county": "MaliIđoš","VARNAME_2": "Kishegyes","NL_NAME_2": "МалиИђош","TYPE_2": "Opštine","ENGTYPE_2": "Town|Municipal","CC_2": "NA","HASC_2": "NA","name": "Mali_Iđoš.county","area_km2": 187.2057,"hist_schema_id": "Elevation0-9000","hist_area_km2": {"75": 4.9191,"100": 182.1831,"125": 0.1036}}}