{"type":"Feature","properties":{"GID_2":"SRB.10.2_1","GID_0":"SRB","country":"Serbia","GID_1":"SRB.10_1","province":"Nišavski","NL_NAME_1":"Нишавски","county":"Doljevac","VARNAME_2":"NA","NL_NAME_2":"Дољевац","TYPE_2":"Opštine","ENGTYPE_2":"Town|Municipal","CC_2":"NA","HASC_2":"NA","name":"Doljevac.county"},
"geometry":{"type": "MultiPolygon","coordinates": [[[[21.8974,43.1555,198.7182],[21.8989,43.1637,195.691],[21.8977,43.174,245.9957],[21.9053,43.1933,343.0642],[21.9056,43.2001,385.4927],[21.9166,43.2137,635.0737],[21.9192,43.2192,718.6901],[21.9067,43.2286,731.0462],[21.9026,43.2394,560.1646],[21.8931,43.2484,365.3152],[21.892,43.2519,320.7615],[21.8931,43.2634,248.8114],[21.8873,43.2698,291.6233],[21.878,43.2719,291.6446],[21.8469,43.2674,186.2215],[21.844,43.2649,188.3536],[21.8408,43.2555,186.8146],[21.8285,43.2414,184.4661],[21.8143,43.236,218.3207],[21.8035,43.2341,227.8295],[21.7945,43.2361,229.7526],[21.7898,43.2386,230.7762],[21.7861,43.2469,248.2],[21.7826,43.2493,256.1927],[21.7659,43.2466,246.499],[21.7719,43.2295,222.4782],[21.7786,43.222,270.4354],[21.7795,43.2184,263.3666],[21.777,43.2155,252.0485],[21.7635,43.2078,222.446],[21.7614,43.2049,212.41],[21.7611,43.2009,207.4628],[21.7632,43.1972,205.7379],[21.7892,43.1743,207.0302],[21.8045,43.1578,276.7879],[21.8028,43.1537,270.1225],[21.7927,43.1479,284.8533],[21.7925,43.1441,275.536],[21.7941,43.142,258.2158],[21.8043,43.1377,236.616],[21.8529,43.1396,204.1184],[21.8701,43.1444,203.1088],[21.8974,43.1555,198.7182]]]]}}