{"type":"Feature","properties":{"GID_2":"SRB.12.3_1","GID_0":"SRB","country":"Serbia","GID_1":"SRB.12_1","province":"Pirotski","NL_NAME_1":"Пиротски","county":"Dimitrovgrad","VARNAME_2":"Caribrod|Tzaribrod|Tsaribrod","NL_NAME_2":"Димитровград|Цариброд|Цариброд","TYPE_2":"Opštine","ENGTYPE_2":"Town|Municipal","CC_2":"NA","HASC_2":"NA","name":"Dimitrovgrad.county"},
"geometry":{"type": "MultiPolygon","coordinates": [[[[22.9194,43.1934,1374.0518],[22.9233,43.1878,1400.5819],[22.9229,43.1825,1255.4835],[22.9112,43.1749,1199.1646],[22.8979,43.1626,1260.675],[22.8945,43.154,1161.7426],[22.8797,43.1392,836.49],[22.8617,43.1312,740.4113],[22.8537,43.1306,816.1821],[22.8301,43.1423,964.2732],[22.8224,43.1446,1009.2692],[22.8043,43.1413,1346.8046],[22.7729,43.1455,1093.9349],[22.7631,43.143,1061.3656],[22.7568,43.1391,1089.4741],[22.7547,43.136,1074.4839],[22.7563,43.1288,1004.9983],[22.7531,43.1215,956.0594],[22.7652,43.1058,856.5614],[22.7683,43.099,797.0366],[22.7666,43.0937,819.2479],[22.7585,43.09,734.3089],[22.7561,43.0849,859.5822],[22.7599,43.0784,803.5668],[22.7684,43.0704,817.8885],[22.7695,43.0684,800.0395],[22.7685,43.0648,784.3845],[22.7609,43.0582,770.9042],[22.7553,43.0497,653.2183],[22.7485,43.0444,597.2236],[22.7416,43.0328,751.7675],[22.733,43.0297,651.6805],[22.7187,43.0286,446.3445],[22.7121,43.0263,501.5135],[22.698,43.0074,748.5673],[22.6893,43.0071,738.6929],[22.6744,43.0117,614.9387],[22.6693,43.0114,630.571],[22.6646,43.009,674.6924],[22.6641,43.0047,592.5659],[22.6754,42.9981,823.5707],[22.6793,42.9937,826.4256],[22.6773,42.9874,748.7637],[22.6722,42.9838,832.6696],[22.649,42.9819,551.829],[22.6343,42.9782,530.3713],[22.6215,42.9771,920.3425],[22.6163,42.9791,1019.9309],[22.5985,42.997,1055.9784],[22.5912,43.0004,1127.489],[22.5822,43.0009,1175.4802],[22.5669,42.9973,980.7073],[22.5301,43.0031,968.1804],[22.5447,42.9881,935.8499],[22.5486,42.9781,988.8268],[22.5717,42.9725,819.8456],[22.5814,42.9628,743.3864],[22.5946,42.9549,625.4191],[22.6004,42.9468,708.8834],[22.6065,42.9422,628.9087],[22.6208,42.9357,576.991],[22.6388,42.9327,773.3423],[22.6527,42.9237,877.2092],[22.6538,42.9156,769.365],[22.6471,42.9056,774.8468],[22.6017,42.8755,1041.6177],[22.6049,42.8749,1042.6814],[22.6162,42.8621,1144.7504],[22.6199,42.8599,1215.6919],[22.639,42.8624,797.7226],[22.6432,42.8616,726.3924],[22.6563,42.8542,918.1346],[22.6586,42.8482,927.4493],[22.6627,42.8448,896.2092],[22.6668,42.848,894.5875],[22.6668,42.8525,930.7123],[22.6778,42.8579,671.0466],[22.6828,42.8667,754.055],[22.6856,42.8681,754.8105],[22.6881,42.8682,749.9858],[22.6966,42.8613,828.6653],[22.7033,42.8658,917.001],[22.7189,42.8666,955.7024],[22.7333,42.8728,941.8565],[22.7382,42.8796,986.5787],[22.7431,42.8824,931.1643],[22.7478,42.8933,792.8195],[22.7574,42.8999,746.2711],[22.7622,42.9093,812.0819],[22.7613,42.9141,777.9729],[22.7542,42.9252,607.2106],[22.7606,42.9292,613.1847],[22.7649,42.9282,614.9667],[22.7678,42.9297,636.0331],[22.7674,42.9349,621.9144],[22.7699,42.9387,554.6626],[22.7702,42.962,732.8975],[22.8227,42.9809,816.3268],[22.8265,42.99,666.1202],[22.8391,43.0067,516.565],[22.8747,43.0246,681.2094],[22.8757,43.0354,717.6289],[22.8847,43.0427,736.7117],[22.8938,43.0675,723.073],[22.9075,43.0767,872.0709],[22.9263,43.0811,889.6736],[22.9293,43.0845,813.2],[22.9574,43.1017,872.5995],[22.9589,43.1121,950.1855],[22.9644,43.1185,998.2266],[22.9688,43.1271,1172.6055],[22.9693,43.1306,1223.395],[22.9672,43.14,1205.0955],[22.9701,43.1464,1133.8254],[22.9683,43.1523,1285.2964],[22.9597,43.1568,1300.9714],[22.9789,43.178,1606.5958],[22.9786,43.1821,1646.8665],[22.9689,43.186,1682.2911],[22.9593,43.1923,1474.5455],[22.954,43.1923,1434.0638],[22.9487,43.1949,1585.6069],[22.9338,43.1975,1480.5392],[22.9194,43.1934,1374.0518]]]]}}