{"type":"Feature","properties":{"GID_2":"SRB.12.4_1","GID_0":"SRB","country":"Serbia","GID_1":"SRB.12_1","province":"Pirotski","NL_NAME_1":"Пиротски","county":"Pirot","VARNAME_2":"NA","NL_NAME_2":"Пирот","TYPE_2":"Opštine","ENGTYPE_2":"Town|Municipal","CC_2":"NA","HASC_2":"NA","name":"Pirot.county"},
"geometry":{"type": "MultiPolygon","coordinates": [[[[22.7138,43.3801,1373.1885],[22.7096,43.3821,1543.5687],[22.7008,43.3831,1714.4822],[22.6885,43.3899,2006.2689],[22.668,43.3871,1737.5796],[22.6635,43.3885,1696.7343],[22.6515,43.3871,1435.6151],[22.6454,43.3892,1534.095],[22.6224,43.3678,1611.2977],[22.6016,43.36,1595.3973],[22.5812,43.3452,1229.5002],[22.5774,43.3388,1275.3168],[22.5811,43.328,1219.5708],[22.5789,43.3257,1249.6595],[22.5752,43.3252,1209.8391],[22.5414,43.3293,762.2953],[22.5246,43.3355,888.8104],[22.5154,43.3439,860.278],[22.5051,43.3506,901.749],[22.4928,43.3655,798.3637],[22.4857,43.3666,800.0464],[22.4715,43.3489,738.4808],[22.4668,43.3468,581.9891],[22.4517,43.3465,485.3312],[22.4449,43.3448,644.4739],[22.425,43.3328,1011.9291],[22.4115,43.3218,754.5939],[22.3982,43.3168,706.6142],[22.3897,43.3041,736.1771],[22.3904,43.3008,702.4131],[22.3984,43.2963,656.8243],[22.4026,43.2912,635.007],[22.4048,43.2782,588.455],[22.4143,43.2641,620.1957],[22.4191,43.2604,520.339],[22.4353,43.2551,522.4165],[22.4393,43.252,497.1013],[22.4479,43.2379,425.6007],[22.4534,43.217,503.9826],[22.4491,43.1988,753.6466],[22.4303,43.1836,681.1664],[22.4237,43.1744,697.4007],[22.4165,43.1683,885.2843],[22.4145,43.161,931.4498],[22.4231,43.152,809.3458],[22.4296,43.1382,714.8427],[22.4393,43.1303,673.5416],[22.4462,43.129,692.1945],[22.4631,43.1295,588.0211],[22.4736,43.1316,557.3058],[22.4789,43.1305,466.7085],[22.4802,43.1227,518.1805],[22.486,43.1096,622.9974],[22.4867,43.1027,835.4803],[22.4845,43.091,701.2462],[22.4762,43.084,774.3528],[22.4752,43.0813,757.1111],[22.4892,43.0686,909.1287],[22.5056,43.0628,964.0549],[22.508,43.0558,985.2259],[22.5114,43.0517,1029.5063],[22.5269,43.0376,943.8539],[22.5377,43.0313,885.6771],[22.5392,43.0269,946.6994],[22.538,43.0208,972.8675],[22.5275,43.0101,1106.364],[22.5301,43.0031,968.1804],[22.5669,42.9973,980.7073],[22.5822,43.0009,1175.4802],[22.5912,43.0004,1127.489],[22.5985,42.997,1055.9784],[22.6163,42.9791,1019.9309],[22.6215,42.9771,920.3425],[22.6343,42.9782,530.3713],[22.649,42.9819,551.829],[22.6722,42.9838,832.6696],[22.6773,42.9874,748.7637],[22.6793,42.9937,826.4256],[22.6754,42.9981,823.5707],[22.6641,43.0047,592.5659],[22.6646,43.009,674.6924],[22.6693,43.0114,630.571],[22.6744,43.0117,614.9387],[22.6893,43.0071,738.6929],[22.698,43.0074,748.5673],[22.7121,43.0263,501.5135],[22.7187,43.0286,446.3445],[22.733,43.0297,651.6805],[22.7416,43.0328,751.7675],[22.7485,43.0444,597.2236],[22.7553,43.0497,653.2183],[22.7609,43.0582,770.9042],[22.7685,43.0648,784.3845],[22.7695,43.0684,800.0395],[22.7684,43.0704,817.8885],[22.7599,43.0784,803.5668],[22.7561,43.0849,859.5822],[22.7585,43.09,734.3089],[22.7666,43.0937,819.2479],[22.7683,43.099,797.0366],[22.7652,43.1058,856.5614],[22.7531,43.1215,956.0594],[22.7563,43.1288,1004.9983],[22.7547,43.136,1074.4839],[22.7568,43.1391,1089.4741],[22.7631,43.143,1061.3656],[22.7729,43.1455,1093.9349],[22.8043,43.1413,1346.8046],[22.8224,43.1446,1009.2692],[22.8301,43.1423,964.2732],[22.8537,43.1306,816.1821],[22.8591,43.1303,761.9261],[22.8797,43.1392,836.49],[22.8945,43.154,1161.7426],[22.8979,43.1626,1260.675],[22.9112,43.1749,1199.1646],[22.9238,43.1838,1292.8123],[22.9233,43.1878,1400.5819],[22.9194,43.1934,1374.0518],[22.9146,43.1926,1344.1409],[22.9092,43.1982,1428.7393],[22.9035,43.2006,1542.1417],[22.894,43.2089,1414.7166],[22.8828,43.2106,1421.0178],[22.8739,43.2142,1457.5292],[22.8707,43.2207,1323.2305],[22.8625,43.226,1144.4318],[22.8578,43.2332,1102.8032],[22.8463,43.2442,994.8668],[22.8453,43.2572,1049.7697],[22.8387,43.2627,1107.6143],[22.8251,43.2654,1250.1776],[22.8195,43.2755,1440.658],[22.8219,43.286,1542.8384],[22.8077,43.2987,1847.1282],[22.8027,43.3207,1564.5417],[22.7876,43.3273,1796.3058],[22.7773,43.3287,1784.3057],[22.7665,43.3351,1418.8344],[22.7551,43.3473,1166.5166],[22.7379,43.3562,1166.7207],[22.7358,43.3609,1106.7885],[22.7346,43.3708,1284.0405],[22.7203,43.3754,1201.6947],[22.7138,43.3801,1373.1885]]]]}}