{"type":"Feature","properties":{"GID_2":"SRB.25.6_1","GID_0":"SRB","country":"Serbia","GID_1":"SRB.25_1","province":"Zlatiborski","NL_NAME_1":"Златиборски","county":"Požega","VARNAME_2":"NA","NL_NAME_2":"Пожега","TYPE_2":"Opštine","ENGTYPE_2":"Town|Municipal","CC_2":"NA","HASC_2":"NA","name":"Požega.county"},
"geometry":{"type": "MultiPolygon","coordinates": [[[[20.0095,44.1042,928.7794],[19.984,44.0902,834.3596],[19.9759,44.0709,671.152],[19.9707,44.0633,562.3866],[19.9674,44.0496,535.6973],[19.9708,44.031,585.9869],[19.9781,44.0229,660.483],[19.9778,44.0196,695.8204],[19.9723,44.0135,751.2808],[19.9718,44.0106,721.9197],[19.9817,44.0009,555.7733],[19.9892,43.9881,544.0925],[19.9988,43.9805,541.3961],[19.9996,43.9779,553.6013],[19.997,43.969,517.8222],[19.9827,43.9585,440.7859],[19.98,43.952,524.1548],[19.9802,43.9447,550.1703],[19.9718,43.9364,586.2107],[19.9502,43.929,508.917],[19.9213,43.9281,501.9854],[19.9195,43.9219,443.7023],[19.9128,43.9141,403.3105],[19.9147,43.9094,385.7147],[19.9354,43.8955,380.9876],[19.949,43.8835,378.0092],[19.9547,43.8746,347.2135],[19.9541,43.868899999999996,347.5728],[19.9461,43.8611,391.0502],[19.9403,43.8581,469.3663],[19.9246,43.8529,559.8673],[19.8996,43.8507,456.7736],[19.8942,43.8478,400.6161],[19.892,43.8429,375.6259],[19.8943,43.8379,384.3236],[19.9162,43.8221,356.5742],[19.9321,43.8149,345.403],[19.9386,43.8098,343.1152],[19.9396,43.8057,347.0431],[19.9377,43.7954,520.7321],[19.9456,43.7824,779.4783],[19.9457,43.7743,480.2472],[19.9413,43.7684,585.1733],[19.9273,43.7609,480.4566],[19.9262,43.7579,454.3729],[19.9274,43.7526,509.2845],[19.9255,43.7508,563.6281],[19.9512,43.7246,631.2914],[19.9721,43.7161,847.3104],[19.9842,43.7208,777.5708],[20.0147,43.7281,798.803],[20.0296,43.7382,604.3323],[20.0383,43.7518,504.0071],[20.0457,43.7576,702.3607],[20.076,43.7575,469.2063],[20.0799,43.7597,414.8904],[20.0865,43.7689,419.479],[20.0907,43.7697,442.1487],[20.0978,43.7665,324.5237],[20.1035,43.7663,324.1128],[20.1192,43.7736,463.027],[20.122,43.7807,360.4529],[20.1295,43.7867,390.0303],[20.1301,43.7916,363.6907],[20.1259,43.7975,384.0091],[20.1135,43.8049,314.2282],[20.1064,43.8122,399.7314],[20.1049,43.8149,392.6904],[20.1067,43.8231,311.3472],[20.1054,43.8292,317.6915],[20.0904,43.8373,303.0607],[20.0877,43.8421,301.2371],[20.0879,43.8464,300.4869],[20.0919,43.8552,297.9094],[20.1004,43.8619,296.4831],[20.1096,43.872,302.8335],[20.1168,43.8739,294.3073],[20.136,43.8735,382.9601],[20.1556,43.877,591.0206],[20.1163,43.8905,323.6886],[20.0995,43.9011,581.2665],[20.0877,43.9138,633.5703],[20.087,43.9178,591.6347],[20.0883,43.9205,589.3101],[20.0967,43.9251,590.7762],[20.1031,43.931,520.7639],[20.1042,43.9349,527.877],[20.103,43.9375,681.3628],[20.0962,43.9499,716.5284],[20.0872,43.9511,672.6634],[20.0659,43.962,592.744],[20.0643,43.9658,585.4409],[20.069,43.9748,654.4153],[20.0558,43.9812,612.5171],[20.0604,43.9933,777.1024],[20.071,44.0019,811.9653],[20.0747,44.0077,802.605],[20.0716,44.0134,784.8337],[20.0583,44.0217,599.6738],[20.0553,44.0267,630.9238],[20.0563,44.0297,593.3224],[20.0625,44.0358,521.7365],[20.0624,44.0399,517.1934],[20.0591,44.047,552.573],[20.0595,44.0513,596.7332],[20.0707,44.0653,716.6509],[20.0701,44.0711,735.5854],[20.062,44.0853,778.8745],[20.0368,44.0965,826.9152],[20.0168,44.0982,958.5704],[20.0095,44.1042,928.7794]]]]}}