{"type": "Feature","bbox": [20.392,44.3857,20.6598,44.5874],"geometry": {"type": "MultiPolygon","coordinates": [[[[20.392,44.441,157.64],[20.409,44.4241,137.3174],[20.4539,44.4172,162.5684],[20.4838,44.3989,191.5754],[20.5059,44.3978,204.3479],[20.5379,44.3857,173.7378],[20.5345,44.3981,166.8472],[20.5273,44.4093,165.5551],[20.528,44.4136,198.1353],[20.5376,44.4255,200.6576],[20.5526,44.4397,292.115],[20.5638,44.4433,358.8958],[20.5826,44.4463,327.3957],[20.6022,44.4607,339.3683],[20.6125,44.4654,298.0786],[20.6143,44.4681,261.6033],[20.6137,44.4715,253.697],[20.6047,44.4812,305.4086],[20.6044,44.486,266.7685],[20.6134,44.4922,176.1908],[20.6296,44.4985,153.3838],[20.6429,44.5081,208.5524],[20.6451,44.5111,180.6689],[20.6451,44.5194,214.0591],[20.6559,44.5304,262.6159],[20.6598,44.5466,237.0205],[20.6384,44.5644,149.5166],[20.6254,44.5795,221.3192],[20.6121,44.5847,189.0832],[20.6014,44.5874,172.8453],[20.5493,44.5874,373.4247],[20.5464,44.5836,275.6264],[20.5483,44.5764,208.7646],[20.5429,44.571,204.7812],[20.5362,44.5695,198.4018],[20.5206,44.5726,279.9921],[20.5013,44.5671,404.7742],[20.4837,44.5531,304.5208],[20.4652,44.5417,229.198],[20.4561,44.5327,169.1502],[20.4457,44.5295,133.6945],[20.425,44.5175,170.7968],[20.4201,44.5084,167.1728],[20.412,44.4999,238.2729],[20.4139,44.4967,228.1194],[20.4235,44.4896,227.885],[20.4239,44.4866,199.2939],[20.4125,44.4809,175.4241],[20.4062,44.4751,128.402],[20.4035,44.4628,178.3113],[20.392,44.441,157.64]]]]}
,"properties": {"GID_2": "SRB.3.11_1","GID_0": "SRB","country": "Serbia","GID_1": "SRB.3_1","province": "GradBeograd","NL_NAME_1": "Београд","county": "Sopot","VARNAME_2": "NA","NL_NAME_2": "Сопот","TYPE_2": "Opštine","ENGTYPE_2": "Town|Municipal","CC_2": "NA","HASC_2": "NA","name": "Sopot.county","area_km2": 271.8033,"hist_schema_id": "Elevation0-9000","hist_area_km2": {"125": 2.6482,"150": 21.2422,"175": 41.8584,"200": 54.7224,"225": 52.535,"250": 36.9984,"275": 23.887,"300": 15.179,"325": 9.4948,"350": 4.0535,"375": 2.2695,"400": 1.8157,"425": 1.3013,"450": 1.0289,"475": 0.8927,"500": 0.469,"525": 0.6506,"550": 0.348,"575": 0.227,"600": 0.1059,"625": 0.0757}}}