{"type": "Feature","bbox": [21.5124,42.2276,21.8422,42.405],"geometry": {"type": "MultiPolygon","coordinates": [[[[21.5939,42.2475,1034.1714],[21.6039,42.2429,907.5264],[21.6188,42.2398,899.3841],[21.633,42.2417,802.4816],[21.6491,42.2411,619.7713],[21.6664,42.2358,445.899],[21.6843,42.2276,399.5363],[21.7007,42.2295,379.5671],[21.7145,42.2351,425.9141],[21.7232,42.2441,482.6057],[21.7354,42.2485,518.3513],[21.7495,42.2473,638.9517],[21.7924,42.2512,528.4515],[21.7959,42.266,618.8023],[21.7955,42.28,529.9301],[21.7972,42.2883,530.3756],[21.8241,42.3077,578.1987],[21.8422,42.3084,557.6013],[21.842,42.3101,543.1998],[21.8361,42.3184,536.5212],[21.8092,42.3236,611.0568],[21.8005,42.3338,705.7008],[21.7957,42.3367,751.3275],[21.7735,42.3329,614.2398],[21.7552,42.3365,502.9782],[21.7369,42.3319,443.5538],[21.7274,42.3318,434.7461],[21.7217,42.3334,429.0641],[21.7186,42.3361,424.7508],[21.7167,42.3439,421.8752],[21.7094,42.3549,420.9019],[21.711,42.3594,416.8602],[21.7209,42.3672,415.9509],[21.7229,42.3711,416.2998],[21.7212,42.3781,415.1409],[21.7167,42.3853,410.5699],[21.7091,42.3865,435.1572],[21.6947,42.3818,465.841],[21.6773,42.3862,484.817],[21.6649,42.3874,549.0985],[21.6466,42.3985,664.8667],[21.6293,42.405,675.8408],[21.6236,42.388,887.9965],[21.6167,42.376,805.2266],[21.606,42.3683,778.699],[21.5968,42.3682,713.6039],[21.5854,42.3737,775.3645],[21.5782,42.3752,733.2002],[21.5651,42.3705,821.0703],[21.5625,42.3625,875.7939],[21.5596,42.3604,840.7827],[21.5418,42.3584,871.5325],[21.5289,42.3629,803.7874],[21.5217,42.3621,794.0117],[21.5194,42.3577,711.395],[21.521,42.3505,839.8127],[21.5203,42.344,783.9911],[21.5124,42.3317,581.5067],[21.5132,42.3232,625.5067],[21.5284,42.3034,645.0312],[21.5348,42.3028,612.553],[21.5469,42.3074,917.9395],[21.5523,42.3058,938.147],[21.5593,42.2907,865.331],[21.574,42.2758,848.7042],[21.5939,42.2475,1034.1714]]]]}
,"properties": {"GID_2": "SRB.11.3_1","GID_0": "SRB","country": "Serbia","GID_1": "SRB.11_1","province": "Pčinjski","NL_NAME_1": "Пчињски","county": "Preševo","VARNAME_2": "Preshevë|Presheva","NL_NAME_2": "Прешево","TYPE_2": "Opštine","ENGTYPE_2": "Town|Municipal","CC_2": "NA","HASC_2": "NA","name": "Preševo.county","area_km2": 292.1219,"hist_schema_id": "Elevation0-9000","hist_area_km2": {"375": 0.3611,"400": 4.6931,"425": 20.7608,"450": 32.3802,"475": 19.4913,"500": 14.1288,"525": 13.0467,"550": 13.344,"575": 14.1753,"600": 14.5983,"625": 10.7717,"650": 11.147,"675": 11.7259,"700": 11.1765,"725": 10.6908,"750": 10.3619,"775": 10.3147,"800": 9.8128,"825": 10.0479,"850": 10.3935,"875": 10.0489,"900": 8.9056,"925": 6.523,"950": 4.6421,"975": 3.0584,"1000": 2.0862,"1025": 1.5374,"1050": 0.8629,"1075": 0.5178,"1100": 0.3608,"1125": 0.1098,"1150": 0.0471}}}