{"type":"Feature","properties":{"GID_2":"SRB.21.5_1","GID_0":"SRB","country":"Serbia","GID_1":"SRB.21_1","province":"Šumadijski","NL_NAME_1":"Шумадијски","county":"Lapovo","VARNAME_2":"NA","NL_NAME_2":"Лапово","TYPE_2":"Opštine","ENGTYPE_2":"Town|Municipal","CC_2":"NA","HASC_2":"NA","name":"Lapovo.county"},
"geometry":{"type": "MultiPolygon","coordinates": [[[[21.0515,44.2,237.117],[21.0227,44.1922,150.9206],[21.0182,44.1897,182.1094],[21.0165,44.1859,194.2068],[21.019,44.1795,208.0569],[21.0188,44.1737,198.1198],[21.0163,44.1688,201.9138],[21.0074,44.159,194.9194],[21.0362,44.1507,116.0946],[21.0706,44.145,111.9275],[21.0967,44.1459,118.6549],[21.1221,44.1538,103.1874],[21.1269,44.1567,102.2432],[21.1248,44.1648,102.4391],[21.1297,44.1703,99.6644],[21.1297,44.1765,101.8912],[21.1328,44.1861,101.8129],[21.126,44.191,101.2587],[21.1173,44.194,99.6051],[21.0981,44.1963,103.7234],[21.0863,44.2018,148.4411],[21.0722,44.1988,207.6282],[21.0515,44.2,237.117]]]]}}