{"type": "Feature","bbox": [22.1856,44.0072,22.6871,44.4664],"geometry": {"type": "MultiPolygon","coordinates": [[[[22.6851,44.2099,29.0],[22.6828,44.2108,29.0],[22.683,44.2088,29.0],[22.6853,44.2075,29.0],[22.6851,44.2099,29.0]]],
[[[22.6045,44.0557,230.5814],[22.6177,44.0572,210.9438],[22.6166,44.0632,243.7902],[22.6223,44.0669,242.9877],[22.6155,44.0698,247.0119],[22.6137,44.0728,230.5393],[22.6188,44.0779,221.823],[22.6202,44.0922,151.8854],[22.6133,44.0966,126.5848],[22.6115,44.1012,129.7282],[22.6225,44.1333,44.8457],[22.6281,44.142,44.2766],[22.634,44.1438,43.7605],[22.6335,44.1476,44.425],[22.6365,44.153,48.4166],[22.6365,44.1551,48.6602],[22.6313,44.1554,43.4225],[22.631,44.1593,46.5162],[22.6249,44.1578,44.6187],[22.6215,44.1623,44.1036],[22.6252,44.1631,42.048],[22.6259,44.1676,40.721],[22.6291,44.1704,40.3632],[22.6322,44.1705,39.4844],[22.6352,44.1674,39.3035],[22.6385,44.1691,40.5377],[22.6386,44.1717,39.2369],[22.6462,44.1724,44.1593],[22.6474,44.1759,49.9511],[22.6406,44.1813,54.9689],[22.6449,44.1823,55.0386],[22.6496,44.1796,51.6016],[22.6558,44.1839,51.273],[22.6556,44.1863,51.4892],[22.6508,44.1872,47.1357],[22.6497,44.1888,41.0993],[22.6519,44.1908,33.773],[22.6555,44.1912,40.76],[22.66,44.1968,33.915],[22.6631,44.203,36.2019],[22.66,44.2063,37.8416],[22.6605,44.2078,39.9873],[22.6625,44.2081,35.1301],[22.6674,44.2057,35.0051],[22.6685,44.2036,33.7637],[22.6705,44.2038,34.2238],[22.6726,44.205,33.9345],[22.6731,44.208,34.0379],[22.6809,44.2127,29.0],[22.6738,44.2195,29.0],[22.6736,44.2292,29.0],[22.6866,44.2527,29.5],[22.6871,44.2605,29.5],[22.6848,44.2716,29.5],[22.6776,44.2813,30.0],[22.6463,44.293,30.0],[22.619,44.2936,30.0],[22.6068,44.2958,30.5],[22.5797,44.3039,44.4244],[22.5652,44.3059,37.6391],[22.5594,44.3094,37.0],[22.5493,44.323,37.0],[22.5252,44.3399,37.0],[22.5179,44.3591,37.0],[22.5053,44.3808,37.5],[22.5017,44.395,37.5],[22.5004,44.4112,37.5],[22.5032,44.4176,37.5],[22.4827,44.433,37.5],[22.4734,44.4371,37.5],[22.4688,44.4414,37.5],[22.463,44.4506,37.5],[22.463,44.454,37.5],[22.4592,44.4594,37.5],[22.4577,44.4664,37.5],[22.4504,44.4651,54.6159],[22.4476,44.4541,67.288],[22.4532,44.4414,64.106],[22.4755,44.4155,167.991],[22.452,44.4041,103.428],[22.4418,44.4009,186.0046],[22.4344,44.3997,192.8295],[22.4268,44.4007,126.0608],[22.4064,44.4111,218.9655],[22.3921,44.4154,103.3548],[22.3834,44.4199,113.4354],[22.3805,44.424,152.2686],[22.3842,44.4294,214.7342],[22.384,44.433,247.3898],[22.3711,44.4408,219.9382],[22.3583,44.4523,317.3405],[22.3408,44.4586,366.8816],[22.304,44.4584,405.1682],[22.2895,44.4524,370.4969],[22.2753,44.4548,386.068],[22.264,44.4486,356.0556],[22.2611,44.445,391.4572],[22.2645,44.428,370.3328],[22.2611,44.4224,354.3951],[22.2486,44.4159,466.2349],[22.2249,44.4204,415.8177],[22.2178,44.4178,379.9714],[22.2156,44.4109,383.7103],[22.2161,44.4027,459.5761],[22.2243,44.3924,474.748],[22.2237,44.3763,391.2373],[22.2268,44.369,488.3882],[22.2343,44.3586,481.834],[22.2388,44.3435,541.0361],[22.2343,44.3386,500.4576],[22.2202,44.3329,414.9911],[22.2216,44.3197,491.9074],[22.2196,44.3128,416.1271],[22.2142,44.308,421.3245],[22.202,44.3049,647.0772],[22.19,44.2891,602.7244],[22.1891,44.2809,435.102],[22.1964,44.2567,806.5103],[22.1856,44.246,579.3377],[22.1901,44.2354,583.3855],[22.1985,44.2309,642.3422],[22.21,44.2157,832.0288],[22.214,44.1992,668.6936],[22.212,44.1873,583.933],[22.2146,44.1824,595.4404],[22.2325,44.1733,521.034],[22.2344,44.1705,511.1843],[22.2327,44.1686,496.529],[22.244,44.1575,476.3677],[22.2678,44.1419,482.5296],[22.2755,44.1384,463.3695],[22.3174,44.134,279.0263],[22.3382,44.13,305.8365],[22.3465,44.1319,300.1779],[22.3544,44.1379,294.4583],[22.3623,44.1406,284.8349],[22.3918,44.1408,265.718],[22.4128,44.1311,282.3109],[22.4207,44.1209,235.1985],[22.4257,44.1175,258.0348],[22.4692,44.1085,103.1921],[22.4739,44.104,73.3235],[22.4828,44.09,77.7013],[22.4833,44.0849,104.8361],[22.4793,44.0789,203.8711],[22.4662,44.0664,208.4507],[22.4504,44.0591,229.8046],[22.4486,44.0552,217.2655],[22.4534,44.041,260.8591],[22.4529,44.0321,295.7062],[22.4642,44.0242,267.5048],[22.4665,44.0185,302.5915],[22.4648,44.013,291.2525],[22.4699,44.0083,224.2365],[22.4781,44.0109,250.8747],[22.4973,44.0072,237.8669],[22.5197,44.0105,164.9651],[22.5213,44.0149,237.625],[22.528,44.0157,276.2925],[22.5296,44.0211,304.7437],[22.5327,44.0239,307.8564],[22.5269,44.0283,308.6987],[22.5312,44.0322,270.8636],[22.5298,44.034,253.4587],[22.5199,44.0383,237.9347],[22.5228,44.0415,212.4111],[22.5452,44.0445,284.4122],[22.5513,44.0487,269.5784],[22.5736,44.046,235.0685],[22.5765,44.0543,279.5267],[22.6045,44.0557,230.5814]]]]}
,"properties": {"GID_2": "SRB.1.4_1","GID_0": "SRB","country": "Serbia","GID_1": "SRB.1_1","province": "Borski","NL_NAME_1": "Борски","county": "Negotin","VARNAME_2": "NA","NL_NAME_2": "Неготин","TYPE_2": "Opštine","ENGTYPE_2": "Town|Municipal","CC_2": "NA","HASC_2": "NA","name": "Negotin.county","area_km2": 1147.2778,"hist_schema_id": "Elevation0-9000","hist_area_km2": {"25": 61.0999,"50": 145.6375,"75": 41.708,"100": 39.5931,"125": 50.808,"150": 50.7679,"175": 57.4439,"200": 68.9582,"225": 80.5567,"250": 91.6845,"275": 82.1823,"300": 69.5916,"325": 58.1755,"350": 48.3083,"375": 39.7278,"400": 28.7659,"425": 21.8785,"450": 17.3849,"475": 15.6572,"500": 12.7056,"525": 9.7324,"550": 7.2765,"575": 6.4725,"600": 6.5943,"625": 5.2115,"650": 4.3758,"675": 3.571,"700": 3.0238,"725": 2.6896,"750": 1.8386,"775": 1.9449,"800": 1.7168,"825": 1.5194,"850": 1.3218,"875": 1.5193,"900": 1.1547,"925": 1.1548,"950": 1.0787,"975": 0.7596,"1000": 0.5621,"1025": 0.4406,"1050": 0.2431,"1075": 0.1975,"1100": 0.1367,"1125": 0.1064}}}