{"type": "Feature","id": "844","bbox": [21.646,43.32524,22.65893,44.1686],"geometry": {"type": "Polygon","coordinates": [[[22.28069,44.13787,440.4756],[22.27779,44.13803,456.3518],[22.27552,44.13844,463.3695],[22.2733,44.13911,481.3428],[22.27051,44.14036,484.9966],[22.26782,44.14188,482.5296],[22.25335,44.15178,462.4831],[22.24405,44.15746,476.3677],[22.23836,44.16252,502.1585],[22.23273,44.1686,496.529],[22.22989,44.16521,505.56],[22.22777,44.16211,505.7242],[22.22544,44.15699,465.9958],[22.22389,44.15214,421.9661],[22.22281,44.14992,457.4665],[22.22116,44.14774,402.1182],[22.21552,44.1417,468.5176],[22.21273,44.1378,426.9927],[22.21154,44.13653,401.576],[22.20787,44.13374,343.6737],[22.20441,44.13193,302.567],[22.20204,44.13043,312.8176],[22.20074,44.12919,382.0388],[22.19289,44.11979,451.6868],[22.1918,44.11801,469.106],[22.19139,44.1155,497.7779],[22.19217,44.11312,475.3969],[22.19382,44.11126,466.6601],[22.19527,44.11015,449.9069],[22.1994,44.10759,428.4084],[22.20684,44.1048,426.701],[22.20984,44.10346,408.1558],[22.21206,44.10206,362.2012],[22.21397,44.10051,356.6637],[22.21542,44.09876,318.2081],[22.21656,44.09612,336.8336],[22.21712,44.09036,309.0407],[22.21676,44.08144,250.8642],[22.21588,44.07444,293.3535],[22.21583,44.07307,310.1143],[22.21625,44.07157,360.954],[22.21712,44.07023,361.8516],[22.22358,44.06501,362.7924],[22.22519,44.06294,386.6272],[22.22606,44.06088,406.3949],[22.22813,44.05437,415.9517],[22.22906,44.05282,410.2275],[22.23025,44.05137,402.5119],[22.23733,44.04574,394.368],[22.23888,44.04403,375.2094],[22.23997,44.04189,327.4092],[22.24012,44.03943,302.2274],[22.23986,44.03731,257.0012],[22.23836,44.03222,245.4614],[22.23795,44.030029999999996,246.5938],[22.2379,44.02783,261.4368],[22.23826,44.02563,207.7853],[22.23909,44.02261,234.1601],[22.2394,44.02041,263.7508],[22.23929,44.01824,277.3479],[22.23867,44.01618,309.2283],[22.23697,44.01349,335.045],[22.23537,44.01173,329.8795],[22.2334,44.01034,347.8785],[22.23154,44.00967,359.9587],[22.22948,44.00923,365.1814],[22.22343,44.00843,310.0437],[22.21847,44.00739,307.4241],[22.2148,44.00605,342.0742],[22.2132,44.00514,372.6246],[22.2116,44.00352,352.7183],[22.21056,44.0015,342.8412],[22.20875,43.99499,411.7498],[22.20777,43.99287,397.8991],[22.20596,43.9906,374.1491],[22.20369,43.98845,378.0379],[22.19609,43.98228,413.087],[22.19392,43.98011,369.7015],[22.19061,43.97535,380.9163],[22.18798,43.969,430.516],[22.18617,43.96615,421.114],[22.18472,43.96419,420.6226],[22.18266,43.96212,418.9326],[22.17578,43.9561,364.084],[22.17392,43.95396,340.7823],[22.17082,43.94796,330.6161],[22.16715,43.94197,302.3334],[22.16659,43.93995,272.2774],[22.16648,43.93786,283.555],[22.16839,43.92995,172.0289],[22.16839,43.92424,190.8582],[22.16783,43.92148,170.8597],[22.16571,43.91634,198.9062],[22.16478,43.91422,213.0389],[22.16193,43.90941,222.3002],[22.16054,43.90755,226.8338],[22.15878,43.906,269.5707],[22.15708,43.90518,241.4473],[22.14462,43.90099,375.2609],[22.13661,43.89944,350.644],[22.1347,43.89887,339.8135],[22.13253,43.89768,349.394],[22.13155,43.89649,384.6371],[22.12984,43.89326,420.3909],[22.12566,43.88683,428.2896],[22.12447,43.88456,415.0829],[22.12323,43.8812,415.0229],[22.12173,43.87564,400.2959],[22.11754,43.87768,392.0031],[22.11103,43.8813,329.9322],[22.10359,43.88657,303.21],[22.10106,43.88755,279.4848],[22.09538,43.88905,272.3611],[22.07765,43.89469,277.8988],[22.07202,43.89624,300.4677],[22.06675,43.89835,327.7007],[22.06261,43.90052,284.9067],[22.06122,43.90151,268.752],[22.05977,43.90326,273.5757],[22.05879,43.90528,277.2532],[22.05739,43.91195,194.761],[22.05605,43.91577,187.4257],[22.05502,43.91732,188.2687],[22.05161,43.92114,191.3241],[22.05078,43.92259,191.8658],[22.05037,43.92406,194.1702],[22.05021,43.92879,201.7664],[22.04949,43.93081,205.6008],[22.04799,43.93298,212.4171],[22.04174,43.93923,282.0927],[22.04003,43.94145,286.7919],[22.03745,43.94781,295.57],[22.03626,43.94972,307.9653],[22.03455,43.95127,336.4599],[22.03285,43.95199,336.3388],[22.03088,43.95246,322.9582],[22.02799,43.95282,284.6959],[22.02499,43.95298,222.8221],[22.01993,43.95267,225.1979],[22.01802,43.95215,222.6601],[22.01595,43.95081,251.5958],[22.01032,43.94349,284.6692],[22.00851,43.9415,286.1057],[22.0051,43.93838,272.5508],[22.00355,43.93737,272.3356],[22.00091,43.93654,282.7721],[21.99791,43.93654,321.3075],[21.98815,43.93897,324.5754],[21.98592,43.9397,297.982],[21.98386,43.94057,312.5411],[21.97838,43.94344,334.0091],[21.97388,43.94481,372.2304],[21.97001,43.94538,331.3414],[21.96189,43.94605,359.9945],[21.95797,43.94657,353.8295],[21.95559,43.94709,368.2776],[21.95332,43.94781,366.1414],[21.95042,43.94915,382.9041],[21.94221,43.95323,559.9015],[21.9405,43.95419,556.2266],[21.93859,43.95582,629.45],[21.93177,43.96223,734.1997],[21.92624,43.96639,799.0778],[21.92252,43.96832,798.1561],[21.91378,43.97086,773.0381],[21.91172,43.9722,812.1479],[21.91079,43.97339,812.1479],[21.90903,43.97664,828.8552],[21.90557,43.98055,858.6574],[21.89962,43.986,915.3062],[21.89751,43.98739,858.0013],[21.89565,43.98812,837.4048],[21.89358,43.98861,844.796],[21.88459,43.99008,779.7386],[21.87761,43.99176,780.0262],[21.87363,43.99248,736.9381],[21.87079,43.99251,753.8971],[21.86381,43.99132,750.9764],[21.84976,43.9876,751.7563],[21.84588,43.98703,817.2328],[21.84185,43.98688,813.5831],[21.83782,43.98701,820.0786],[21.83384,43.9875,751.9821],[21.83136,43.98801,768.6669],[21.82903,43.98874,784.9258],[21.82118,43.99194,758.1052],[21.81653,43.99303,821.4352],[21.81348,43.99318,838.5984],[21.81048,43.99287,797.2982],[21.8064,43.99179,869.4941],[21.79891,43.98923,856.1627],[21.7956,43.98861,910.9871],[21.79317,43.98858,953.6278],[21.79064,43.98884,980.7572],[21.77824,43.99106,1059.2533],[21.77245,43.99184,1023.844],[21.77116,43.99148,950.6907],[21.77069,43.99106,950.6907],[21.76992,43.98936,986.7491],[21.77038,43.98724,1002.7207],[21.77477,43.9813,995.6245],[21.77648,43.97778,971.7352],[21.77679,43.97631,944.7642],[21.77669,43.97427,925.4426],[21.77617,43.97285,922.2866],[21.77503,43.97091,931.5164],[21.77317,43.9691,941.9727],[21.7708,43.96745,938.2917],[21.75927,43.9613,885.7641],[21.75426,43.95716,843.3682],[21.74837,43.95352,894.1322],[21.7463,43.95184,894.7856],[21.74532,43.9505,894.7856],[21.74475,43.94905,874.2524],[21.74403,43.94424,920.2013],[21.74299,43.94187,901.22],[21.74144,43.93951,914.9205],[21.73932,43.93724,977.254],[21.73674,43.9351,996.8123],[21.72604,43.92678,908.9688],[21.72527,43.92641,908.9688],[21.72408,43.92455,854.968],[21.72398,43.92223,841.4661],[21.72506,43.92014,827.8105],[21.72982,43.91474,852.7382],[21.73049,43.91337,876.8703],[21.73069,43.91143,880.1393],[21.73028,43.91003,860.6134],[21.72883,43.90786,867.1527],[21.72398,43.90316,921.9739],[21.72253,43.90223,926.5394],[21.72,43.90099,944.1584],[21.71809,43.9006,936.1292],[21.7094,43.90034,944.1258],[21.70548,43.89947,926.3269],[21.70263,43.89866,902.8647],[21.69483,43.89577,782.0852],[21.68501,43.89283,785.7203],[21.68036,43.89107,741.7372],[21.67669,43.88923,741.6504],[21.67509,43.88812,737.6094],[21.67282,43.88549,755.8959],[21.66966,43.87996,730.5459],[21.66884,43.87748,757.4553],[21.66848,43.8721,721.9202],[21.66889,43.86942,728.8061],[21.66982,43.86683,623.3611],[21.67147,43.86445,657.9915],[21.67282,43.86321,675.5505],[21.68372,43.85551,694.3046],[21.68625,43.8535,688.5383],[21.68837,43.85148,685.7062],[21.68956,43.84942,656.6354],[21.68951,43.84766,632.6667],[21.68832,43.8459,615.8052],[21.68641,43.84428,596.0171],[21.68078,43.84063,596.678],[21.67907,43.83908,597.4406],[21.67788,43.83743,603.8635],[21.67726,43.83557,607.4243],[21.6769,43.83086,624.6431],[21.67628,43.82931,622.1636],[21.6753,43.82787,608.7991],[21.66202,43.81583,707.4526],[21.65209,43.80986,772.9341],[21.65018,43.80846,762.0558],[21.64744,43.8056,730.0575],[21.646,43.80293,667.2089],[21.66207,43.78606,410.3976],[21.66424,43.7841,393.7585],[21.66703,43.78252,462.6032],[21.67974,43.77707,544.843],[21.68393,43.77464,575.7662],[21.68656,43.77242,577.5201],[21.69276,43.76606,717.8547],[21.70387,43.75635,514.4415],[21.694,43.74989,550.6369],[21.69127,43.74891,568.5653],[21.68279,43.74725,401.1811],[21.68078,43.74655,399.947],[21.67814,43.74508,367.3547],[21.67674,43.74395,365.6102],[21.67561,43.74276,389.4596],[21.67385,43.73966,440.5296],[21.67364,43.73842,478.1498],[21.67401,43.73712,478.1498],[21.67499,43.73594,507.3932],[21.67654,43.73495,531.392],[21.6785,43.73415,500.693],[21.68574,43.73175,588.275],[21.68853,43.73025,662.3768],[21.6907,43.72839,679.1935],[21.69483,43.72358,814.1948],[21.69897,43.71976,817.7336],[21.69995,43.71826,826.16],[21.70046,43.71671,822.8134],[21.70046,43.71467,798.5514],[21.69984,43.71315,762.4816],[21.69876,43.7117,752.2976],[21.6954,43.70927,822.1995],[21.69059,43.70648,704.2978],[21.68568,43.70395,611.9433],[21.68382,43.7026,576.8022],[21.68305,43.70136,535.8676],[21.68284,43.70002,477.2569],[21.68326,43.69862,493.8261],[21.68388,43.69803,524.1372],[21.68599,43.69232,587.8984],[21.68744,43.68643,559.7109],[21.68816,43.67041,327.0005],[21.68863,43.66783,305.5934],[21.68956,43.6654,335.9686],[21.69121,43.66333,311.5117],[21.69814,43.65806,381.507],[21.69933,43.65661,349.6516],[21.70021,43.65501,350.8917],[21.70088,43.65289,314.3294],[21.70222,43.64617,250.0],[21.70315,43.64405,257.1303],[21.70491,43.64178,255.5208],[21.71462,43.63344,221.8403],[21.71664,43.63124,214.1821],[21.71938,43.62731,291.1989],[21.72186,43.62475,445.1726],[21.72418,43.62292,531.2702],[21.73359,43.61796,443.7128],[21.73819,43.61501,464.2648],[21.74237,43.61181,510.3334],[21.74413,43.6101,520.3055],[21.74733,43.60643,538.1551],[21.74992,43.60277,572.916],[21.75054,43.6007,608.6176],[21.75064,43.59853,702.4203],[21.74981,43.59352,774.9486],[21.74992,43.59155,781.3219],[21.75049,43.59005,739.9846],[21.75152,43.58868,759.7419],[21.75478,43.58641,722.4402],[21.76356,43.58194,570.6647],[21.76842,43.57848,470.7337],[21.77095,43.5769,443.3713],[21.77302,43.5761,408.5656],[21.77524,43.57553,435.7064],[21.77829,43.57517,481.6521],[21.78139,43.57517,524.9025],[21.78444,43.57545,579.3618],[21.79255,43.57667,550.2564],[21.81183,43.57781,505.0938],[21.81389,43.57752,515.0194],[21.81591,43.57693,574.1851],[21.82299,43.57305,550.4407],[21.82774,43.57096,582.1761],[21.83059,43.57016,600.438],[21.83338,43.56995,618.5009],[21.83539,43.57016,678.9918],[21.83818,43.57062,721.2799],[21.84702,43.5729,776.4575],[21.84898,43.57326,749.7836],[21.85182,43.57331,723.689],[21.85875,43.57202,827.0178],[21.86314,43.57054,791.4344],[21.86578,43.56907,788.6356],[21.86784,43.56721,823.2375],[21.87115,43.56251,806.3918],[21.8774,43.55047,736.838],[21.87963,43.54401,701.6578],[21.8835,43.53755,663.6315],[21.88485,43.5361,653.5081],[21.88727,43.53432,627.2618],[21.89942,43.52724,536.369],[21.90309,43.52481,575.5353],[21.90453,43.52344,615.2053],[21.91012,43.51628,544.1058],[21.9127,43.51357,537.2015],[21.92758,43.51512,589.0144],[21.93399,43.51618,518.9101],[21.94081,43.51843,499.2581],[21.9482,43.52153,765.0166],[21.95073,43.52233,723.1777],[21.9529,43.52267,729.5438],[21.95502,43.52262,705.1995],[21.95745,43.52205,745.4616],[21.96505,43.51874,781.2606],[21.96717,43.51822,767.6836],[21.97254,43.51771,804.5427],[21.97569,43.51786,803.4219],[21.97874,43.51833,783.4195],[21.98251,43.51962,786.0161],[21.98437,43.52055,783.9958],[21.98587,43.52156,783.9958],[21.98706,43.52329,782.1331],[21.98711,43.52448,793.6171],[21.9866,43.52561,774.9205],[21.98541,43.52665,761.9719],[21.9837,43.52752,693.5905],[21.97667,43.53016,652.7067],[21.97425,43.53132,623.9822],[21.97202,43.53272,566.7291],[21.96407,43.53931,776.9803],[21.95368,43.54654,791.5687],[21.95223,43.54778,795.2492],[21.95125,43.54907,807.7943],[21.95063,43.55052,814.8245],[21.95011,43.55507,874.6813],[21.94882,43.55915,940.1476],[21.94887,43.56109,966.7689],[21.95202,43.56848,920.7222],[21.95295,43.56969,930.13],[21.95507,43.57098,928.789],[21.9591,43.57197,914.7518],[21.96706,43.57284,916.4586],[21.97042,43.57274,872.0659],[21.97368,43.57197,864.4513],[21.97735,43.57,865.4928],[21.99295,43.55791,882.9438],[21.99249,43.55724,882.9438],[21.99254,43.55579,859.5327],[21.99378,43.55349,747.0658],[21.996,43.55114,764.9613],[21.99874,43.54887,645.823],[22.00355,43.54574,820.0062],[22.01316,43.54135,821.6649],[22.01822,43.53804,856.89],[22.02318,43.53543,769.6335],[22.02494,43.53388,733.3015],[22.02561,43.53259,753.6635],[22.02587,43.53114,740.6967],[22.02608,43.52789,679.3716],[22.02582,43.52646,707.7057],[22.02525,43.525149999999996,733.0475],[22.02261,43.52166,707.6186],[22.02225,43.52057,707.6186],[22.02225,43.5198,679.7579],[22.02287,43.51874,653.6284],[22.02458,43.51709,638.3091],[22.03006,43.51334,669.1582],[22.03491,43.50962,545.6688],[22.03967,43.50649,521.8427],[22.04137,43.50494,537.7739],[22.04199,43.50339,538.4712],[22.03993,43.49967,568.5756],[22.03977,43.4989,568.5756],[22.03987,43.49771,554.4294],[22.04055,43.49595,562.3027],[22.04251,43.49357,578.9853],[22.04473,43.49187,559.8299],[22.04742,43.49052,549.9038],[22.05176,43.48931,551.2751],[22.05372,43.48908,565.9128],[22.05651,43.48921,546.7556],[22.05972,43.49003,538.1229],[22.06618,43.49218,494.1172],[22.06912,43.49264,523.1],[22.07217,43.4928,552.8739],[22.07734,43.49228,555.9047],[22.0855,43.49089,478.4776],[22.08845,43.49021,415.6858],[22.0945,43.48789,372.6624],[22.10183,43.48391,330.9583],[22.10395,43.48308,324.0762],[22.10618,43.48244,346.6697],[22.11506,43.48055,410.5343],[22.11894,43.4791,614.339],[22.12282,43.47709,721.7401],[22.1316,43.47042,686.6801],[22.13439,43.46887,649.1091],[22.1407,43.46634,627.6559],[22.14271,43.46567,608.9213],[22.15279,43.46314,620.0213],[22.16612,43.46091,692.3763],[22.16922,43.46063,679.7478],[22.17227,43.4606,667.5184],[22.17532,43.46089,654.7866],[22.18767,43.46319,668.5883],[22.18968,43.46381,693.8665],[22.19868,43.46815,721.795],[22.20069,43.46866,696.3041],[22.20591,43.46913,661.8165],[22.20896,43.46897,659.8209],[22.21196,43.46851,648.3676],[22.22002,43.46582,642.7243],[22.23123,43.46285,728.3543],[22.23464,43.46159,710.5596],[22.2378,43.46009,661.4802],[22.23971,43.4589,643.6298],[22.24121,43.45753,646.6488],[22.24229,43.45559,633.0123],[22.24265,43.45376,660.3295],[22.2425,43.45285,709.7172],[22.2425,43.45047,744.5306],[22.24725,43.45042,655.2184],[22.25092,43.44996,597.0142],[22.25438,43.44898,617.8097],[22.25733,43.44748,607.5291],[22.26834,43.43931,589.03],[22.27087,43.43833,547.4913],[22.27242,43.43823,581.3962],[22.2748,43.4388,579.9908],[22.27691,43.44019,590.3969],[22.27826,43.44148,577.6147],[22.28306,43.44701,627.4171],[22.28684,43.45249,653.405],[22.29061,43.45652,683.7607],[22.29221,43.45766,681.0998],[22.29402,43.45856,678.5774],[22.29603,43.45916,666.1898],[22.29784,43.45949,675.3872],[22.30048,43.45941,669.9512],[22.30353,43.45854,683.5778],[22.31164,43.45456,660.95],[22.31536,43.45244,669.9396],[22.32223,43.44799,697.6984],[22.32658,43.44637,735.713],[22.33257,43.44495,716.2259],[22.33707,43.44345,669.0997],[22.33986,43.4421,667.4987],[22.34229,43.4405,687.9653],[22.34502,43.43807,742.0521],[22.34849,43.43342,718.2069],[22.35086,43.42779,682.8928],[22.35154,43.42422,751.8256],[22.35081,43.42066,730.0778],[22.34874,43.415,644.0626],[22.34771,43.41298,632.3112],[22.34606,43.41074,624.4573],[22.34151,43.40608,577.363],[22.34068,43.40474,576.9928],[22.34001,43.40273,581.4648],[22.33975,43.40058,593.0649],[22.33996,43.39844,622.7769],[22.34084,43.39448,664.7859],[22.34084,43.39205,666.0879],[22.33991,43.38996,655.9155],[22.33701,43.38598,698.3378],[22.33645,43.38477,671.7469],[22.3365,43.38288,656.9118],[22.33727,43.38237,656.9118],[22.35991,43.37596,723.7725],[22.36213,43.37503,796.3972],[22.36745,43.37167,713.9014],[22.37107,43.36976,695.8494],[22.37562,43.36826,683.072],[22.38414,43.36635,656.3869],[22.39422,43.36265,794.3827],[22.39872,43.3618,715.7831],[22.40156,43.36185,741.5051],[22.40745,43.36262,855.4247],[22.41019,43.36257,858.1711],[22.41427,43.36159,768.5042],[22.41629,43.36079,715.8299],[22.42161,43.35761,812.4114],[22.44497,43.34474,644.4739],[22.44605,43.34534,644.4739],[22.44858,43.34606,591.8826],[22.45168,43.34655,485.3312],[22.4613,43.3463,575.8956],[22.46455,43.34648,585.025],[22.46683,43.34681,581.9891],[22.46889,43.34743,645.0822],[22.47153,43.34885,738.4808],[22.47427,43.3512,636.3423],[22.47794,43.35591,647.41],[22.48295,43.36459,761.1882],[22.48429,43.36598,800.0464],[22.48569,43.3666,800.0464],[22.48734,43.36691,834.8092],[22.48987,43.36686,821.1943],[22.49142,43.36635,806.6868],[22.49282,43.36549,798.3637],[22.49556,43.36293,755.467],[22.49783,43.36025,733.8069],[22.50253,43.35348,877.5767],[22.50512,43.35058,901.749],[22.51535,43.34387,860.278],[22.52083,43.33808,915.9619],[22.5246,43.33544,888.8104],[22.53292,43.33257,812.5718],[22.53943,43.32976,745.5052],[22.54139,43.32932,762.2953],[22.55168,43.32878,794.0185],[22.55473,43.32842,853.4207],[22.5724,43.32542,1172.7721],[22.57519,43.32524,1209.8391],[22.57715,43.32537,1227.2754],[22.57891,43.32573,1249.6595],[22.58067,43.32684,1255.4832],[22.58113,43.328,1219.5708],[22.58108,43.3294,1235.4995],[22.58062,43.33128,1222.9847],[22.57772,43.33741,1247.724],[22.57736,43.3388,1275.3168],[22.57757,43.34074,1305.6151],[22.57896,43.34301,1273.3678],[22.58119,43.34518,1229.5002],[22.58671,43.34934,1349.8519],[22.60165,43.36004,1595.3973],[22.60578,43.3618,1591.4214],[22.61767,43.36554,1633.7434],[22.61979,43.3664,1612.5621],[22.62237,43.36784,1611.2977],[22.62459,43.36952,1527.8733],[22.62986,43.37467,1455.1597],[22.63431,43.37963,1437.1747],[22.63855,43.38384,1565.9817],[22.64351,43.38753,1644.4316],[22.65085,43.39389,1741.252],[22.65183,43.39451,1741.252],[22.65886,43.40123,1940.6089],[22.65893,43.4013,1940.6089],[22.65653,43.40319,1823.9415],[22.64537,43.4203,1531.5151],[22.63782,43.42637,1547.7826],[22.62852,43.42825,1766.1359],[22.60692,43.4274,1380.3739],[22.59627,43.42916,1363.8339],[22.58677,43.43443,1261.9087],[22.57271,43.44815,1021.6756],[22.56578,43.45334,1186.4019],[22.53261,43.46484,1327.5369],[22.51886,43.47425,1047.2048],[22.50935,43.49334,1114.4022],[22.49065,43.54088,1109.3748],[22.47845,43.55923,990.3359],[22.47762,43.56416,1111.0084],[22.47866,43.56918,1192.1774],[22.48145,43.57411,990.6848],[22.48269,43.5767,1040.5308],[22.4831,43.57928,1046.7661],[22.48269,43.58173,984.163],[22.48145,43.58414,1034.4312],[22.47814,43.58757,1032.6277],[22.47711,43.59129,991.5963],[22.47814,43.59491,1040.5458],[22.48145,43.59853,1186.6843],[22.48176,43.59894,1155.4122],[22.48197,43.59946,1121.2767],[22.48176,43.59998,1155.4122],[22.48145,43.60065,1109.3158],[22.4738,43.613,851.8233],[22.47287,43.63594,548.3546],[22.46626,43.64912,616.8314],[22.45592,43.65641,722.1032],[22.42647,43.66821,652.054],[22.41396,43.67666,829.0641],[22.40486,43.68718,822.5732],[22.39691,43.6994,771.1458],[22.3905,43.71245,698.1722],[22.38605,43.7255,711.5199],[22.38585,43.73382,750.5186],[22.38957,43.75051,685.3148],[22.38853,43.75829,682.0956],[22.36259,43.78084,344.0464],[22.34947,43.80792,468.8429],[22.35474,43.8297,416.7283],[22.36755,43.85275,327.3548],[22.37706,43.88352,345.3306],[22.37903,43.9135,346.8743],[22.38202,43.91856,344.9291],[22.39195,43.93187,298.2122],[22.39453,43.93634,337.0214],[22.3968,43.95194,339.2212],[22.39732,43.98093,320.6806],[22.39959,43.99334,334.5941],[22.41179,44.00693,352.4336],[22.43432,44.01396,309.5352],[22.46589,44.01762,302.5915],[22.4661,44.01793,302.5915],[22.46646,44.01845,302.5915],[22.46497,44.02264,276.2097],[22.46419,44.02424,267.5048],[22.46305,44.02569,264.0805],[22.46068,44.02729,261.3176],[22.45582,44.02928,285.5147],[22.45391,44.03044,293.3719],[22.45287,44.03204,298.301],[22.45251,44.03395,289.4591],[22.45267,44.03597,273.1337],[22.45334,44.03886,261.004],[22.45339,44.04098,260.8591],[22.45298,44.0431,241.1881],[22.44998,44.04956,231.6512],[22.44889,44.05315,207.9177],[22.44864,44.05519,217.2655],[22.44874,44.05669,244.9827],[22.44931,44.05798,229.8786],[22.45044,44.05912,229.8046],[22.45205,44.0601,209.2264],[22.45546,44.06163,189.8684],[22.46217,44.06377,261.9256],[22.46471,44.06527,256.5049],[22.46615,44.06638,208.4507],[22.47173,44.07235,126.6297],[22.47639,44.07602,163.3446],[22.47928,44.07891,203.8711],[22.4815,44.0816,185.5584],[22.48331,44.08491,104.8361],[22.48378,44.0863,88.1752],[22.48367,44.08827,79.9527],[22.48279,44.09005,77.7013],[22.47794,44.09708,64.3815],[22.47391,44.10403,73.3235],[22.47117,44.1071,102.8648],[22.46915,44.10852,103.1921],[22.46734,44.10919,107.2912],[22.46528,44.10966,116.1516],[22.45282,44.111,131.2338],[22.44249,44.11307,160.3597],[22.43231,44.1154,230.8559],[22.42574,44.11751,258.0348],[22.42378,44.11844,255.9614],[22.42202,44.11953,242.0325],[22.42068,44.12087,235.1985],[22.41629,44.1278,258.8829],[22.41282,44.13105,282.3109],[22.41019,44.13276,303.7185],[22.39923,44.13839,286.0782],[22.3966,44.13948,243.2664],[22.39184,44.14077,265.718],[22.3845,44.14144,255.2107],[22.37691,44.1416,263.4315],[22.36942,44.14144,270.8569],[22.3658,44.14118,279.6053],[22.36234,44.14061,284.8349],[22.35836,44.13948,293.7573],[22.35443,44.13793,294.4583],[22.35195,44.13638,296.0767],[22.34647,44.13193,300.1779],[22.34404,44.13087,300.3518],[22.3412,44.13023,302.9915],[22.3382,44.13002,305.8365],[22.33515,44.13007,315.9778],[22.33216,44.13048,321.4883],[22.32094,44.13338,274.4836],[22.31743,44.13395,279.0263],[22.29872,44.13503,379.2758],[22.29521,44.1356,384.0585],[22.28746,44.13777,414.6536],[22.28467,44.138,420.7086],[22.28069,44.13787,440.4756]]]}
,"properties": {"ISO3166-1-Alpha-3": "SRB","country": "Republic of Serbia","fill": "#F00","name": "Zajecarski","area_km2": 3516.839,"hist_schema_id": "Elevation0-9000","hist_area_km2": {"75": 5.666,"100": 12.135,"125": 52.519,"150": 54.793,"175": 67.126,"200": 97.424,"225": 107.312,"250": 123.75,"275": 146.238,"300": 156.538,"325": 163.799,"350": 162.125,"375": 155.076,"400": 145.619,"425": 135.409,"450": 126.626,"475": 113.594,"500": 106.61,"525": 107.056,"550": 108.88,"575": 110.018,"600": 114.893,"625": 114.319,"650": 110.562,"675": 102.404,"700": 93.939,"725": 83.326,"750": 75.965,"775": 72.594,"800": 67.234,"825": 61.517,"850": 53.473,"875": 45.258,"900": 41.143,"925": 37.606,"950": 31.647,"975": 23.416,"1000": 20.028,"1025": 15.75,"1050": 12.792,"1075": 11.875,"1100": 10.954,"1125": 7.761,"1150": 6.626,"1175": 4.751,"1200": 3.525,"1225": 3.248,"1250": 2.677,"1275": 2.909,"1300": 2.832,"1325": 1.97,"1350": 2.077,"1375": 1.693,"1400": 1.355,"1425": 1.371,"1450": 1.524,"1475": 1.648,"1500": 1.602,"1525": 1.155,"1550": 1.109,"1575": 1.079,"1600": 0.955,"1625": 1.109,"1650": 0.94,"1675": 0.74,"1700": 0.508,"1725": 0.647,"1750": 0.478,"1775": 0.262,"1800": 0.277,"1825": 0.401,"1850": 0.2,"1875": 0.185,"1900": 0.154,"1925": 0.046}}}