{"type":"Feature","properties":{"GID_1":"SRB.23_1","GID_0":"SRB","country":"Serbia","province":"Zaječarski","VARNAME_1":"Zaječar","NL_NAME_1":"Зајечарски","TYPE_1":"Okrug","ENGTYPE_1":"District","CC_1":"NA","HASC_1":"RS.ZJ","ISO_1":"NA","name":"Zaječarski.province"},
"geometry":{"type": "MultiPolygon","coordinates": [[[[22.4025,43.6743,770.9093],[22.4023,43.6767,712.8298],[22.3902,43.6874,777.3685],[22.3908,43.6954,744.1994],[22.3876,43.7015,691.7669],[22.3879,43.7067,642.4482],[22.3859,43.713,645.9485],[22.3797,43.7188,654.1084],[22.3842,43.7266,702.8591],[22.383,43.7405,559.2071],[22.3872,43.7465,652.5814],[22.3795,43.7466,611.2894],[22.3635,43.7599,528.7039],[22.3523,43.7798,377.5314],[22.3489,43.7824,245.4661],[22.3474,43.7887,325.1505],[22.3443,43.7918,385.0861],[22.3438,43.7951,397.4002],[22.3463,43.7984,416.5934],[22.347,43.8055,460.7732],[22.3556,43.8108,455.5367],[22.3597,43.8203,472.3273],[22.3667,43.8303,567.077],[22.3664,43.8337,642.5095],[22.3762,43.8651,343.6144],[22.3789,43.8861,360.7657],[22.3828,43.894,380.7698],[22.381,43.8993,367.5732],[22.3823,43.9027,360.3634],[22.3787,43.9084,351.6387],[22.3783,43.912,347.7038],[22.3832,43.9169,346.3961],[22.3988,43.9258,296.2696],[22.3973,43.9354,323.0257],[22.4026,43.9418,365.1492],[22.4031,43.9493,359.7601],[22.406,43.9591,355.6112],[22.4044,43.9625,341.7892],[22.4056,43.9678,344.9102],[22.4026,43.9695,339.246],[22.4038,43.9729,343.969],[22.4025,43.9751,343.6122],[22.4107,43.9809,349.1309],[22.405,43.9857,349.4179],[22.4071,43.9877,351.3276],[22.4044,43.9943,350.5574],[22.4186,43.9957,346.9547],[22.4375,44.0006,328.2258],[22.4388,44.0066,315.0142],[22.4462,44.0075,328.4249],[22.462,44.0053,282.0629],[22.4699,44.0083,224.2365],[22.4648,44.013,291.2525],[22.4665,44.0185,302.5915],[22.4642,44.0242,267.5048],[22.4529,44.0321,295.7062],[22.4534,44.041,260.8591],[22.4487,44.0567,244.9827],[22.452,44.0601,209.2264],[22.4662,44.0664,208.4507],[22.4815,44.0816,185.5584],[22.4837,44.0882,79.9527],[22.4739,44.104,73.3235],[22.4692,44.1085,103.1921],[22.4257,44.1175,258.0348],[22.4207,44.1209,235.1985],[22.4128,44.1311,282.3109],[22.3966,44.1395,243.2664],[22.3845,44.1415,255.2107],[22.3623,44.1406,284.8349],[22.3544,44.1379,294.4583],[22.3465,44.1319,300.1779],[22.3382,44.13,305.8365],[22.3174,44.134,279.0263],[22.2778,44.138,456.3518],[22.2678,44.1419,482.5296],[22.244,44.1575,476.3677],[22.2327,44.1686,496.529],[22.2278,44.1621,505.7242],[22.2212,44.1477,402.1182],[22.2115,44.1365,401.576],[22.2007,44.1292,382.0388],[22.1929,44.1198,451.6868],[22.1914,44.1155,497.7779],[22.1952,44.1102,449.9069],[22.2098,44.1034,408.1558],[22.2154,44.0988,318.2081],[22.2171,44.0904,309.0407],[22.2162,44.0716,360.954],[22.2252,44.063,386.6272],[22.229,44.0528,410.2275],[22.24,44.0419,327.4092],[22.2379,44.03,246.5938],[22.2387,44.0162,309.2283],[22.2334,44.0103,347.8785],[22.2185,44.0074,300.7277],[22.2116,44.0035,352.7183],[22.2078,43.9929,397.8991],[22.1939,43.9801,369.7015],[22.1862,43.9662,421.114],[22.1739,43.954,340.7823],[22.1671,43.942,302.3334],[22.1684,43.9243,190.8582],[22.162,43.9094,222.3002],[22.1571,43.9052,241.4473],[22.1325,43.8977,349.394],[22.1245,43.8845,415.0829],[22.1217,43.8756,400.2959],[22.1036,43.8866,303.21],[22.072,43.8962,300.4677],[22.0612,43.9015,268.752],[22.056,43.9158,187.4257],[22.0508,43.9226,191.8658],[22.0495,43.9308,205.6008],[22.04,43.9414,286.7919],[22.0362,43.9497,307.9653],[22.0328,43.952,336.3388],[22.018,43.9522,222.6601],[22.0051,43.9384,272.5508],[21.9979,43.9366,321.3075],[21.9739,43.9448,372.2304],[21.9556,43.9471,368.2776],[21.9422,43.9532,559.9015],[21.9263,43.9664,783.0845],[21.9117,43.9722,812.1479],[21.9056,43.9805,858.6574],[21.8957,43.9881,837.4048],[21.8736,43.9925,736.9381],[21.8419,43.9869,813.5831],[21.8314,43.988,768.6669],[21.8165,43.993,821.4352],[21.8105,43.9929,797.2982],[21.7956,43.9886,910.9871],[21.7725,43.9919,1023.844],[21.7699,43.9893,986.7491],[21.7765,43.9778,971.7352],[21.7762,43.9728,922.2866],[21.7732,43.9691,941.9727],[21.7463,43.9519,894.7856],[21.7414,43.9395,914.9205],[21.7253,43.9264,908.9688],[21.724,43.9222,841.4661],[21.7305,43.9134,876.8703],[21.7289,43.9078,867.1527],[21.72,43.901,944.1584],[21.7027,43.8987,902.8647],[21.6804,43.8911,741.7372],[21.6728,43.8855,755.8959],[21.6688,43.8775,757.4553],[21.6698,43.8668,623.3611],[21.6884,43.8515,685.7062],[21.6895,43.8477,632.6667],[21.6779,43.8374,603.8635],[21.6753,43.8279,608.7991],[21.662,43.8158,707.4526],[21.6502,43.8085,762.0558],[21.646,43.8029,667.2089],[21.6643,43.7841,393.7585],[21.6839,43.7747,575.7662],[21.7039,43.7563,514.4415],[21.694,43.7499,550.6369],[21.6781,43.7451,367.3547],[21.6736,43.7384,478.1498],[21.6766,43.735,531.392],[21.6885,43.7303,662.3768],[21.7005,43.7167,822.8134],[21.6988,43.7117,752.2976],[21.6831,43.7014,535.8676],[21.6874,43.6864,559.7109],[21.6896,43.6654,335.9686],[21.6993,43.6566,349.6516],[21.7049,43.6418,255.5208],[21.7218,43.6248,445.1726],[21.7382,43.615,464.2648],[21.7474,43.6064,538.1551],[21.7505,43.6007,608.6176],[21.7499,43.5915,781.3219],[21.7515,43.5887,759.7419],[21.7709,43.5769,443.3713],[21.7814,43.5752,524.9025],[21.8118,43.5778,505.0938],[21.8306,43.5702,600.438],[21.8518,43.5733,723.689],[21.8631,43.5705,791.4344],[21.8711,43.5625,806.3918],[21.8835,43.5375,663.6315],[21.9031,43.5248,575.5353],[21.9127,43.5136,537.2015],[21.934,43.5162,518.9101],[21.9529,43.5227,729.5438],[21.9726,43.5177,804.5427],[21.9787,43.5183,783.4195],[21.9859,43.5216,783.9958],[21.9871,43.5245,793.6171],[21.9854,43.5266,761.9719],[21.972,43.5327,566.7291],[21.9537,43.5466,791.5687],[21.9507,43.5505,814.8245],[21.9489,43.5611,966.7689],[21.9529,43.5697,930.13],[21.9591,43.572,914.7518],[21.9737,43.5719,864.4513],[21.993,43.5579,882.9438],[21.9938,43.5535,747.0658],[21.9987,43.5489,645.823],[22.025,43.5339,733.3015],[22.0258,43.5265,707.7057],[22.0223,43.5198,679.7579],[22.0414,43.505,537.7739],[22.0398,43.4989,568.5756],[22.0405,43.496,562.3027],[22.0474,43.4905,549.9038],[22.0565,43.4892,546.7556],[22.0722,43.4928,552.8739],[22.0884,43.4902,415.6858],[22.1039,43.4831,324.0762],[22.1189,43.4791,614.339],[22.1316,43.4704,602.1803],[22.1407,43.4663,627.6559],[22.1661,43.4609,692.3763],[22.1877,43.4632,668.5883],[22.2007,43.4687,696.3041],[22.2119,43.4685,648.3676],[22.2378,43.4601,661.4802],[22.2423,43.4556,633.0123],[22.2425,43.4505,744.5306],[22.2544,43.449,617.8097],[22.2709,43.4384,547.4913],[22.2769,43.4402,590.3969],[22.2922,43.4577,681.0998],[22.2978,43.4595,675.3872],[22.3035,43.4585,683.5778],[22.3222,43.448,697.6984],[22.3398,43.4421,667.4987],[22.3485,43.4334,718.2069],[22.3515,43.4242,751.8256],[22.3508,43.4207,730.0778],[22.3477,43.413,632.3112],[22.340699999999998,43.4047,576.9928],[22.3408,43.3921,666.847],[22.3364,43.3848,671.7469],[22.3373,43.3823,656.9118],[22.3599,43.376,723.7725],[22.3711,43.3698,695.8494],[22.3942,43.3626,794.3827],[22.4142,43.3616,768.5042],[22.4449,43.3448,644.4739],[22.4517,43.3465,485.3312],[22.4689,43.3474,645.0822],[22.4743,43.3512,636.3423],[22.4843,43.366,800.0464],[22.4899,43.3669,821.1943],[22.4956,43.3629,755.467],[22.5051,43.3506,901.749],[22.5154,43.3439,860.278],[22.5246,43.3355,888.8104],[22.5414,43.3293,762.2953],[22.5789,43.3257,1249.6595],[22.5811,43.3294,1235.4995],[22.5776,43.3407,1305.6151],[22.5812,43.3452,1229.5002],[22.6016,43.36,1595.3973],[22.6224,43.3678,1611.2977],[22.6454,43.3892,1534.095],[22.6379,43.3963,1782.809],[22.6376,43.4047,1554.2567],[22.6319,43.4129,1191.6783],[22.6312,43.4188,1373.969],[22.6114,43.427,1443.5894],[22.6032,43.4215,1167.7439],[22.5981,43.4206,1095.4817],[22.5722,43.4273,1032.4163],[22.5659,43.4322,894.042],[22.5651,43.4394,843.5206],[22.5622,43.4447,924.1435],[22.5521,43.4551,1449.6476],[22.5396,43.4551,1375.1638],[22.5314,43.4529,1206.6638],[22.5126,43.4617,913.0334],[22.5112,43.4691,1076.7843],[22.5039,43.4767,951.6643],[22.5025,43.4879,917.071],[22.4953,43.4933,1012.9215],[22.4924,43.497,875.0385],[22.4925,43.5009,994.0085],[22.4851,43.5077,814.7493],[22.4842,43.5136,935.2405],[22.4808,43.5203,930.8031],[22.4822,43.5317,868.827],[22.4749,43.5413,927.7626],[22.4733,43.5457,869.5987],[22.47,43.5478,832.3182],[22.4693,43.5602,895.4349],[22.477,43.5745,978.0138],[22.4764,43.5766,932.027],[22.4704,43.5803,877.5311],[22.4683,43.5844,937.902],[22.4752,43.5945,991.7387],[22.4724,43.5998,1115.9491],[22.4703,43.6099,745.4052],[22.4634,43.6174,581.9068],[22.4738,43.6272,641.9448],[22.4743,43.6322,577.7339],[22.4724,43.6352,542.3911],[22.4674,43.6382,573.7228],[22.4665,43.6436,704.9398],[22.4622,43.6484,580.8828],[22.4413,43.6519,645.9974],[22.4281,43.6591,532.633],[22.4224,43.6657,706.4001],[22.409,43.6695,737.5665],[22.4025,43.6743,770.9093]]]]}}