{"type":"Feature","properties":{"GID_2":"SRB.8.7_1","GID_0":"SRB","country":"Serbia","GID_1":"SRB.8_1","province":"Mačvanski","NL_NAME_1":"Мачвански","county":"Šabac","VARNAME_2":"NA","NL_NAME_2":"Шабац","TYPE_2":"Opštine","ENGTYPE_2":"Town|Municipal","CC_2":"NA","HASC_2":"NA","name":"Šabac.county"},
"geometry":{"type": "MultiPolygon","coordinates": [[[[19.2968,44.7036,99.2373],[19.3077,44.7025,95.9367],[19.3124,44.7003,95.9095],[19.3275,44.6906,98.5373],[19.3342,44.6823,99.1555],[19.351,44.6701,100.5045],[19.3681,44.6706,110.4934],[19.3782,44.6666,119.9099],[19.3909,44.6515,146.7394],[19.3932,44.6237,312.3979],[19.3955,44.6192,451.8263],[19.4028,44.612,344.8516],[19.4343,44.6029,440.9922],[19.453,44.604,324.7531],[19.476,44.5943,389.5894],[19.4854,44.5879,351.8668],[19.4898,44.5793,274.627],[19.4972,44.5746,260.3901],[19.5092,44.5617,246.9148],[19.5142,44.541,246.0293],[19.5205,44.5312,218.3776],[19.5267,44.5247,212.3805],[19.5405,44.5164,264.1591],[19.5453,44.5113,259.0591],[19.5434,44.4975,245.0161],[19.5388,44.4889,329.92],[19.5288,44.4786,312.8209],[19.5276,44.4708,303.5644],[19.5359,44.4695,266.1336],[19.5391,44.4637,245.6637],[19.5498,44.4623,322.1515],[19.5627,44.4641,315.9751],[19.567,44.4728,397.3382],[19.5853,44.473,300.3243],[19.5893,44.4705,269.1432],[19.594,44.4721,235.597],[19.5952,44.4741,238.6096],[19.5923,44.479,240.1107],[19.5963,44.4852,234.3772],[19.6038,44.49,188.0998],[19.6062,44.5015,191.7773],[19.612,44.5081,224.2646],[19.6197,44.5076,237.7665],[19.6308,44.5176,233.4005],[19.6328,44.5211,250.2616],[19.6338,44.5299,243.3451],[19.6405,44.5449,203.978],[19.6544,44.555,147.1051],[19.6557,44.5735,136.712],[19.6599,44.5853,119.9855],[19.6719,44.5966,109.0219],[19.6872,44.6033,167.4821],[19.6879,44.6056,159.5278],[19.6806,44.6237,120.5285],[19.6758,44.6311,121.7089],[19.6637,44.6403,104.0022],[19.6624,44.6435,112.5223],[19.6641,44.647,123.2306],[19.679,44.6536,120.5626],[19.6892,44.6554,124.4648],[19.7045,44.6544,98.7808],[19.7226,44.6483,117.546],[19.7354,44.6485,90.7984],[19.7425,44.6526,111.1411],[19.75,44.6656,105.7343],[19.7605,44.6711,89.6403],[19.7745,44.6688,121.2238],[19.7849,44.6593,113.0568],[19.793,44.6582,100.6246],[19.8217,44.6803,140.9871],[19.8326,44.6911,127.1161],[19.7938,44.7238,79.1553],[19.7778,44.7336,78.599],[19.7619,44.7368,79.5653],[19.7338,44.7302,83.9241],[19.6974,44.7306,96.2109],[19.6897,44.7333,96.073],[19.6692,44.7475,81.7168],[19.6667,44.7526,80.0591],[19.6661,44.7584,79.475],[19.6661,44.7822,78.8331],[19.6687,44.7937,78.7218],[19.6693,44.8141,80.8406],[19.6733,44.8289,78.8425],[19.683,44.8434,77.7108],[19.7067,44.8724,80.0455],[19.7324,44.89,76.4401],[19.7183,44.8978,75.1326],[19.6937,44.901,80.1762],[19.6788,44.9098,76.2999],[19.6695,44.9128,75.0162],[19.6611,44.9118,75.4592],[19.6458,44.9019,75.3763],[19.6236,44.8937,78.8885],[19.6143,44.8773,79.5292],[19.6133,44.866,80.6385],[19.6106,44.8607,80.2484],[19.5661,44.8325,87.2505],[19.5637,44.8274,83.0661],[19.5647,44.8231,87.2388],[19.5773,44.8144,83.5892],[19.5797,44.8103,80.7253],[19.5791,44.8061,81.0952],[19.5747,44.8016,88.4065],[19.5445,44.7813,83.2229],[19.542,44.7766,83.1289],[19.5451,44.7646,83.4995],[19.5435,44.7608,83.7569],[19.5217,44.7493,84.7079],[19.5099,44.7385,85.7171],[19.5029,44.736,85.9157],[19.4925,44.7363,87.1616],[19.4852,44.7421,86.9951],[19.4812,44.7501,87.4024],[19.4711,44.7594,87.9394],[19.4444,44.7671,88.56],[19.4318,44.7674,87.4667],[19.428,44.7663,87.626],[19.4211,44.7594,89.5674],[19.4108,44.7523,90.9294],[19.4028,44.7406,90.6393],[19.3951,44.7349,91.695],[19.3835,44.7319,91.9789],[19.3507,44.731,93.8959],[19.3285,44.7253,97.6144],[19.3167,44.7263,97.447],[19.3061,44.711,98.6296],[19.2968,44.7036,99.2373]]]]}}