{"type":"Feature","properties":{"GID_1":"SRB.7_1","GID_0":"SRB","country":"Serbia","province":"Kolubarski","VARNAME_1":"Kolubara","NL_NAME_1":"Колубарски","TYPE_1":"Okrug","ENGTYPE_1":"District","CC_1":"NA","HASC_1":"RS.KB","ISO_1":"NA","name":"Kolubarski.province"},
"geometry":{"type": "MultiPolygon","coordinates": [[[[20.127,44.0962,688.0226],[20.1583,44.0998,706.2473],[20.1714,44.1099,720.3891],[20.1789,44.1124,672.567],[20.1956,44.1115,643.8934],[20.2124,44.114,636.0988],[20.2292,44.1116,677.8275],[20.2536,44.1192,635.781],[20.2797,44.12,658.1123],[20.2868,44.1214,577.1149],[20.293,44.1326,582.9302],[20.2984,44.1368,552.954],[20.328,44.1472,308.8434],[20.3351,44.152,304.6902],[20.3373,44.1551,286.6022],[20.3363,44.1647,318.9031],[20.3396,44.1682,338.4166],[20.3512,44.1733,418.5994],[20.3665,44.1733,366.4691],[20.3722,44.1759,246.2739],[20.3759,44.1816,344.909],[20.3751,44.1911,307.4949],[20.3778,44.1981,331.1108],[20.3828,44.2021,389.7052],[20.3958,44.2039,419.3896],[20.3992,44.2061,402.0375],[20.4053,44.2219,324.0579],[20.4231,44.2418,213.9479],[20.4241,44.248,260.4067],[20.4232,44.2544,266.5662],[20.4148,44.27,289.842],[20.4157,44.2821,358.5349],[20.4146,44.2854,376.8609],[20.4062,44.2912,358.2606],[20.3891,44.2943,312.213],[20.3779,44.2908,378.4888],[20.3602,44.2907,305.8225],[20.3561,44.2894,266.4625],[20.3493,44.2824,231.3593],[20.3431,44.2699,264.9813],[20.3241,44.255,236.9346],[20.3094,44.2505,190.2543],[20.2901,44.2566,152.3087],[20.2848,44.2533,143.2603],[20.2847,44.2444,162.6458],[20.2824,44.2411,174.1541],[20.2692,44.242,139.0409],[20.2592,44.2466,139.1057],[20.2488,44.2615,195.5168],[20.2129,44.2844,212.2142],[20.1923,44.3081,202.2253],[20.187,44.3199,142.587],[20.1915,44.3281,179.6772],[20.2021,44.3384,113.0123],[20.2026,44.3425,113.0633],[20.2006,44.3463,131.6068],[20.1923,44.3536,141.6756],[20.191,44.3593,118.6879],[20.1922,44.3621,118.8511],[20.1992,44.3674,105.5411],[20.2006,44.3766,104.5413],[20.2154,44.3863,102.8324],[20.2258,44.4077,99.6493],[20.226,44.4233,101.6981],[20.2202,44.4342,110.4473],[20.2264,44.4494,118.6368],[20.2175,44.4787,85.9718],[20.1969,44.4936,98.3795],[20.1998,44.5103,96.3299],[20.1925,44.5196,100.6138],[20.1894,44.5363,81.3379],[20.1824,44.5429,83.054],[20.1766,44.5423,82.4254],[20.1727,44.5384,81.5933],[20.1679,44.5253,93.7249],[20.1584,44.5156,84.6171],[20.1516,44.5058,91.618],[20.1278,44.4952,86.6407],[20.1216,44.499,89.8446],[20.1098,44.5128,91.5737],[20.104,44.5224,102.6818],[20.0951,44.526,104.4097],[20.074,44.5247,109.8725],[20.0671,44.521,111.1355],[20.0569,44.5102,103.5631],[20.0447,44.5072,98.9942],[20.0241,44.5129,108.9875],[20.0141,44.5173,113.8794],[19.9959,44.52,118.7697],[19.99,44.5223,122.7487],[19.9741,44.5347,128.1518],[19.9674,44.5435,140.1291],[19.9661,44.549,123.2498],[19.9678,44.5576,124.1163],[19.9711,44.5603,136.6386],[19.9711,44.5648,134.2619],[19.9644,44.5647,117.2965],[19.9511,44.558,123.8764],[19.9269,44.5506,147.7269],[19.9061,44.5592,173.5638],[19.8977,44.5591,177.2552],[19.8768,44.5475,126.2173],[19.8635,44.543,129.8249],[19.8549,44.5352,169.823],[19.8499,44.524,198.3703],[19.8566,44.5175,170.1182],[19.8579,44.5058,146.6209],[19.8689,44.4926,114.0455],[19.8702,44.4849,168.7766],[19.8673,44.4807,205.8004],[19.8572,44.4743,190.1147],[19.856,44.4716,192.3777],[19.8637,44.454,213.9062],[19.8641,44.4431,258.7693],[19.8622,44.4369,278.8484],[19.8575,44.4351,280.4323],[19.845,44.4379,275.9929],[19.8399,44.4376,259.6487],[19.8326,44.4349,256.9292],[19.8272,44.4296,274.5059],[19.8286,44.4253,265.0413],[19.8498,44.4056,215.8134],[19.8348,44.3887,302.4634],[19.8231,44.3876,301.8768],[19.776,44.3889,302.5836],[19.7736,44.3914,334.2465],[19.7742,44.3976,316.7527],[19.7728,44.4016,320.8842],[19.76,44.4137,323.3676],[19.6803,44.4381,253.9322],[19.6675,44.4386,254.7399],[19.638,44.4333,256.156],[19.6111,44.423,325.119],[19.5958,44.4224,367.4874],[19.5843,44.4261,358.8452],[19.5802,44.43,287.7256],[19.5759,44.4376,292.3112],[19.561,44.4457,254.5266],[19.5487,44.4448,231.7821],[19.5213,44.4386,179.9661],[19.509,44.4402,194.7417],[19.4973,44.4395,218.7139],[19.4866,44.4355,187.4447],[19.4845,44.4325,165.274],[19.4859,44.4291,218.2617],[19.5012,44.4231,223.0364],[19.5035,44.4204,212.4006],[19.4988,44.4119,235.7683],[19.4984,44.4027,268.8404],[19.4938,44.3897,272.0213],[19.4842,44.3751,323.8653],[19.4787,44.37,337.9376],[19.4728,44.368,330.6618],[19.4565,44.3679,266.0353],[19.452,44.3651,298.5904],[19.449,44.3605,338.7776],[19.4497,44.3548,388.2275],[19.4579,44.3468,379.7589],[19.4647,44.3453,387.7657],[19.477,44.3471,374.6625],[19.4803,44.3454,363.1241],[19.4914,44.3289,356.372],[19.492,44.3223,396.9608],[19.4888,44.3176,400.0573],[19.4837,44.3147,364.3328],[19.4669,44.3115,525.943],[19.4598,44.3076,523.8043],[19.4507,44.2973,711.9452],[19.4468,44.2852,902.3844],[19.4311,44.2748,558.0143],[19.4303,44.2628,493.5651],[19.4257,44.2541,626.6133],[19.447,44.2422,598.1324],[19.4642,44.2365,388.0913],[19.4932,44.2322,475.0577],[19.5055,44.2248,495.7861],[19.5143,44.2217,712.6818],[19.5299,44.2217,949.8933],[19.544,44.2137,898.1646],[19.5591,44.2083,942.3411],[19.5767,44.1893,1144.13],[19.575,44.185,1078.9741],[19.5806,44.1705,898.4156],[19.5953,44.1651,846.325],[19.6026,44.1585,840.2903],[19.6114,44.1468,894.2421],[19.6182,44.1437,893.0529],[19.636,44.1445,916.7025],[19.6563,44.1389,960.3159],[19.673,44.1259,950.7551],[19.7044,44.119,839.0376],[19.7212,44.1079,903.3524],[19.7343,44.1075,938.514],[19.7397,44.1056,999.9368],[19.7555,44.0932,912.7325],[19.7621,44.0827,799.0543],[19.774,44.0721,902.1045],[19.7761,44.0675,874.5309],[19.7743,44.0588,772.9562],[19.7791,44.0542,744.0845],[19.8024,44.0526,739.2598],[19.8079,44.0549,704.6808],[19.8109,44.0602,713.3071],[19.81,44.0738,784.915],[19.8064,44.0835,766.0894],[19.7993,44.0955,842.4144],[19.7939,44.1008,877.9615],[19.782,44.1065,860.9526],[19.7739,44.1124,1028.1252],[19.7738,44.1149,1006.4685],[19.7757,44.117,1057.379],[19.7898,44.1217,862.5427],[19.8003,44.1198,784.2168],[19.8121,44.1113,827.4968],[19.829,44.1049,894.5079],[19.841,44.1128,602.1301],[19.8538,44.1165,647.23],[19.8598,44.1276,485.794],[19.8627,44.1296,643.7346],[19.8938,44.1277,688.0821],[19.9095,44.1203,749.5706],[19.91,44.1151,881.865],[19.9045,44.1098,893.1749],[19.904,44.1073,862.7906],[19.9078,44.101,740.8755],[19.9164,44.094,584.1159],[19.9539,44.0784,688.119],[19.9778,44.0756,784.1658],[19.9811,44.0859,737.2098],[19.9844,44.0907,852.2214],[20.0095,44.1042,928.7794],[20.0168,44.0982,958.5704],[20.0368,44.0965,826.9152],[20.062,44.0853,778.8745],[20.0833,44.0841,795.3905],[20.1228,44.0736,721.0417],[20.1263,44.0741,640.6968],[20.1277,44.0761,645.8835],[20.1226,44.0896,649.9492],[20.1236,44.0938,688.9734],[20.127,44.0962,688.0226]]]]}}