{"type": "Feature","id": "837","bbox": [19.42572,44.05225,20.42406,44.56483],"geometry": {"type": "Polygon","coordinates": [[[19.97106,44.56477,134.2619],[19.966,44.5648,123.8502],[19.96486,44.56483,117.2965],[19.96434,44.56475,117.2965],[19.96414,44.56467,117.2965],[19.96093,44.56242,127.528],[19.95111,44.558,123.8764],[19.94806,44.55687,139.5797],[19.93546,44.55377,158.7609],[19.92853,44.5508,130.7663],[19.92688,44.55056,147.7269],[19.92429,44.55098,160.4782],[19.92171,44.55216,128.5391],[19.91468,44.55609,125.3446],[19.91024,44.55795,157.31],[19.90615,44.55919,173.5638],[19.90311,44.55955,186.0933],[19.90006,44.55945,183.5943],[19.89773,44.55906,177.2552],[19.89546,44.55842,186.4222],[19.89256,44.55713,186.1062],[19.88988,44.5556,168.9034],[19.88125,44.54999,137.7092],[19.87675,44.54754,135.3452],[19.87474,44.54684,148.9137],[19.86766,44.54514,139.1898],[19.86574,44.54441,131.048],[19.86352,44.54302,129.8249],[19.85903,44.53945,168.8455],[19.8568,44.53744,179.5276],[19.85489,44.53516,169.823],[19.85257,44.53095,193.0317],[19.84993,44.524,198.3703],[19.85298,44.52173,174.0538],[19.855,44.51971,151.7852],[19.8566,44.51749,170.1182],[19.85732,44.51542,177.0432],[19.85753,44.51336,145.4629],[19.85732,44.50793,148.2995],[19.85789,44.50576,146.6209],[19.86089,44.50088,153.1384],[19.8629,44.49863,144.0618],[19.86797,44.49393,122.1086],[19.8689,44.49258,114.0455],[19.86972,44.49051,114.2466],[19.87019,44.48834,134.0774],[19.87019,44.48483,168.7766],[19.86993,44.4839,168.7766],[19.8689,44.48225,192.9884],[19.86729,44.48075,205.8004],[19.86554,44.47961,209.5394],[19.85856,44.47553,203.1719],[19.85717,44.47434,190.1147],[19.85629,44.47305,181.3553],[19.85598,44.4716,192.3777],[19.85665,44.46899,224.3001],[19.86156,44.46065,197.0466],[19.86321,44.45661,223.2153],[19.86373,44.45398,213.9062],[19.86414,44.44855,232.1411],[19.86409,44.44315,258.7693],[19.86378,44.4406,262.7086],[19.86306,44.4383,257.2877],[19.86218,44.43693,278.8484],[19.86094,44.43589,278.8484],[19.85934,44.43527,285.7386],[19.85748,44.43512,280.4323],[19.8551,44.43551,291.7625],[19.85003,44.43703,285.6007],[19.84502,44.43791,275.9929],[19.84202,44.43791,278.2748],[19.83991,44.4376,259.6487],[19.83541,44.43625,231.3161],[19.83262,44.43491,256.9292],[19.83024,44.43331,260.7351],[19.82838,44.4315,270.0804],[19.82724,44.42959,274.5059],[19.82719,44.42768,253.6595],[19.82864,44.4253,265.0413],[19.83107,44.4229,232.9661],[19.83991,44.41538,201.195],[19.84983,44.40556,215.8134],[19.84642,44.40238,229.1141],[19.84156,44.39714,242.1087],[19.83996,44.39486,264.8689],[19.8381,44.39124,295.9153],[19.83712,44.38995,288.4653],[19.83479,44.38869,302.4634],[19.83283,44.3882,328.1085],[19.82693,44.38768,306.9794],[19.82306,44.38758,301.8768],[19.7874,44.38773,341.1534],[19.77996,44.38809,311.2589],[19.77603,44.38892,302.5836],[19.77412,44.39016,329.6996],[19.7736,44.3914,334.2465],[19.7735,44.39282,334.7548],[19.77422,44.39755,316.7527],[19.77397,44.39956,334.981],[19.77278,44.40158,320.8842],[19.76544,44.40943,309.1811],[19.7626,44.41197,314.306],[19.76007,44.41372,323.3676],[19.75707,44.41512,325.2463],[19.75474,44.41587,269.4299],[19.74611,44.4177,333.0247],[19.73376,44.42075,345.4336],[19.71309,44.42773,355.8241],[19.70307,44.43052,361.81],[19.68736,44.436,302.1702],[19.68028,44.43806,253.9322],[19.67718,44.43853,243.4718],[19.67397,44.43876,265.7482],[19.66751,44.43858,254.7399],[19.66441,44.43811,256.3524],[19.65304,44.4352,198.7343],[19.64989,44.43465,199.2491],[19.63801,44.43328,256.156],[19.63222,44.43178,273.7063],[19.62876,44.43062,275.8428],[19.61827,44.42651,328.3173],[19.61625,44.42494,368.4271],[19.61392,44.42377,346.8716],[19.61108,44.42303,325.119],[19.60803,44.42261,314.8894],[19.60183,44.4223,329.5966],[19.59579,44.42246,367.4874],[19.59289,44.42277,377.9323],[19.59036,44.42328,362.9134],[19.58798,44.42406,344.0454],[19.58431,44.42613,358.8452],[19.58132,44.42861,346.9315],[19.58018,44.43,287.7256],[19.57723,44.4361,283.0305],[19.57589,44.43762,292.3112],[19.57403,44.43892,264.1098],[19.56101,44.44571,254.5266],[19.54871,44.44478,231.7821],[19.53946,44.44367,254.4669],[19.53445,44.4423,224.3379],[19.52799,44.43992,242.6327],[19.52468,44.43904,230.1302],[19.52132,44.43858,179.9661],[19.51832,44.43868,163.9576],[19.51212,44.43987,161.5817],[19.50902,44.44018,194.7417],[19.50365,44.44008,174.7567],[19.49729,44.43946,218.7139],[19.49424,44.43889,237.6075],[19.49031,44.43749,171.0979],[19.48665,44.43548,187.4447],[19.48525,44.43408,163.9122],[19.48453,44.43253,165.274],[19.48453,44.43166,189.0305],[19.48494,44.43041,217.9856],[19.48592,44.42907,218.2617],[19.48732,44.42791,227.1224],[19.48918,44.42695,241.3745],[19.4913,44.42618,261.6926],[19.49931,44.42401,222.4087],[19.50117,44.42313,223.0364],[19.50272,44.42184,209.2252],[19.50349,44.42039,212.4006],[19.50354,44.41951,212.4006],[19.50282,44.41768,218.609],[19.49993,44.41388,225.0504],[19.49879,44.41186,235.7683],[19.49827,44.40985,250.4064],[19.49838,44.40272,268.8404],[19.49734,44.39915,264.0574],[19.49383,44.38964,272.0213],[19.49099,44.38468,271.8997],[19.48422,44.37507,323.8653],[19.48179,44.37243,338.7779],[19.47869,44.36995,337.9376],[19.47678,44.36908,333.9498],[19.47274,44.36799,330.6618],[19.46985,44.36783,331.5869],[19.46086,44.36861,290.5999],[19.45864,44.36845,258.4761],[19.45652,44.36791,266.0353],[19.45404,44.3667,301.3287],[19.45197,44.3651,298.5904],[19.4497,44.36189,338.7776],[19.44903,44.3605,338.7776],[19.44872,44.35838,320.9136],[19.44908,44.35626,378.8419],[19.44975,44.35476,388.2275],[19.45207,44.3514,341.8419],[19.45331,44.35008,380.155],[19.45631,44.34773,418.9057],[19.45791,44.3468,379.7589],[19.46065,44.34567,389.1209],[19.46262,44.3453,417.69],[19.46468,44.34533,387.7657],[19.47512,44.34714,348.7206],[19.47698,44.34706,372.2593],[19.47858,44.34665,343.861],[19.48034,44.34541,363.1241],[19.48163,44.34362,384.0849],[19.48391,44.33962,342.2484],[19.48835,44.33399,285.6791],[19.4914,44.32895,356.372],[19.49207,44.32675,433.4442],[19.49223,44.3245,404.1647],[19.49197,44.32231,354.2906],[19.49114,44.32024,378.1872],[19.48882,44.31766,400.0573],[19.48649,44.316,366.2736],[19.4837,44.31466,364.3328],[19.47895,44.31332,372.7886],[19.46928,44.31202,498.6797],[19.46685,44.31146,525.943],[19.46463,44.31073,473.913],[19.46189,44.30939,488.3164],[19.45977,44.30758,523.8043],[19.45579,44.30277,696.5026],[19.45182,44.2989,718.2546],[19.45073,44.29735,711.9452],[19.44928,44.29347,790.4333],[19.44835,44.28898,872.6385],[19.44763,44.28681,885.9102],[19.44675,44.28526,902.3844],[19.44551,44.28381,878.356],[19.44391,44.28262,861.2454],[19.4344,44.27761,713.3749],[19.4329,44.27657,637.5002],[19.43109,44.27479,558.0143],[19.43042,44.27342,562.2842],[19.43021,44.27192,534.1722],[19.43078,44.26593,506.478],[19.43032,44.2628,493.5651],[19.42928,44.26001,561.8127],[19.42784,44.25725,550.146],[19.42572,44.25407,626.6133],[19.42954,44.2511,695.3671],[19.44174,44.24438,608.1014],[19.44701,44.24221,598.1324],[19.45745,44.23929,503.1189],[19.46417,44.23652,388.0913],[19.46742,44.23606,370.5555],[19.47647,44.23518,309.0462],[19.49016,44.23296,414.8329],[19.49321,44.23218,475.0577],[19.496,44.2311,501.2622],[19.49858,44.22947,557.6315],[19.50354,44.22588,572.7896],[19.50551,44.22482,495.7861],[19.50949,44.22306,594.3199],[19.51429,44.22175,712.6818],[19.51631,44.22144,783.2653],[19.5192,44.22133,821.5302],[19.52788,44.22195,940.0164],[19.5299,44.22169,949.8933],[19.53181,44.22107,979.8654],[19.53357,44.22014,933.7452],[19.54096,44.21511,839.7178],[19.54395,44.21368,898.1646],[19.55403,44.21058,957.8491],[19.55625,44.20976,982.4991],[19.55915,44.20826,942.3411],[19.56142,44.20635,970.498],[19.56886,44.19834,1143.0177],[19.57672,44.18929,1144.13],[19.57584,44.18878,1178.2777],[19.57501,44.18748,1184.9785],[19.57486,44.1865,1161.7537],[19.57506,44.185,1078.9741],[19.57791,44.17798,882.5842],[19.57982,44.1719,913.127],[19.58064,44.17053,898.4156],[19.58147,44.16971,919.8878],[19.58251,44.16906,919.8878],[19.58437,44.16852,976.1501],[19.58933,44.16769,987.7915],[19.59155,44.16707,965.8068],[19.59356,44.16622,932.2898],[19.59532,44.16506,846.325],[19.59894,44.16206,870.3554],[19.60266,44.15849,840.2903],[19.60643,44.15343,1019.5647],[19.60938,44.14891,979.1453],[19.61144,44.14681,894.2421],[19.61434,44.14506,881.4385],[19.61816,44.14366,893.0529],[19.62695,44.1448,950.9369],[19.63082,44.14501,941.204],[19.63356,44.1449,877.4517],[19.63604,44.14449,953.8356],[19.63811,44.14387,964.2164],[19.64813,44.14046,915.3857],[19.6563,44.13886,960.3159],[19.65816,44.13818,999.2911],[19.6593,44.13741,943.9669],[19.66415,44.13173,934.8307],[19.67108,44.12676,950.7551],[19.67294,44.12586,950.7551],[19.67552,44.12511,887.1451],[19.68751,44.12273,938.4752],[19.68948,44.12258,938.4752],[19.69557,44.12154,953.4366],[19.70012,44.12051,856.0557],[19.70436,44.11904,839.0376],[19.70627,44.11808,836.4612],[19.70906,44.11617,832.7024],[19.71562,44.11074,819.475],[19.71826,44.10909,816.3779],[19.7212,44.10785,903.3524],[19.72565,44.10702,911.0692],[19.73428,44.10746,938.514],[19.73795,44.10651,984.7849],[19.73971,44.10563,999.9368],[19.74126,44.10449,1038.6937],[19.74642,44.09961,999.9271],[19.75252,44.09555,935.1923],[19.75547,44.09317,912.7325],[19.75826,44.08976,897.7709],[19.76017,44.08547,820.4503],[19.76208,44.08268,799.0543],[19.76342,44.08129,790.3271],[19.77081,44.07566,895.7582],[19.77397,44.07209,902.1045],[19.77557,44.0694,892.0797],[19.77614,44.06752,874.5309],[19.77609,44.06532,802.8672],[19.77428,44.06155,789.5858],[19.77407,44.0602,772.9562],[19.77428,44.05881,772.9562],[19.77588,44.05628,730.4651],[19.77722,44.05509,711.2745],[19.77908,44.05418,744.0845],[19.7812,44.05351,739.2814],[19.78503,44.05287,663.2749],[19.79324,44.05232,729.3031],[19.79944,44.05225,728.326],[19.80234,44.05258,739.2598],[19.8043,44.05307,744.179],[19.80626,44.05387,731.9849],[19.80792,44.05491,704.6808],[19.80921,44.05623,627.5211],[19.81014,44.05772,670.9346],[19.81092,44.0602,713.3071],[19.81123,44.06289,766.2945],[19.81112,44.06845,758.477],[19.81004,44.07385,784.915],[19.80637,44.08351,766.0894],[19.79929,44.0955,842.4144],[19.79701,44.09819,866.3026],[19.79386,44.10082,877.9615],[19.79112,44.10232,899.6832],[19.78704,44.104,886.7371],[19.78203,44.10653,860.9526],[19.7765,44.11005,1023.4767],[19.775,44.11121,1026.9062],[19.77391,44.1124,1028.1252],[19.77355,44.11364,989.1323],[19.77376,44.11488,1006.4685],[19.77453,44.11599,1057.379],[19.77572,44.11705,1057.379],[19.77826,44.11847,1102.6182],[19.7826,44.12015,986.6163],[19.78673,44.12129,914.0646],[19.78983,44.12165,862.5427],[19.79293,44.12165,780.2349],[19.79598,44.12129,757.8749],[19.7982,44.12069,735.2803],[19.80027,44.11979,784.2168],[19.80208,44.1187,839.7173],[19.80838,44.11364,837.9515],[19.8121,44.11131,827.4968],[19.81918,44.10857,742.3315],[19.82637,44.10532,898.3031],[19.82895,44.10496,894.5079],[19.83143,44.1055,849.2811],[19.83293,44.10638,795.752],[19.83892,44.11136,608.7089],[19.84099,44.11276,602.1301],[19.84481,44.114,600.4009],[19.85034,44.11516,662.3508],[19.85226,44.11571,647.23],[19.85386,44.11651,647.23],[19.85546,44.11803,585.1461],[19.8566,44.11997,547.2028],[19.85882,44.12617,527.7303],[19.85975,44.12759,485.794],[19.86104,44.12878,592.1531],[19.86269,44.12961,643.7346],[19.86466,44.13012,691.838],[19.8674,44.13028,727.9091],[19.88729,44.12878,677.4584],[19.89375,44.12769,688.0821],[19.89618,44.12697,719.4462],[19.9014,44.1247,799.7682],[19.90822,44.12123,728.3511],[19.90946,44.12025,749.5706],[19.91039,44.1187,819.9923],[19.91055,44.11692,863.0507],[19.91003,44.11514,881.865],[19.90869,44.11338,880.6395],[19.9061,44.11142,907.4645],[19.9045,44.10987,893.1749],[19.90398,44.10863,862.7906],[19.90393,44.10728,862.7906],[19.90497,44.10475,774.7263],[19.9061,44.10292,791.191],[19.90781,44.10098,740.8755],[19.91168,44.09741,650.9936],[19.91639,44.09398,584.1159],[19.91809,44.09292,589.1815],[19.92006,44.09209,607.7897],[19.92791,44.09007,670.0229],[19.93453,44.08703,713.9841],[19.94186,44.08439,885.3044],[19.94434,44.0832,902.0948],[19.94899,44.08015,746.149],[19.9508,44.07933,746.149],[19.95396,44.0784,688.119],[19.96662,44.07731,582.8734],[19.9738,44.07638,676.0557],[19.97778,44.0756,784.1658],[19.98031,44.0839,779.2246],[19.98114,44.08594,737.2098],[19.98186,44.08718,779.2773],[19.98305,44.08899,769.602],[19.98393,44.09018,834.3596],[19.98444,44.09072,852.2214],[19.98501,44.09121,852.2214],[19.98574,44.09162,852.2214],[19.98734,44.09227,884.048],[19.98982,44.09317,919.5986],[19.99142,44.09385,974.1429],[19.9922,44.09426,1023.3307],[19.99504,44.09612,1075.6876],[19.99654,44.097,1086.8188],[20.00951,44.10418,928.7794],[20.01235,44.10106,1011.4487],[20.0139,44.09974,1023.8286],[20.01679,44.09819,958.5704],[20.01896,44.09767,853.3508],[20.02119,44.09741,803.908],[20.03256,44.09708,850.1575],[20.03674,44.09646,826.9152],[20.0387,44.09571,782.0632],[20.04439,44.09286,743.9771],[20.04728,44.09178,727.0136],[20.06201,44.08532,778.8745],[20.07493,44.08504,800.6423],[20.07922,44.08473,762.9614],[20.08325,44.08413,795.3905],[20.09519,44.08103,711.1009],[20.1048,44.07933,696.498],[20.10728,44.07871,713.6947],[20.10966,44.07793,717.2993],[20.11756,44.07457,739.865],[20.12072,44.07377,731.0258],[20.12278,44.07359,721.0417],[20.12464,44.07369,675.7868],[20.1263,44.07416,640.6968],[20.12738,44.07493,640.6968],[20.12769,44.07607,645.8835],[20.12748,44.07741,641.9691],[20.12304,44.08744,662.6589],[20.12263,44.08966,649.9492],[20.12273,44.09178,660.0956],[20.12356,44.09377,688.9734],[20.12521,44.09537,696.8473],[20.12697,44.09617,688.0226],[20.12914,44.09669,665.0783],[20.15048,44.09979,699.6011],[20.15182,44.09953,699.6011],[20.15606,44.09948,707.9654],[20.15828,44.09979,706.2473],[20.16035,44.10046,688.7664],[20.16252,44.10193,673.0477],[20.16738,44.10708,753.1065],[20.17141,44.10992,720.3891],[20.17425,44.11126,673.3427],[20.17653,44.11193,691.7323],[20.1789,44.11235,672.567],[20.18206,44.11253,693.6378],[20.19249,44.11149,656.7905],[20.19559,44.11152,643.8934],[20.19864,44.11183,644.6992],[20.20758,44.11372,610.7167],[20.2096,44.114,599.5345],[20.21244,44.11395,636.0988],[20.22329,44.11173,683.0264],[20.22624,44.11147,651.4937],[20.22918,44.11165,677.8275],[20.23626,44.11328,698.0063],[20.23957,44.11431,750.2112],[20.24892,44.11801,743.8661],[20.25358,44.11922,635.781],[20.25719,44.11966,569.4487],[20.26091,44.11984,609.3063],[20.27972,44.11994,658.1123],[20.28308,44.1203,639.3323],[20.2851,44.12072,607.5095],[20.28675,44.12144,577.1149],[20.28846,44.12294,541.1374],[20.28954,44.12485,511.1528],[20.29099,44.12909,520.5359],[20.29197,44.13116,545.6729],[20.29295,44.13255,582.9302],[20.29621,44.13539,565.6859],[20.29843,44.13682,552.954],[20.30081,44.13803,546.9467],[20.30825,44.14069,587.2614],[20.3161,44.14402,471.1879],[20.32804,44.14723,308.8434],[20.33063,44.14862,276.5372],[20.33512,44.15196,304.6902],[20.33677,44.15374,307.5508],[20.33729,44.15513,286.6022],[20.33714,44.15803,323.4594],[20.33595,44.16278,302.6257],[20.33626,44.16469,318.9031],[20.3376,44.1665,336.6924],[20.33962,44.16816,338.4166],[20.34597,44.17141,463.6674],[20.34856,44.17247,423.7617],[20.35124,44.17327,418.5994],[20.35424,44.17374,485.2994],[20.35739,44.17382,409.5869],[20.36447,44.17325,366.4691],[20.36654,44.17332,373.3895],[20.36845,44.17369,373.3895],[20.37088,44.17487,302.3844],[20.37222,44.17591,246.2739],[20.37336,44.17705,236.3299],[20.37465,44.17891,262.0765],[20.37584,44.18164,344.909],[20.376,44.18369,347.0094],[20.37502,44.18883,321.11],[20.37507,44.1911,307.4949],[20.37605,44.19472,309.8552],[20.37781,44.19813,331.1108],[20.37915,44.19996,382.4867],[20.38101,44.20141,339.7812],[20.38277,44.20211,389.7052],[20.38483,44.20252,399.5482],[20.39383,44.2035,425.4638],[20.39579,44.20392,419.3896],[20.39755,44.20461,378.5052],[20.3992,44.20609,402.0375],[20.40028,44.208,385.1943],[20.40251,44.21684,381.9968],[20.4053,44.2219,324.0579],[20.40886,44.22686,402.074],[20.41057,44.22877,424.1973],[20.4177,44.23647,351.8851],[20.42313,44.2418,213.9479],[20.42406,44.248,260.4067],[20.4238,44.25236,273.2293],[20.42318,44.25441,266.5662],[20.42028,44.25978,240.6934],[20.41615,44.26629,274.5175],[20.41543,44.26779,289.5283],[20.41481,44.27001,289.842],[20.4145,44.27466,302.791],[20.4147,44.27694,319.4209],[20.41574,44.28205,337.5779],[20.41543,44.28407,376.8609],[20.4146,44.28541,376.8609],[20.41341,44.2867,394.4739],[20.4114,44.28836,398.5881],[20.40897,44.28986,374.139],[20.40623,44.2912,358.2606],[20.40251,44.29239,338.136],[20.40054,44.2928,353.2536],[20.38907,44.2943,312.213],[20.38437,44.29254,310.7644],[20.37791,44.29079,378.4888],[20.37439,44.29037,369.488],[20.37093,44.29027,354.2979],[20.36318,44.29084,301.6065],[20.36024,44.29071,305.8225],[20.35807,44.29022,281.7922],[20.3561,44.28944,266.4625],[20.35295,44.28701,247.45],[20.35062,44.28443,257.9609],[20.34928,44.28241,231.3593],[20.34654,44.27756,279.5524],[20.34494,44.2727,262.9231],[20.34416,44.2712,276.4097],[20.34308,44.26986,264.9813],[20.34158,44.26867,253.2233],[20.33305,44.26319,224.5054],[20.33161,44.26185,242.7345],[20.32882,44.25849,245.7839],[20.32675,44.25658,250.0437],[20.32417,44.25497,236.9346],[20.31802,44.25234,211.4764],[20.31326,44.25099,184.2301],[20.30944,44.25048,190.2543],[20.30732,44.25074,199.1009],[20.30525,44.2513,196.2143],[20.29791,44.25508,170.7239],[20.29399,44.25642,161.6023],[20.29213,44.25673,158.5369],[20.29011,44.25663,152.3087],[20.28825,44.25616,150.577],[20.28618,44.25492,144.5516],[20.28484,44.25327,143.2603],[20.28443,44.25141,151.3745],[20.28494,44.24642,155.4519],[20.28468,44.24438,162.6458],[20.28391,44.24249,159.0712],[20.28241,44.24112,174.1541],[20.28091,44.24061,161.3777],[20.2791,44.24045,154.476],[20.27528,44.24092,145.4473],[20.26923,44.24195,139.0409],[20.26453,44.24337,138.7532],[20.26164,44.24479,138.766],[20.25921,44.24665,139.1057],[20.25678,44.24929,147.5306],[20.2513,44.25844,152.8741],[20.24882,44.26146,195.5168],[20.24634,44.26327,194.6788],[20.24071,44.26665,210.7787],[20.2267,44.27621,170.4269],[20.2204,44.27988,184.3557],[20.21632,44.28195,195.6448],[20.21291,44.28435,212.2142],[20.21027,44.2867,202.8601],[20.20572,44.29192,215.5552],[20.19901,44.3005,167.1485],[20.19229,44.30815,202.2253],[20.188,44.3158,181.5948],[20.18712,44.31789,169.0596],[20.18702,44.31993,142.587],[20.1881,44.32334,177.1296],[20.18991,44.32613,184.3392],[20.19146,44.32804,179.6772],[20.19363,44.33016,168.6858],[20.2005,44.33626,112.4251],[20.20205,44.33843,113.0123],[20.20267,44.34045,112.4168],[20.20262,44.34257,113.0633],[20.2019,44.34458,117.8818],[20.20056,44.34634,131.6068],[20.1988,44.34799,184.7024],[20.19353,44.35213,141.6756],[20.19229,44.35357,141.6756],[20.19146,44.35512,135.8162],[20.191,44.35722,120.7473],[20.19105,44.35928,118.6879],[20.19146,44.36076,120.6985],[20.19224,44.3621,118.8511],[20.19415,44.3638,118.7414],[20.19735,44.36587,107.5361],[20.19921,44.36737,105.5411],[20.20004,44.36908,105.2616],[20.19926,44.37398,105.1245],[20.19968,44.37533,105.1245],[20.20061,44.37657,104.5413],[20.20371,44.37879,104.0007],[20.2111,44.38277,102.7835],[20.21347,44.38442,102.7971],[20.21533,44.38628,102.8324],[20.21668,44.38825,101.6997],[20.21931,44.39321,101.0282],[20.22169,44.39972,106.0733],[20.22577,44.40773,99.6493],[20.2265,44.41026,99.3609],[20.22681,44.4129,98.9618],[20.22681,44.41827,98.3462],[20.22598,44.42334,101.6981],[20.22495,44.42561,104.8388],[20.22154,44.43,114.7119],[20.2205,44.43191,110.8355],[20.22024,44.43419,110.4473],[20.22117,44.43824,115.5371],[20.22536,44.44594,116.7145],[20.22614,44.44798,120.9261],[20.22645,44.44943,118.6368],[20.22634,44.4515,116.7733],[20.22371,44.45884,112.1296],[20.22138,44.4684,109.152],[20.21756,44.47873,85.9718],[20.21425,44.48186,47.9658],[20.2113,44.48416,62.6736],[20.208,44.4863,79.8684],[20.20087,44.48974,95.8773],[20.19911,44.49093,106.3955],[20.19776,44.49222,98.3795],[20.19683,44.49362,98.3795],[20.19637,44.49584,100.6839],[20.19994,44.50695,95.2554],[20.20014,44.50834,93.8129],[20.19983,44.51031,96.3299],[20.19839,44.51266,94.452],[20.1942,44.51721,99.6585],[20.19249,44.51956,100.6138],[20.19172,44.52157,101.4128],[20.19022,44.52793,88.3338],[20.19032,44.53284,86.3017],[20.18996,44.5349,83.1681],[20.18939,44.5363,81.3379],[20.18727,44.53956,86.0408],[20.18609,44.54074,81.262],[20.18474,44.54178,82.3623],[20.18242,44.54291,83.054],[20.18071,44.54322,82.7612],[20.17895,44.54312,82.4442],[20.17658,44.54227,82.4254],[20.17529,44.54126,81.3718],[20.17265,44.53844,81.5933],[20.17038,44.5349,85.4703],[20.16945,44.52808,94.3429],[20.16795,44.52532,93.7249],[20.16547,44.5224,83.5987],[20.16107,44.5186,82.916],[20.15834,44.51563,84.6171],[20.15627,44.51284,90.6055],[20.15399,44.5087,86.6273],[20.15157,44.50579,91.618],[20.148,44.50349,85.9746],[20.14443,44.50168,87.1923],[20.13022,44.49558,85.5483],[20.1278,44.49517,86.6407],[20.12537,44.49571,85.3956],[20.1233,44.4971,85.2899],[20.12154,44.49899,89.8446],[20.1155,44.50705,86.1899],[20.10981,44.51284,91.5737],[20.10888,44.51423,95.7118],[20.10583,44.52044,100.2899],[20.10397,44.5224,102.6818],[20.10144,44.524,103.2628],[20.09937,44.52483,99.775],[20.09514,44.52596,104.4097],[20.08986,44.52627,110.4889],[20.0818,44.52591,110.5067],[20.07777,44.52555,105.3945],[20.07405,44.52472,109.8725],[20.07028,44.5231,110.7466],[20.06708,44.52098,111.1355],[20.06501,44.51909,110.0591],[20.06062,44.51299,108.4214],[20.05927,44.51181,106.1007],[20.05689,44.5102,103.5631],[20.05307,44.50886,104.6682],[20.04749,44.50752,99.3428],[20.0447,44.50715,98.9942],[20.04341,44.50723,104.9581],[20.04067,44.50788,106.9943],[20.03509,44.51005,110.2282],[20.02408,44.51289,108.9875],[20.02196,44.51372,109.6661],[20.01628,44.51653,111.5261],[20.01411,44.51731,113.8794],[20.01173,44.5179,113.5331],[20.0078,44.51847,114.6796],[19.99974,44.5193,116.4106],[19.99592,44.52002,118.7697],[19.9939,44.52064,118.8813],[19.98997,44.52235,122.7487],[19.98817,44.52343,123.1343],[19.98599,44.52524,124.8052],[19.98367,44.5279,128.4315],[19.98165,44.52971,130.246],[19.97612,44.53315,129.8928],[19.97411,44.5347,128.1518],[19.9723,44.5364,118.9997],[19.96956,44.53981,133.5004],[19.96739,44.54348,140.1291],[19.9662,44.54664,138.8439],[19.96615,44.54901,123.2498],[19.96744,44.55472,114.1184],[19.96775,44.55754,124.1163],[19.97023,44.5593,136.6386],[19.9708,44.55976,136.6386],[19.97096,44.55999,136.6386],[19.97111,44.56028,136.6386],[19.97111,44.5609,137.5113],[19.97106,44.56477,134.2619]]]}
,"properties": {"ISO3166-1-Alpha-3": "SRB","country": "Republic of Serbia","fill": "#FF0","name": "Kolubarski","area_km2": 2517.117,"hist_schema_id": "Elevation0-9000","hist_area_km2": {"25": 0.212,"50": 0.439,"75": 6.714,"100": 134.036,"125": 152.952,"150": 178.251,"175": 147.514,"200": 141.442,"225": 140.899,"250": 133.268,"275": 126.211,"300": 125.016,"325": 121.058,"350": 107.785,"375": 96.528,"400": 85.39,"425": 71.799,"450": 60.138,"475": 50.913,"500": 45.358,"525": 40.805,"550": 39.046,"575": 33.699,"600": 28.794,"625": 29.588,"650": 30.336,"675": 30.371,"700": 32.153,"725": 34.285,"750": 34.041,"775": 30.817,"800": 27.973,"825": 24.154,"850": 21.98,"875": 19.988,"900": 20.217,"925": 19.213,"950": 18.775,"975": 17.254,"1000": 12.294,"1025": 10.513,"1050": 8.094,"1075": 6.055,"1100": 5.218,"1125": 3.925,"1150": 3.499,"1175": 2.465,"1200": 2.13,"1225": 1.947,"1250": 1.035,"1275": 0.289,"1300": 0.076,"1325": 0.167}}}