{"type":"Feature","properties":{"GID_1":"SRB.14_1","GID_0":"SRB","country":"Serbia","province":"Pomoravski","VARNAME_1":"Pomoravlje","NL_NAME_1":"Поморавски","TYPE_1":"Okrug","ENGTYPE_1":"District","CC_1":"NA","HASC_1":"RS.PM","ISO_1":"NA","name":"Pomoravski.province"},
"geometry":{"type": "MultiPolygon","coordinates": [[[[21.6327,43.7972,376.1071],[21.646,43.8029,667.2089],[21.6502,43.8085,762.0558],[21.662,43.8158,707.4526],[21.6753,43.8279,608.7991],[21.6791,43.8391,597.4406],[21.6895,43.8477,632.6667],[21.6884,43.8515,685.7062],[21.6698,43.8668,623.3611],[21.6688,43.8775,757.4553],[21.6728,43.8855,755.8959],[21.6767,43.8892,741.6504],[21.685,43.8928,785.7203],[21.7055,43.8995,926.3269],[21.7181,43.9006,936.1292],[21.724,43.9032,921.9739],[21.7307,43.9114,880.1393],[21.7298,43.9147,852.7382],[21.724,43.9222,841.4661],[21.7253,43.9264,908.9688],[21.7414,43.9395,914.9205],[21.7463,43.9519,894.7856],[21.775,43.9709,931.5164],[21.7765,43.9778,971.7352],[21.7699,43.9893,986.7491],[21.7725,43.9919,1023.844],[21.7746,44.0098,1081.4216],[21.7854,44.0187,1040.4437],[21.7883,44.0347,1131.459],[21.8011,44.039,1132.1953],[21.8085,44.0436,1029.849],[21.8118,44.0543,1000.3303],[21.8178,44.0656,978.8538],[21.7955,44.0751,739.8506],[21.778,44.0705,864.8131],[21.7683,44.0715,772.3192],[21.7563,44.0763,733.2992],[21.7431,44.0879,924.3867],[21.7363,44.0897,912.7952],[21.7233,44.0907,814.5532],[21.7056,44.0834,704.6643],[21.6936,44.0826,694.598],[21.6759,44.0885,613.1294],[21.668,44.102,947.1865],[21.6537,44.1097,916.6674],[21.6441,44.1124,900.2633],[21.6223,44.1123,735.8198],[21.6041,44.1156,717.506],[21.5868,44.1125,410.2791],[21.5583,44.1192,429.2258],[21.5521,44.1237,488.4212],[21.5465,44.1394,379.3254],[21.5439,44.1424,435.664],[21.5319,44.1482,378.0491],[21.5248,44.155,384.5261],[21.4999,44.1706,480.2822],[21.4878,44.1817,540.137],[21.4755,44.1789,484.0354],[21.4653,44.179,406.9556],[21.4562,44.1829,480.0269],[21.4449,44.1916,432.1759],[21.4339,44.1947,341.2401],[21.4076,44.1921,285.3038],[21.4,44.1879,294.5349],[21.3936,44.1808,267.4537],[21.3612,44.1809,176.1723],[21.356,44.1836,179.3475],[21.354,44.1877,205.9234],[21.3616,44.1965,236.5228],[21.3682,44.2085,298.1791],[21.3674,44.2142,329.3165],[21.3637,44.2169,310.168],[21.3503,44.2188,283.9721],[21.3445,44.222,283.8299],[21.3345,44.2348,244.3406],[21.3344,44.2461,212.5818],[21.3305,44.2521,173.1667],[21.2927,44.2757,157.6522],[21.2788,44.2488,224.5081],[21.2683,44.2395,234.3263],[21.2634,44.2384,205.8982],[21.2505,44.2428,193.8736],[21.2275,44.2466,164.2572],[21.2176,44.2548,134.0055],[21.2135,44.2654,107.8783],[21.211,44.2681,95.6541],[21.1896,44.2785,101.3576],[21.1711,44.2815,94.7208],[21.1596,44.2873,94.8074],[21.1523,44.2886,94.9638],[21.1474,44.2886,95.2082],[21.1366,44.2816,95.7851],[21.1232,44.2776,98.6094],[21.121,44.2751,95.2659],[21.126,44.2653,97.5879],[21.1208,44.252,96.1684],[21.1213,44.2453,96.4734],[21.1269,44.2368,99.6374],[21.1378,44.23,98.3176],[21.1397,44.22,99.0169],[21.1496,44.2078,94.9463],[21.1407,44.1951,102.1923],[21.1375,44.1876,102.2968],[21.1328,44.1861,101.8129],[21.1297,44.1765,101.8912],[21.1297,44.1703,99.6644],[21.1248,44.1648,102.4391],[21.1269,44.1567,102.2432],[21.1188,44.1528,103.6465],[21.1293,44.1352,102.6505],[21.1236,44.1233,178.9671],[21.1236,44.1183,208.931],[21.1391,44.1029,153.3801],[21.1366,44.0909,175.3626],[21.1344,44.0875,187.1943],[21.1166,44.0746,220.6394],[21.082,44.0645,314.0407],[21.0543,44.0474,266.7007],[21.0869,44.041,405.0676],[21.1009,44.0298,428.3924],[21.1031,44.0255,466.294],[21.103,44.0211,506.1587],[21.0963,44.011,571.5349],[21.0956,43.9997,504.4619],[21.0888,43.993,502.2546],[21.0644,43.9912,448.224],[21.0534,43.9833,492.4522],[21.0441,43.9795,468.3403],[21.041,43.9756,498.53],[21.0418,43.97,505.9696],[21.052,43.9612,432.4136],[21.0617,43.9485,391.0809],[21.0623,43.9428,322.5965],[21.0588,43.9387,307.4453],[21.0413,43.9308,345.0276],[21.0454,43.9152,359.865],[21.0437,43.9056,338.9214],[21.0339,43.9081,352.9213],[21.0256,43.9079,397.4491],[21.0068,43.9005,367.5036],[21.0,43.8939,354.3089],[21.0026,43.8847,423.4794],[21.016,43.8682,496.8996],[21.0166,43.8601,561.5771],[21.0147,43.8548,561.1357],[20.9915,43.8371,658.8837],[20.9825,43.8333,709.9028],[20.965699999999998,43.8305,672.157],[20.9507,43.8234,640.5173],[20.945,43.818,658.2623],[20.9409,43.8085,581.6703],[20.938,43.8054,630.1792],[20.9343,43.8045,726.729],[20.9217,43.8069,669.504],[20.9084,43.8073,596.5878],[20.9094,43.797,516.5095],[20.9138,43.7843,542.1924],[20.9214,43.7742,532.5166],[20.9247,43.7552,481.9154],[20.9358,43.7478,732.6537],[20.957,43.7282,691.7715],[20.9739,43.7233,450.588],[20.9896,43.7285,727.0085],[21.0244,43.7201,454.4286],[21.049,43.7186,367.8979],[21.0644,43.7128,324.6337],[21.0927,43.7129,332.228],[21.1126,43.7039,268.1408],[21.1215,43.6977,276.9547],[21.1481,43.6871,331.1698],[21.137,43.7138,357.4542],[21.1353,43.7285,464.0066],[21.1387,43.7364,464.2136],[21.1396,43.747,386.4383],[21.1444,43.7489,294.4448],[21.1542,43.7472,302.7448],[21.1695,43.7391,247.8765],[21.1778,43.738,280.6873],[21.2055,43.7529,258.9035],[21.2154,43.7615,264.9891],[21.2302,43.7653,421.6311],[21.2389,43.7692,477.0998],[21.2415,43.7733,421.2876],[21.2486,43.7953,649.1936],[21.2481,43.8064,672.4424],[21.2419,43.8207,555.5014],[21.2575,43.8272,634.1924],[21.2606,43.841,676.9518],[21.2752,43.8334,456.2767],[21.2777,43.8293,491.2668],[21.2736,43.8205,413.987],[21.2749,43.8133,472.004],[21.2741,43.8067,386.9137],[21.2664,43.7932,476.1544],[21.2672,43.7828,360.5886],[21.2604,43.7729,377.0204],[21.2645,43.7665,300.1382],[21.2755,43.7619,256.2731],[21.2834,43.7611,246.3932],[21.3343,43.772,141.8966],[21.3494,43.7704,131.9899],[21.3612,43.7751,126.9732],[21.366,43.7715,126.7369],[21.3644,43.7692,127.4673],[21.3561,43.7656,127.4615],[21.3561,43.7592,127.8099],[21.358,43.7563,127.7348],[21.3629,43.7551,128.247],[21.3696,43.7561,127.1546],[21.3768,43.7608,130.548],[21.3829,43.7592,128.0117],[21.3825,43.7557,129.7012],[21.37,43.7465,129.0079],[21.3724,43.7403,131.1439],[21.3772,43.7385,128.4862],[21.3916,43.7425,131.2091],[21.3931,43.7384,130.2047],[21.3897,43.7347,129.9348],[21.3905,43.7301,130.6297],[21.4,43.7255,130.6213],[21.4082,43.724,130.8878],[21.4214,43.7306,131.5941],[21.4375,43.7356,136.4251],[21.446,43.7404,140.2742],[21.4582,43.7417,145.6467],[21.4659,43.7494,169.5374],[21.4846,43.7605,299.7057],[21.5087,43.7708,200.2746],[21.5211,43.7744,235.8216],[21.5473,43.7896,301.3964],[21.5812,43.7953,236.1085],[21.6016,43.7912,451.449],[21.6111,43.7911,468.3241],[21.6327,43.7972,376.1071]]]]}}