{"type": "Feature","id": "832","bbox": [20.90837,43.68705,21.81777,44.28856],"geometry": {"type": "Polygon","coordinates": [[[21.26524,44.23836,209.4681],[21.26344,44.23839,205.8982],[21.26054,44.23901,195.5493],[21.25289,44.24211,181.9707],[21.25052,44.24283,193.8736],[21.24478,44.24384,222.2272],[21.23491,44.24466,146.5847],[21.23181,44.24515,140.6038],[21.22954,44.24578,159.2479],[21.22747,44.2466,164.2572],[21.22566,44.24769,180.5898],[21.22158,44.25068,176.8013],[21.21755,44.25479,134.0055],[21.21615,44.25689,122.7363],[21.21527,44.25906,120.5726],[21.21352,44.26536,107.8783],[21.21233,44.26707,104.9834],[21.21098,44.26807,95.6541],[21.1992,44.2742,94.6009],[21.18964,44.27851,98.1329],[21.1869,44.27942,94.291],[21.18385,44.28006,94.5853],[21.17419,44.28102,94.7967],[21.17109,44.28148,94.75],[21.16835,44.28226,94.6869],[21.16639,44.28324,94.987799999999993],[21.16225,44.28598,94.5418],[21.15957,44.28732,94.8074],[21.1561,44.28815,94.9625],[21.15233,44.28856,94.9638],[21.14737,44.28856,95.2082],[21.13404,44.2866,95.5107],[21.15233,44.26298,95.7783],[21.1683,44.25813,96.713],[21.1683,44.25068,94.2893],[21.14722,44.24386,97.1769],[21.14722,44.23699,94.5953],[21.15176,44.23203,97.8196],[21.15342,44.22942,98.9626],[21.15187,44.22562,93.6562],[21.14722,44.21715,99.8309],[21.15016,44.21482,101.8526],[21.1513,44.2142,95.2398],[21.15233,44.21322,100.8416],[21.15466,44.2097,97.8401],[21.13357,44.2097,98.6282],[21.15466,44.19544,101.2767],[21.14417,44.19301,96.1816],[21.13931,44.18552,100.84],[21.13915,44.18332,100.8708],[21.13843,44.17462,101.4301],[21.14039,44.1619,101.8937],[21.14334,44.15338,102.4806],[21.12928,44.13524,102.6505],[21.12908,44.13307,102.6741],[21.12846,44.13162,103.5852],[21.12453,44.12537,177.9799],[21.12355,44.1233,178.9671],[21.12298,44.12077,180.2728],[21.12355,44.11824,208.931],[21.12463,44.11617,190.0245],[21.12608,44.11441,190.2971],[21.1391,44.10289,153.3801],[21.13735,44.09292,181.3961],[21.13662,44.09085,175.3626],[21.13569,44.08909,184.1661],[21.13435,44.08754,187.1943],[21.13269,44.0862,194.4986],[21.12365,44.08067,236.5368],[21.11895,44.07622,236.601],[21.11657,44.07462,220.6394],[21.11378,44.0732,233.1651],[21.10996,44.07168,240.4927],[21.09983,44.06925,252.5476],[21.09063,44.06759,267.7075],[21.0865,44.0663,283.7755],[21.082,44.06452,314.0407],[21.0681,44.05705,257.3325],[21.05425,44.04744,266.7007],[21.08283,44.04232,309.0276],[21.08691,44.04103,405.0676],[21.08918,44.03959,376.446],[21.10086,44.02977,428.3924],[21.10241,44.02752,454.6187],[21.10308,44.02543,466.294],[21.10324,44.02331,537.0293],[21.10298,44.02114,506.1587],[21.10221,44.01902,519.4404],[21.10081,44.01695,542.9592],[21.09745,44.013,580.9734],[21.09631,44.01096,571.5349],[21.09595,44.00899,564.834],[21.09642,44.00398,514.3467],[21.09621,44.00181,506.19],[21.09564,43.99969,504.4619],[21.09399,43.99695,519.3246],[21.09249,43.99517,538.8217],[21.09058,43.9937,502.2546],[21.08882,43.99297,502.2546],[21.08489,43.99204,438.8813],[21.08195,43.99184,382.2046],[21.07363,43.9922,365.6547],[21.06862,43.99225,401.0262],[21.06722,43.9921,415.8573],[21.06438,43.99119,448.224],[21.0619,43.98972,492.6608],[21.05337,43.98326,492.4522],[21.05151,43.98238,470.8444],[21.04655,43.98073,400.7916],[21.04407,43.97949,468.3403],[21.04216,43.97773,431.9457],[21.04102,43.97564,498.53],[21.04071,43.97362,528.2286],[21.04102,43.97158,516.24],[21.04174,43.97003,505.9696],[21.04288,43.96858,503.2786],[21.05022,43.96295,419.0554],[21.05198,43.96124,432.4136],[21.05358,43.95913,449.8725],[21.05575,43.95535,422.9613],[21.06071,43.95003,421.372],[21.06169,43.94853,391.0809],[21.06236,43.94693,401.004],[21.06262,43.94486,361.4543],[21.06231,43.9428,322.5965],[21.06154,43.94125,313.9713],[21.06035,43.93985,315.9847],[21.05875,43.93866,307.4453],[21.05208,43.9351,366.9909],[21.04955,43.93411,369.0389],[21.04309,43.93207,348.6613],[21.04133,43.93076,345.0276],[21.04087,43.92957,372.8223],[21.04097,43.9282,399.1229],[21.0449,43.91771,322.7566],[21.04536,43.9152,359.865],[21.04516,43.91091,324.294],[21.04371,43.90564,338.9214],[21.03823,43.90719,335.5716],[21.03389,43.90807,352.9213],[21.03162,43.9083,360.2725],[21.02815,43.90828,378.5036],[21.02557,43.90791,397.4491],[21.02319,43.90724,404.673],[21.0172,43.9045,358.5226],[21.00981,43.90182,379.5593],[21.00681,43.90045,367.5036],[21.00294,43.89763,323.2685],[21.00113,43.89582,337.4375],[21.00004,43.89386,354.3089],[20.99983,43.89197,372.3459],[21.00257,43.88466,423.4794],[21.00464,43.88182,458.5868],[21.00857,43.8781,421.5727],[21.01498,43.87071,466.6782],[21.01601,43.86823,496.8996],[21.01658,43.86557,491.9919],[21.01663,43.86014,561.5771],[21.01611,43.85758,537.616],[21.01467,43.85474,561.1357],[21.01265,43.85314,579.0231],[21.00939,43.85123,614.4408],[21.00707,43.84957,643.8959],[21.00438,43.84722,597.8536],[21.00009,43.84288,482.6052],[20.99699,43.84022,627.069],[20.99151,43.83714,658.8837],[20.98252,43.83332,709.9028],[20.97932,43.83252,733.2078],[20.97043,43.8319,695.3987],[20.96568,43.83048,672.157],[20.95627,43.82634,749.7535],[20.95069,43.82337,640.5173],[20.94738,43.82084,652.5708],[20.94501,43.818,658.2623],[20.9432,43.81443,668.3188],[20.94092,43.80849,581.6703],[20.93989,43.80704,613.9192],[20.93798,43.80544,624.8716],[20.9355,43.80461,676.904],[20.93426,43.80454,726.729],[20.93245,43.80477,726.729],[20.92568,43.80642,842.7409],[20.92175,43.80694,669.504],[20.91338,43.80738,625.5437],[20.90837,43.80735,596.5878],[20.90945,43.79697,516.5095],[20.91002,43.79474,506.2975],[20.9124,43.78896,580.1759],[20.91379,43.78436,542.1924],[20.91571,43.78126,665.7325],[20.91958,43.77733,629.3232],[20.92139,43.77418,532.5166],[20.92206,43.77157,489.6761],[20.92242,43.76888,520.1077],[20.92289,43.76071,444.282],[20.92335,43.75816,426.8084],[20.92475,43.75516,481.9154],[20.92661,43.75335,560.2606],[20.92811,43.75232,560.2606],[20.93333,43.74947,704.4614],[20.93576,43.7478,732.6537],[20.93844,43.74529,685.8292],[20.94289,43.74007,776.021],[20.957,43.72818,691.7715],[20.95958,43.72694,585.2094],[20.96526,43.72503,471.057],[20.9711,43.72364,446.3492],[20.97389,43.72327,450.588],[20.97503,43.72343,450.588],[20.97668,43.724,502.4076],[20.98066,43.72617,519.1591],[20.98568,43.72803,657.9657],[20.98831,43.72849,727.0085],[20.98955,43.72844,727.0085],[20.99224,43.72787,643.9412],[20.99772,43.72586,626.7901],[21.00128,43.72503,614.8473],[21.00903,43.72397,446.2553],[21.01281,43.72322,512.7782],[21.02092,43.72069,455.2029],[21.02443,43.72012,454.4286],[21.0281,43.71981,505.5834],[21.04319,43.7193,389.1459],[21.04898,43.71857,367.8979],[21.0511,43.718,369.8313],[21.06014,43.71374,335.0509],[21.06443,43.71278,324.6337],[21.0682,43.71247,307.321],[21.07606,43.71242,336.4129],[21.07993,43.71263,293.388],[21.08774,43.7134,290.4108],[21.09058,43.71333,308.6802],[21.0927,43.71294,332.228],[21.09466,43.71224,351.4471],[21.10055,43.70881,295.1255],[21.11022,43.70514,256.5991],[21.11259,43.7039,268.1408],[21.11755,43.69984,258.3436],[21.12148,43.69769,276.9547],[21.12546,43.69596,296.4139],[21.1389,43.69098,247.6143],[21.14815,43.68705,320.267],[21.13983,43.70488,255.7438],[21.13766,43.71064,299.3611],[21.13698,43.71377,357.4542],[21.13683,43.71909,365.6486],[21.13554,43.7242,429.0742],[21.13523,43.72638,457.0464],[21.13528,43.72855,464.0066],[21.13631,43.73206,448.8095],[21.13869,43.7364,464.2136],[21.139,43.73831,452.6449],[21.13848,43.74317,390.205],[21.13874,43.74516,408.8751],[21.13957,43.74699,386.4383],[21.14107,43.74829,312.9255],[21.14262,43.748779999999996,334.0789],[21.14443,43.74888,294.4448],[21.15424,43.74725,302.7448],[21.15724,43.7464,313.8406],[21.16003,43.74524,326.8221],[21.16752,43.74002,259.9977],[21.16954,43.73914,247.8765],[21.17166,43.73847,255.9042],[21.17445,43.738,254.055],[21.17776,43.73803,280.6873],[21.18013,43.73862,277.8132],[21.1823,43.73966,289.5098],[21.19057,43.74534,323.138],[21.20287,43.75133,262.9071],[21.20556,43.75289,258.9035],[21.21021,43.75635,216.8382],[21.21538,43.76149,264.9891],[21.21786,43.7627,256.8477],[21.21992,43.76327,303.0288],[21.22814,43.76469,398.1024],[21.23016,43.76529,421.6311],[21.23641,43.76766,506.0758],[21.23889,43.76924,477.0998],[21.2406,43.77123,411.49],[21.24147,43.7733,421.2876],[21.24282,43.78002,505.8951],[21.24349,43.78221,543.5701],[21.24752,43.79014,649.7001],[21.24824,43.79268,646.7167],[21.24861,43.79531,649.1936],[21.24871,43.80084,650.8671],[21.24814,43.80642,672.4424],[21.24731,43.80921,703.533],[21.24189,43.82074,555.5014],[21.25543,43.82593,574.2426],[21.2562,43.82627,623.0538],[21.25687,43.82663,623.0538],[21.25749,43.8272,634.1924],[21.25786,43.82779,648.1899],[21.25827,43.82911,665.2369],[21.26065,43.84094,676.9518],[21.26912,43.83699,541.1174],[21.27263,43.83513,432.2039],[21.27517,43.8334,456.2767],[21.27651,43.832,464.4365],[21.27734,43.83058,464.4365],[21.2777,43.82931,491.2668],[21.2776,43.82846,476.4222],[21.2746,43.82389,390.242],[21.27403,43.82255,357.1906],[21.27362,43.82053,413.987],[21.27377,43.81846,460.1578],[21.27491,43.81329,472.004],[21.2747,43.80882,462.9274],[21.27413,43.80668,386.9137],[21.27139,43.80177,393.9888],[21.26716,43.7951,493.2162],[21.26638,43.79319,476.1544],[21.26659,43.79102,461.64],[21.26767,43.78699,397.4651],[21.26767,43.7849,390.4761],[21.26721,43.78281,360.5886],[21.2654,43.77971,374.8259],[21.26173,43.77588,387.595],[21.26085,43.77441,416.6017],[21.26044,43.77288,377.0204],[21.26065,43.77092,359.625],[21.26132,43.76963,358.0744],[21.26235,43.76834,329.7902],[21.26447,43.76653,300.1382],[21.26716,43.76498,301.5336],[21.26933,43.76405,325.0204],[21.27553,43.76188,256.2731],[21.28049,43.76105,260.0206],[21.28338,43.76115,246.3932],[21.28948,43.76239,216.234],[21.30183,43.76431,227.8617],[21.31997,43.76968,159.4087],[21.33428,43.77195,141.8966],[21.33775,43.77216,140.973],[21.34121,43.77203,140.4476],[21.34452,43.77157,140.8495],[21.34943,43.7704,131.9899],[21.35087,43.77139,129.1257],[21.374389999999998,43.77087,124.6281],[21.36694,43.76467,124.3786],[21.378,43.7286,130.3899],[21.384,43.72369,130.3939],[21.40012,43.72273,131.8807],[21.40813,43.724,130.8878],[21.41113,43.72498,131.1956],[21.41805,43.72906,130.8862],[21.42136,43.73061,131.5941],[21.43025,43.73379,133.0919],[21.43547,43.73495,136.592],[21.43753,43.73557,136.4251],[21.44461,43.73984,140.0682],[21.44596,43.74043,139.6013],[21.44792,43.74084,140.8816],[21.44999,43.7409,143.135],[21.45392,43.74061,144.6395],[21.45614,43.7409,144.9191],[21.45826,43.74167,145.6467],[21.46032,43.74312,146.2429],[21.46218,43.74498,146.9051],[21.4659,43.74942,169.5374],[21.47831,43.75707,291.3116],[21.48461,43.76048,299.7057],[21.4873,43.76162,292.4601],[21.49319,43.76348,285.1563],[21.49712,43.76503,296.3914],[21.50125,43.76694,275.2935],[21.50663,43.76996,204.1571],[21.50869,43.77079,200.2746],[21.51686,43.77278,230.6412],[21.52104,43.77438,235.8216],[21.53024,43.78064,243.6541],[21.53293,43.78208,244.3794],[21.53985,43.78477,264.0338],[21.54239,43.78609,288.7516],[21.54507,43.78821,304.4111],[21.54735,43.78955,301.3964],[21.54921,43.79014,298.7141],[21.55437,43.79082,302.3035],[21.56388,43.79159,273.8785],[21.56693,43.79211,325.8618],[21.57499,43.79459,315.2685],[21.57804,43.79508,294.1192],[21.58119,43.79529,236.1085],[21.5875,43.795,274.4705],[21.59055,43.79443,326.9724],[21.59856,43.7918,462.2583],[21.60156,43.79123,451.449],[21.60791,43.79092,483.045],[21.61112,43.79113,468.3241],[21.61416,43.79162,447.3379],[21.62238,43.79438,345.2776],[21.63277,43.79717,376.1071],[21.63938,43.79981,464.6843],[21.646,43.80293,667.2089],[21.64744,43.8056,730.0575],[21.65018,43.80846,762.0558],[21.65209,43.80986,772.9341],[21.66202,43.81583,707.4526],[21.6753,43.82787,608.7991],[21.67628,43.82931,622.1636],[21.6769,43.83086,624.6431],[21.67726,43.83557,607.4243],[21.67788,43.83743,603.8635],[21.67907,43.83908,597.4406],[21.68078,43.84063,596.678],[21.68641,43.84428,596.0171],[21.68832,43.8459,615.8052],[21.68951,43.84766,632.6667],[21.68956,43.84942,656.6354],[21.68837,43.85148,685.7062],[21.68625,43.8535,688.5383],[21.68372,43.85551,694.3046],[21.67282,43.86321,675.5505],[21.67147,43.86445,657.9915],[21.66982,43.86683,623.3611],[21.66889,43.86942,728.8061],[21.66848,43.8721,721.9202],[21.66884,43.87748,757.4553],[21.66966,43.87996,730.5459],[21.67282,43.88549,755.8959],[21.67509,43.88812,737.6094],[21.67669,43.88923,741.6504],[21.68036,43.89107,741.7372],[21.68501,43.89283,785.7203],[21.69483,43.89577,782.0852],[21.70263,43.89866,902.8647],[21.70548,43.89947,926.3269],[21.7094,43.90034,944.1258],[21.71809,43.9006,936.1292],[21.72,43.90099,944.1584],[21.72253,43.90223,926.5394],[21.72398,43.90316,921.9739],[21.72883,43.90786,867.1527],[21.73028,43.91003,860.6134],[21.73069,43.91143,880.1393],[21.73049,43.91337,876.8703],[21.72982,43.91474,852.7382],[21.72506,43.92014,827.8105],[21.72398,43.92223,841.4661],[21.72408,43.92455,854.968],[21.72527,43.92641,908.9688],[21.72604,43.92678,908.9688],[21.73674,43.9351,996.8123],[21.73932,43.93724,977.254],[21.74144,43.93951,914.9205],[21.74299,43.94187,901.22],[21.74403,43.94424,920.2013],[21.74475,43.94905,874.2524],[21.74532,43.9505,894.7856],[21.7463,43.95184,894.7856],[21.74837,43.95352,894.1322],[21.75426,43.95716,843.3682],[21.75927,43.9613,885.7641],[21.7708,43.96745,938.2917],[21.77317,43.9691,941.9727],[21.77503,43.97091,931.5164],[21.77617,43.97285,922.2866],[21.77669,43.97427,925.4426],[21.77679,43.97631,944.7642],[21.77648,43.97778,971.7352],[21.77477,43.9813,995.6245],[21.77038,43.98724,1002.7207],[21.76992,43.98936,986.7491],[21.77069,43.99106,950.6907],[21.77116,43.99148,950.6907],[21.77245,43.99184,1023.844],[21.77291,44.00357,1070.4144],[21.77379,44.00791,1145.1296],[21.77462,44.00982,1081.4216],[21.77638,44.01194,1063.1169],[21.7787,44.01362,1060.2997],[21.78289,44.01594,1047.73],[21.78423,44.01695,1047.73],[21.78537,44.01866,1040.4437],[21.78599,44.02067,1017.7783],[21.78635,44.02341,1084.9413],[21.78713,44.03186,1174.472],[21.78831,44.03468,1131.459],[21.79007,44.03612,1067.943],[21.79183,44.03674,1102.7202],[21.79663,44.03767,1107.9946],[21.80113,44.03899,1132.1953],[21.80392,44.04028,1121.8445],[21.80635,44.04183,1113.6248],[21.80847,44.04362,1029.849],[21.80997,44.04553,1106.093],[21.81059,44.04752,1158.048],[21.81074,44.05044,1096.0928],[21.81115,44.05266,1041.4495],[21.81183,44.05431,1000.3303],[21.81777,44.06555,978.8538],[21.80898,44.06927,872.0493],[21.79849,44.07457,772.8916],[21.7955,44.07511,739.8506],[21.7924,44.07483,745.1719],[21.78092,44.07116,946.6746],[21.77798,44.07049,864.8131],[21.77514,44.07033,859.0102],[21.77312,44.07049,788.2111],[21.76832,44.0715,772.3192],[21.7617,44.07374,657.8331],[21.75633,44.07628,733.2992],[21.75033,44.08147,866.4407],[21.74511,44.08651,934.4245],[21.74305,44.08796,924.3867],[21.74124,44.08868,924.3867],[21.73633,44.08969,912.7952],[21.7262,44.09085,757.7787],[21.7233,44.09075,814.5532],[21.72108,44.09031,821.663],[21.71902,44.08961,858.4856],[21.71157,44.08573,666.8539],[21.70558,44.08346,704.6643],[21.70269,44.08281,750.8848],[21.69773,44.08227,620.3096],[21.69364,44.08263,694.598],[21.68811,44.08449,752.0009],[21.68021,44.0863,721.3677],[21.67824,44.08708,682.7733],[21.67592,44.08847,613.1294],[21.67401,44.09015,603.7313],[21.67308,44.09142,624.6312],[21.67075,44.09881,932.9129],[21.66956,44.10049,939.8527],[21.66796,44.10199,947.1865],[21.65669,44.10842,832.973],[21.6537,44.10971,916.6674],[21.64915,44.11116,917.6562],[21.64408,44.1124,900.2633],[21.63892,44.11312,884.6296],[21.63577,44.11317,858.8524],[21.62843,44.11245,786.9568],[21.62228,44.11229,735.8198],[21.61928,44.11266,703.8408],[21.60807,44.11519,700.2069],[21.60404,44.1156,717.506],[21.60006,44.1155,687.0392],[21.59623,44.11488,517.2138],[21.59075,44.11302,414.07],[21.58807,44.1125,410.2791],[21.58683,44.11245,410.2791],[21.58409,44.11286,436.0738],[21.5813,44.11366,462.0586],[21.57091,44.11715,549.7099],[21.56306,44.11813,527.2285],[21.5583,44.11919,429.2258],[21.55463,44.1209,474.6056],[21.55313,44.12219,488.4212],[21.5521,44.12366,488.4212],[21.55107,44.12707,457.4728],[21.54807,44.13353,439.7075],[21.54652,44.13937,379.3254],[21.54574,44.14067,410.1619],[21.54388,44.14237,435.664],[21.54073,44.14418,442.2239],[21.53443,44.14661,417.8049],[21.53195,44.14816,378.0491],[21.52926,44.15048,397.0956],[21.52476,44.155029999999996,384.5261],[21.52115,44.15736,386.8577],[21.51365,44.16159,397.2614],[21.49986,44.17059,480.2822],[21.49298,44.17736,530.4178],[21.48782,44.1817,540.137],[21.48177,44.17989,522.1185],[21.47552,44.178959999999996,484.0354],[21.47004,44.17854,467.9183],[21.46761,44.17865,469.8658],[21.46528,44.17901,406.9556],[21.46332,44.17963,406.9556],[21.45619,44.18288,480.0269],[21.45361,44.18454,426.0635],[21.44735,44.19004,423.3089],[21.44487,44.19157,432.1759],[21.44281,44.19255,386.1225],[21.43877,44.194,433.2552],[21.43681,44.19446,388.1872],[21.43397,44.19467,341.2401],[21.41402,44.19327,250.1115],[21.41004,44.19273,264.8768],[21.40756,44.19213,285.3038],[21.40524,44.19126,283.5466],[21.40245,44.18976,288.5133],[21.40007,44.1879,294.5349],[21.39873,44.18655,279.811],[21.39635,44.18304,278.0201],[21.3948,44.18139,267.4537],[21.39366,44.18082,267.4537],[21.38136,44.18102,229.4751],[21.37764,44.18092,244.5001],[21.36942,44.18004,226.2246],[21.36622,44.17999,180.6278],[21.36317,44.18035,175.2325],[21.36121,44.18092,176.1723],[21.35749,44.18252,167.154],[21.35594,44.18358,179.3475],[21.35434,44.18593,188.1281],[21.35397,44.18769,205.9234],[21.3548,44.18934,193.1115],[21.35981,44.19415,235.2002],[21.36157,44.19648,236.5228],[21.36462,44.20286,271.1959],[21.36824,44.20852,298.1791],[21.36865,44.21053,301.5549],[21.36834,44.21255,321.6656],[21.36741,44.2142,329.3165],[21.36596,44.21562,317.9222],[21.36369,44.21691,310.168],[21.36162,44.21738,295.5633],[21.35325,44.21823,287.8378],[21.35036,44.21883,283.9721],[21.34674,44.22035,285.6631],[21.34446,44.222,283.8299],[21.34111,44.22671,255.9947],[21.33583,44.2327,256.765],[21.33454,44.23477,244.3406],[21.33397,44.23684,230.8654],[21.33403,44.23895,237.9407],[21.3347,44.24187,231.677],[21.3348,44.24402,209.5707],[21.33439,44.24611,212.5818],[21.33289,44.24898,175.7233],[21.33056,44.25213,173.1667],[21.32845,44.2542,172.7827],[21.32586,44.25601,163.5276],[21.31485,44.26195,225.8281],[21.29269,44.2757,157.6522],[21.28824,44.26707,212.4725],[21.28499,44.26221,197.5331],[21.28359,44.2597,170.2136],[21.2808,44.25172,207.3059],[21.27884,44.24882,224.5081],[21.27615,44.24583,216.5446],[21.26824,44.2395,234.3263],[21.2669,44.23875,229.0818],[21.26524,44.23836,209.4681]]]}
,"properties": {"ISO3166-1-Alpha-3": "SRB","country": "Republic of Serbia","fill": "#00F","name": "Pomoravski","area_km2": 2594.131,"hist_schema_id": "Elevation0-9000","hist_area_km2": {"100": 139.076,"125": 287.695,"150": 124.678,"175": 167.485,"200": 185.618,"225": 190.41,"250": 165.977,"275": 134.275,"300": 112.926,"325": 99.938,"350": 91.559,"375": 81.36,"400": 71.116,"425": 63.168,"450": 59.461,"475": 53.924,"500": 46.353,"525": 43.014,"550": 39.737,"575": 38.858,"600": 34.183,"625": 33.875,"650": 32.807,"675": 29.994,"700": 26.693,"725": 23.56,"750": 23.404,"775": 24.026,"800": 23.212,"825": 21.453,"850": 22.017,"875": 20.749,"900": 17.223,"925": 16.153,"950": 12.873,"975": 10.08,"1000": 7.64,"1025": 5.199,"1050": 3.658,"1075": 2.622,"1100": 2.363,"1125": 1.631,"1150": 1.097,"1175": 0.854,"1200": 0.137}}}