{"type":"Feature","properties":{"ISO3166-1-Alpha-3":"SRB","country":"Republic of Serbia","fill":"#F00","id":"833","name":"Pomoravski"},
"geometry":{"type": "Polygon","coordinates": [[[21.28049,43.76105,260.0206],[21.27553,43.76188,256.2731],[21.26933,43.76405,325.0204],[21.26716,43.76498,301.5336],[21.26447,43.76653,300.1382],[21.26235,43.76834,329.7902],[21.26132,43.76963,358.0744],[21.26065,43.77092,359.625],[21.26044,43.77288,377.0204],[21.26085,43.77441,416.6017],[21.26173,43.77588,387.595],[21.2654,43.77971,374.8259],[21.26721,43.78281,360.5886],[21.26767,43.7849,390.4761],[21.26767,43.78699,397.4651],[21.26659,43.79102,461.64],[21.26638,43.79319,476.1544],[21.26716,43.7951,493.2162],[21.27139,43.80177,393.9888],[21.27413,43.80668,386.9137],[21.2747,43.80882,462.9274],[21.27491,43.81329,472.004],[21.27377,43.81846,460.1578],[21.27362,43.82053,413.987],[21.27403,43.82255,357.1906],[21.2746,43.82389,390.242],[21.2776,43.82846,476.4222],[21.2777,43.82931,491.2668],[21.27734,43.83058,464.4365],[21.27651,43.832,464.4365],[21.27517,43.8334,456.2767],[21.27263,43.83513,432.2039],[21.26912,43.83699,541.1174],[21.26065,43.84094,676.9518],[21.25827,43.82911,665.2369],[21.25786,43.82779,648.1899],[21.25749,43.8272,634.1924],[21.25687,43.82663,623.0538],[21.2562,43.82627,623.0538],[21.25543,43.82593,574.2426],[21.24189,43.82074,555.5014],[21.24731,43.80921,703.533],[21.24814,43.80642,672.4424],[21.24871,43.80084,650.8671],[21.24861,43.79531,649.1936],[21.24824,43.79268,646.7167],[21.24752,43.79014,649.7001],[21.24349,43.78221,543.5701],[21.24282,43.78002,505.8951],[21.24147,43.7733,421.2876],[21.2406,43.77123,411.49],[21.23889,43.76924,477.0998],[21.23641,43.76766,506.0758],[21.23016,43.76529,421.6311],[21.22814,43.76469,398.1024],[21.21992,43.76327,303.0288],[21.21786,43.7627,256.8477],[21.21538,43.76149,264.9891],[21.21021,43.75635,216.8382],[21.20556,43.75289,258.9035],[21.20287,43.75133,262.9071],[21.19057,43.74534,323.138],[21.1823,43.73966,289.5098],[21.18013,43.73862,277.8132],[21.17776,43.73803,280.6873],[21.17445,43.738,254.055],[21.17166,43.73847,255.9042],[21.16954,43.73914,247.8765],[21.16752,43.74002,259.9977],[21.16003,43.74524,326.8221],[21.15724,43.7464,313.8406],[21.15424,43.74725,302.7448],[21.14443,43.74888,294.4448],[21.14262,43.748779999999996,334.0789],[21.14107,43.74829,312.9255],[21.13957,43.74699,386.4383],[21.13874,43.74516,408.8751],[21.13848,43.74317,390.205],[21.139,43.73831,452.6449],[21.13869,43.7364,464.2136],[21.13631,43.73206,448.8095],[21.13528,43.72855,464.0066],[21.13523,43.72638,457.0464],[21.13554,43.7242,429.0742],[21.13683,43.71909,365.6486],[21.13698,43.71377,357.4542],[21.13766,43.71064,299.3611],[21.13983,43.70488,255.7438],[21.14815,43.68705,320.267],[21.1389,43.69098,247.6143],[21.12546,43.69596,296.4139],[21.12148,43.69769,276.9547],[21.11755,43.69984,258.3436],[21.11259,43.7039,268.1408],[21.11022,43.70514,256.5991],[21.10055,43.70881,295.1255],[21.09466,43.71224,351.4471],[21.0927,43.71294,332.228],[21.09058,43.71333,308.6802],[21.08774,43.7134,290.4108],[21.07993,43.71263,293.388],[21.07606,43.71242,336.4129],[21.0682,43.71247,307.321],[21.06443,43.71278,324.6337],[21.06014,43.71374,335.0509],[21.0511,43.718,369.8313],[21.04898,43.71857,367.8979],[21.04319,43.7193,389.1459],[21.0281,43.71981,505.5834],[21.02443,43.72012,454.4286],[21.02092,43.72069,455.2029],[21.01281,43.72322,512.7782],[21.00903,43.72397,446.2553],[21.00128,43.72503,614.8473],[20.99772,43.72586,626.7901],[20.99224,43.72787,643.9412],[20.98955,43.72844,727.0085],[20.98831,43.72849,727.0085],[20.98568,43.72803,657.9657],[20.98066,43.72617,519.1591],[20.97668,43.724,502.4076],[20.97503,43.72343,450.588],[20.97389,43.72327,450.588],[20.9711,43.72364,446.3492],[20.96526,43.72503,471.057],[20.95958,43.72694,585.2094],[20.957,43.72818,691.7715],[20.94325,43.72793,621.1179],[20.94134,43.72782,563.6225],[20.94046,43.72772,509.8853],[20.93963,43.72746,509.8853],[20.93912,43.72715,509.8853],[20.9372,43.72539,591.637],[20.93591,43.72446,631.9608],[20.93519,43.7241,631.9608],[20.93446,43.72389,631.9608],[20.93364,43.72389,637.8983],[20.93095,43.72444,658.6617],[20.92986,43.72457,698.1744],[20.92759,43.72467,661.9847],[20.9262,43.72467,649.5982],[20.92299,43.72694,642.7588],[20.92273,43.72702,642.7588],[20.92227,43.7271,577.0518],[20.92113,43.7271,549.7836],[20.91808,43.72715,534.5518],[20.91684,43.72705,506.9426],[20.91643,43.72689,506.9426],[20.91617,43.72658,506.9426],[20.91607,43.72622,506.9426],[20.91602,43.72534,520.1021],[20.91607,43.72446,520.1021],[20.91627,43.72358,507.804],[20.91648,43.72317,507.804],[20.9171,43.72242,507.804],[20.91948,43.71997,527.3102],[20.9203,43.71893,584.653],[20.92118,43.71676,573.2829],[20.92134,43.71444,605.4998],[20.92082,43.71211,619.2687],[20.91948,43.70979,600.1014],[20.91581,43.70545,595.8582],[20.91431,43.70322,624.0369],[20.91338,43.70074,533.0032],[20.91281,43.69542,453.2347],[20.91292,43.6901,486.7429],[20.91369,43.68488,426.8757],[20.91457,43.68245,355.8439],[20.91674,43.67883,409.6047],[20.91741,43.67713,370.0436],[20.91726,43.67532,261.9973],[20.91617,43.67377,261.9973],[20.91483,43.67284,240.3528],[20.90568,43.66832,171.2351],[20.90046,43.66488,171.2835],[20.89467,43.66157,174.1061],[20.88956,43.65796,181.2198],[20.88666,43.65514,184.8317],[20.88243,43.64938,189.6819],[20.87809,43.64447,204.8799],[20.89932,43.64082,182.1552],[20.90263,43.64054,181.2382],[20.90981,43.64059,183.8446],[20.91193,43.64026,186.3323],[20.91395,43.63961,183.856],[20.91617,43.63827,184.0401],[20.91782,43.63656,186.5751],[20.91875,43.63465,183.7856],[20.92015,43.63044,200.0406],[20.92134,43.62889,200.4234],[20.92299,43.62757,203.3083],[20.92485,43.62669,194.846],[20.92702,43.62602,191.4065],[20.93508,43.62442,220.5717],[20.9371,43.62375,222.5413],[20.93974,43.62232,213.7438],[20.94821,43.61656,294.9713],[20.95017,43.61486,254.8384],[20.95136,43.613,238.6318],[20.95147,43.61121,231.1839],[20.95038,43.6093,241.3693],[20.94831,43.60762,257.4264],[20.94325,43.60437,252.4573],[20.93679,43.59951,295.7312],[20.93415,43.59796,351.9412],[20.92201,43.59279,492.5425],[20.91932,43.59134,510.7371],[20.91534,43.58845,438.0878],[20.91131,43.58395,411.7329],[20.90821,43.57915,450.3929],[20.90749,43.57768,465.9389],[20.90677,43.57507,506.4112],[20.90651,43.57233,541.4178],[20.90661,43.56959,628.5306],[20.90708,43.5669,716.9524],[20.90811,43.56434,741.2579],[20.90961,43.56225,718.0968],[20.91338,43.55827,649.7032],[20.91493,43.5562,726.051],[20.91591,43.55411,729.7461],[20.91881,43.54455,871.5272],[20.91932,43.54024,828.4219],[20.91896,43.53538,907.905],[20.91932,43.53388,907.905],[20.9201,43.53243,905.2687],[20.92496,43.52719,912.1192],[20.92821,43.52148,1005.6848],[20.93012,43.51915,956.6533],[20.94521,43.50603,823.9109],[20.93235,43.50153,778.274],[20.92201,43.4974,786.8912],[20.9187,43.4967,761.5848],[20.91069,43.49626,765.1804],[20.89963,43.49378,642.8767],[20.89617,43.49331,705.936],[20.88889,43.49293,787.1781],[20.87772,43.49293,863.1934],[20.87044,43.49331,961.1319],[20.86697,43.49383,889.0351],[20.8601,43.49585,977.3744],[20.85452,43.49812,895.7686],[20.85282,43.49902,836.7953],[20.8508,43.50076,756.248],[20.84672,43.50556,818.5679],[20.84434,43.50737,817.9985],[20.83618,43.51326,868.7529],[20.83364,43.51476,857.254],[20.83085,43.51564,890.7983],[20.82884,43.51577,910.2893],[20.82687,43.51554,930.665],[20.8246,43.51471,1008.1193],[20.82248,43.51344,936.3366],[20.81592,43.50794,1000.3422],[20.81333,43.50649,1067.3784],[20.81132,43.50585,1083.3572],[20.806,43.50505,1142.6035],[20.79463,43.50424,1257.9187],[20.79266,43.50422,1291.8789],[20.7906,43.50453,1295.2782],[20.78868,43.5052,1238.6841],[20.78698,43.50623,1228.4509],[20.78088,43.51096,1175.0748],[20.77907,43.51197,1171.1884],[20.77706,43.51264,1160.4991],[20.77478,43.51285,1141.6456],[20.77267,43.51267,1138.2733],[20.76838,43.51176,1080.3899],[20.76031,43.50918,984.6936],[20.76254,43.50649,898.0325],[20.766,43.50163,952.93],[20.77091,43.49195,1189.2808],[20.77282,43.48965,1220.5111],[20.77933,43.48334,1345.1494],[20.78078,43.48114,1399.4058],[20.7813,43.4791,1449.0542],[20.78119,43.47709,1505.5806],[20.78062,43.47554,1551.8022],[20.77974,43.47409,1473.3142],[20.77654,43.47037,1398.1393],[20.77592,43.469,1351.9448],[20.77587,43.46758,1275.3228],[20.77659,43.46577,1267.9485],[20.78192,43.45957,1313.2664],[20.78243,43.45776,1374.7511],[20.78212,43.45595,1406.7299],[20.77768,43.44944,1293.5862],[20.77675,43.44706,1206.9745],[20.77458,43.43792,924.285],[20.77148,43.42924,893.9811],[20.77013,43.42438,923.5447],[20.77013,43.42216,889.3209],[20.77117,43.41782,894.1711],[20.77096,43.41583,915.3168],[20.77034,43.41433,914.5511],[20.76925,43.41296,1003.8455],[20.76336,43.40857,1091.9067],[20.76171,43.40689,1030.8645],[20.76114,43.40513,925.5546],[20.7615,43.40402,925.5546],[20.76233,43.40291,917.7705],[20.7661,43.39937,930.2438],[20.76729,43.39789,944.0566],[20.77013,43.39224,741.179],[20.77143,43.39032,641.3153],[20.77313,43.38872,685.717],[20.77484,43.38787,715.166],[20.78274,43.38531,783.1644],[20.79111,43.38211,742.9673],[20.7938,43.38138,744.2996],[20.79597,43.38118,755.8184],[20.79814,43.38123,786.7409],[20.80145,43.3819,942.7186],[20.80961,43.38474,1087.2939],[20.81215,43.38531,1130.6283],[20.81473,43.38559,1036.3201],[20.81809,43.38547,1155.9526],[20.82041,43.38505,1141.3367],[20.8291,43.38304,1309.2666],[20.83044,43.37125,1199.0103],[20.83256,43.36252,1328.6243],[20.83251,43.36159,1317.9351],[20.83163,43.35968,1313.49],[20.82925,43.35591,1288.2263],[20.82889,43.35405,1233.9711],[20.82904,43.3527,1185.2327],[20.8309,43.34309,1461.8726],[20.83194,43.34051,1510.0559],[20.83359,43.33829,1576.1106],[20.83721,43.33472,1574.6643],[20.83793,43.33358,1606.3743],[20.83814,43.33188,1620.3563],[20.83649,43.32816,1645.4283],[20.83307,43.32376,1736.4187],[20.83106,43.32183,1756.3782],[20.82377,43.31668,1908.7991],[20.8214,43.31376,1868.209],[20.81923,43.30976,1803.9418],[20.81819,43.30831,1774.2795],[20.81685,43.30702,1741.9924],[20.81447,43.30552,1719.0731],[20.81096,43.30392,1679.8285],[20.80868,43.30247,1656.7473],[20.8075,43.30128,1661.1783],[20.80579,43.2987,1644.8423],[20.80517,43.29736,1644.8423],[20.80486,43.29534,1677.3514],[20.80517,43.29333,1710.0441],[20.80879,43.28558,1711.0201],[20.8093,43.28346,1728.9138],[20.80946,43.28129,1757.1179],[20.80812,43.274,1767.0878],[20.80812,43.2718,1755.9517],[20.80982,43.26439,1628.2458],[20.80972,43.25976,1464.9402],[20.80972,43.25974,1464.9402],[20.80972,43.25961,1464.9402],[20.81943,43.25741,1732.9641],[20.83845,43.24586,1336.8005],[20.84847,43.23814,1230.1294],[20.85509,43.23145,1125.4233],[20.8647,43.21734,1008.4274],[20.8616,43.21752,1042.8702],[20.85147,43.21982,1078.1803],[20.84,43.21209,854.124],[20.84062,43.20698,855.7521],[20.83907,43.19246,997.5938],[20.83607,43.17943,993.9137],[20.83204,43.17861,1109.4985],[20.83855,43.17047,771.0516],[20.91249,43.13881,1158.0315],[20.9125,43.13881,1158.0315],[20.91503,43.14186,1222.2529],[20.92036,43.14987,1468.9347],[20.92614,43.15489,1405.2837],[20.93054,43.16057,1211.6658],[20.93255,43.16243,1220.6979],[20.93581,43.16424,1291.3595],[20.94315,43.16641,1106.0767],[20.94495,43.16713,1120.1418],[20.94707,43.16848,1104.0461],[20.95488,43.17527,1005.8194],[20.95555,43.17643,1047.2086],[20.9557,43.17814,1130.8719],[20.95529,43.17938,1176.9698],[20.95338,43.18264,1112.59],[20.95245,43.18522,1081.4142],[20.95193,43.18806,997.558],[20.95074,43.1999,1078.2126],[20.94837,43.20842,848.608],[20.9479,43.21377,960.955],[20.94831,43.21907,824.7916],[20.94904,43.2216,934.6349],[20.9511,43.22465,917.4779],[20.96025,43.23173,896.4468],[20.96583,43.23772,1040.7476],[20.96697,43.23989,1026.899],[20.96707,43.24175,1021.0331],[20.96588,43.24522,958.8958],[20.96547,43.24775,886.9008],[20.96625,43.24961,843.2917],[20.968,43.25108,799.6862],[20.97157,43.25224,757.8032],[20.97999,43.25377,676.3694],[20.98449,43.25493,669.989],[20.98738,43.25503,700.1844],[20.98893,43.25465,745.3399],[20.99668,43.25142,637.1793],[21.00123,43.24994,698.309],[21.00862,43.24801,683.136],[21.01188,43.24801,721.765],[21.01663,43.24883,696.3036],[21.02417,43.251,666.6556],[21.03198,43.2546,549.4894],[21.03368,43.25498,558.5347],[21.03606,43.25498,626.5094],[21.03771,43.2546,650.0326],[21.04381,43.25178,543.9326],[21.04981,43.24982,564.9911],[21.05141,43.24914,564.9911],[21.0527,43.24814,553.2068],[21.05363,43.24692,540.5344],[21.05606,43.24253,605.6874],[21.05797,43.24108,581.8323],[21.05962,43.24026,603.5286],[21.06629,43.23741,561.18],[21.06893,43.23659,548.2313],[21.07254,43.23591,628.796],[21.0803,43.23555,689.6237],[21.08417,43.23576,690.3547],[21.08794,43.23628,684.7396],[21.09502,43.23819,681.1745],[21.10195,43.24046,845.1179],[21.10634,43.24227,994.35],[21.11213,43.24558,997.5479],[21.11678,43.24775,1062.901],[21.12272,43.25007,1113.2177],[21.13042,43.2525,1028.3812],[21.13182,43.25312,1028.3812],[21.13409,43.25483,975.6244],[21.13605,43.25702,984.1144],[21.13879,43.26124,939.3867],[21.14039,43.26299,866.7002],[21.14282,43.26447,822.6477],[21.14768,43.26627,831.3026],[21.14959,43.26739,792.0189],[21.15073,43.26896,905.0201],[21.15135,43.2709,839.2855],[21.15161,43.27297,752.5095],[21.15166,43.27875,962.6957],[21.15192,43.28028,962.6957],[21.15249,43.28175,1012.8462],[21.15337,43.28302,1016.1243],[21.15874,43.28821,845.712],[21.16008,43.29002,793.3233],[21.16101,43.29209,849.1725],[21.16308,43.29849,769.6299],[21.16401,43.30004,770.6856],[21.16525,43.30141,765.6795],[21.16866,43.30371,802.3835],[21.17812,43.30865,803.4746],[21.18489,43.31312,653.2822],[21.19161,43.31609,789.8389],[21.19388,43.3173,711.7844],[21.19584,43.31878,659.8972],[21.19734,43.32041,659.8972],[21.19843,43.32237,638.1428],[21.19915,43.32444,627.3294],[21.20039,43.32937,613.4382],[21.20018,43.33136,603.6476],[21.1975,43.33694,437.6887],[21.19724,43.33901,329.3597],[21.1975,43.34071,372.6037],[21.19817,43.34237,399.2836],[21.19977,43.34464,428.3434],[21.20199,43.34671,538.2059],[21.20484,43.34839,538.3582],[21.20897,43.35038,537.8085],[21.21135,43.3519,585.3217],[21.21264,43.35317,611.3009],[21.21285,43.35394,630.7816],[21.22137,43.35596,616.0543],[21.23527,43.35859,621.9051],[21.24597,43.35937,628.6536],[21.25,43.3603,622.1782],[21.26866,43.36738,577.2129],[21.28902,43.37647,729.8519],[21.29284,43.37792,784.061],[21.29765,43.37932,698.4341],[21.30323,43.38035,627.1942],[21.31816,43.38097,683.5214],[21.32183,43.38128,715.8547],[21.32524,43.38185,728.9139],[21.32907,43.38304,760.067],[21.33527,43.38567,737.2063],[21.33697,43.38629,736.504],[21.33966,43.38665,784.0458],[21.34245,43.38658,721.2277],[21.34441,43.38629,724.9747],[21.35738,43.38345,900.147],[21.36245,43.38195,925.2518],[21.36999,43.37875,772.9351],[21.37402,43.37766,791.0435],[21.37625,43.37756,796.323],[21.37893,43.37792,894.4575],[21.38457,43.37926,915.08],[21.39077,43.38014,1078.6938],[21.39914,43.38066,1205.9835],[21.4041,43.38076,1092.9012],[21.40379,43.38159,1092.9012],[21.40431,43.38288,1131.0341],[21.40648,43.38412,1195.27],[21.40937,43.38466,1187.2],[21.41257,43.38479,1115.3904],[21.41588,43.38456,1015.202],[21.41831,43.38404,1010.2555],[21.42053,43.38324,1007.7678],[21.42312,43.3818,904.7443],[21.42508,43.37996,958.2549],[21.42865,43.37423,976.2485],[21.42973,43.37296,994.2551],[21.43076,43.37216,1088.2896],[21.43397,43.37079,1059.7723],[21.43996,43.36877,960.0955],[21.4472,43.36678,853.424],[21.45019,43.36637,941.1663],[21.45335,43.36619,912.3522],[21.46007,43.36635,875.2601],[21.46342,43.36666,867.3514],[21.46942,43.36782,982.8098],[21.47391,43.36929,1156.3652],[21.48161,43.37141,1083.75],[21.49247,43.37348,1169.8876],[21.4949,43.37412,1108.8127],[21.49712,43.37495,1060.9675],[21.5027,43.37779,900.6271],[21.50482,43.37864,884.5456],[21.51159,43.38071,860.879],[21.51319,43.38154,847.6173],[21.51484,43.38309,768.8758],[21.51593,43.38503,804.7767],[21.51748,43.38913,926.1583],[21.51856,43.39112,931.3815],[21.52011,43.39286,898.0636],[21.53081,43.39908,709.428],[21.53314,43.40027,724.2012],[21.53562,43.40123,676.4539],[21.53773,43.40169,666.8015],[21.53996,43.40185,630.6998],[21.54859,43.40128,483.0266],[21.54988,43.40143,464.5181],[21.55257,43.40231,488.6633],[21.55484,43.40381,493.5462],[21.56414,43.41347,459.5385],[21.56564,43.41557,412.8947],[21.56652,43.41769,386.1157],[21.56688,43.41993,367.0862],[21.56678,43.42443,369.417],[21.56616,43.4266,336.4943],[21.56533,43.4282,319.5034],[21.56414,43.4297,330.85],[21.5583,43.43487,336.5958],[21.55572,43.43766,296.6104],[21.55324,43.44102,342.5025],[21.55148,43.44386,340.2492],[21.54936,43.45037,389.4392],[21.54838,43.45244,386.1056],[21.54363,43.45833,380.6178],[21.54259,43.46029,372.8544],[21.54259,43.46215,376.1503],[21.54337,43.46391,356.7759],[21.54693,43.46928,353.6483],[21.54817,43.47202,336.2733],[21.54828,43.47399,358.8979],[21.54559,43.4837,309.5342],[21.5459,43.48556,322.6876],[21.54698,43.48727,314.7359],[21.54859,43.48882,318.6052],[21.55386,43.49269,340.1234],[21.5552,43.49404,332.1882],[21.55887,43.49905,309.4041],[21.5644,43.50432,334.7529],[21.56549,43.50582,336.8588],[21.56631,43.50745,336.6715],[21.56698,43.50964,330.7803],[21.56724,43.51189,325.6785],[21.56698,43.51641,348.3043],[21.56631,43.51853,342.6369],[21.56543,43.52013,348.2675],[21.56419,43.52153,340.553],[21.56254,43.52277,326.2302],[21.55355,43.52809,333.2979],[21.54761,43.53373,306.6897],[21.54249,43.53703,266.2797],[21.54032,43.53874,267.0827],[21.53887,43.5407,263.1893],[21.5383,43.54272,276.0529],[21.53835,43.54473,264.3044],[21.53877,43.54752,288.969],[21.53861,43.54949,294.9933],[21.53799,43.55093,283.2935],[21.53691,43.55223,261.1249],[21.53463,43.55367,251.7906],[21.52895,43.55605,244.4619],[21.52523,43.55796,231.7708],[21.52347,43.55915,224.2764],[21.52218,43.56055,224.7957],[21.5212,43.56215,222.3658],[21.52037,43.56437,224.0623],[21.51939,43.5683,225.5661],[21.5182,43.57109,220.7379],[21.5166,43.57377,217.6085],[21.51396,43.57708,204.9125],[21.5075,43.57843,177.8031],[21.50347,43.58013,157.984],[21.50053,43.58091,167.4254],[21.49593,43.58277,264.6303],[21.48099,43.58628,256.6068],[21.48079,43.58721,273.7401],[21.47872,43.59171,251.2255],[21.4782,43.59388,275.5482],[21.47882,43.59563,286.2441],[21.48022,43.59718,256.8803],[21.48192,43.59842,228.9945],[21.49102,43.60351,159.3114],[21.48983,43.61385,144.3042],[21.49164,43.61928,142.3263],[21.49448,43.62276,164.0543],[21.49846,43.62524,148.1151],[21.50347,43.62752,248.57],[21.49789,43.62907,237.2296],[21.49443,43.63111,236.3124],[21.49014,43.63289,149.4351],[21.48239,43.63372,289.3351],[21.48704,43.64473,145.7805],[21.48658,43.65361,187.1027],[21.48254,43.66129,148.6765],[21.47619,43.66847,159.5423],[21.46999,43.66847,145.054],[21.47185,43.68462,203.3298],[21.47247,43.68602,232.7684],[21.47355,43.68726,244.1345],[21.4751,43.68816,226.5155],[21.47696,43.68881,217.6378],[21.47872,43.68912,204.9661],[21.48141,43.68909,213.7974],[21.489,43.68736,279.9103],[21.49179,43.68736,292.8452],[21.49469,43.68798,208.2578],[21.49975,43.68984,210.7594],[21.50187,43.69082,282.9677],[21.50446,43.69232,276.7331],[21.50663,43.69403,262.5581],[21.50776,43.69527,262.5581],[21.50859,43.69656,282.3596],[21.5089,43.69852,274.0421],[21.50652,43.70793,342.7452],[21.50363,43.71526,342.4594],[21.50259,43.71733,326.5934],[21.50125,43.71893,317.152],[21.499389999999998,43.72028,332.2364],[21.4965,43.72147,338.7352],[21.49355,43.72211,314.1093],[21.4873,43.72291,267.8811],[21.4842,43.72353,260.6878],[21.48032,43.72493,234.0138],[21.47831,43.72586,237.0993],[21.4766,43.72705,225.741],[21.47531,43.72842,228.0546],[21.47433,43.73002,257.7039],[21.4735,43.73258,245.96],[21.47242,43.73816,228.6588],[21.47154,43.74105,155.4796],[21.47014,43.74379,149.2928],[21.46839,43.74637,152.4619],[21.4659,43.74942,169.5374],[21.46218,43.74498,146.9051],[21.46032,43.74312,146.2429],[21.45826,43.74167,145.6467],[21.45614,43.7409,144.9191],[21.45392,43.74061,144.6395],[21.44999,43.7409,143.135],[21.44792,43.74084,140.8816],[21.44596,43.74043,139.6013],[21.44461,43.73984,140.0682],[21.43753,43.73557,136.4251],[21.43547,43.73495,136.592],[21.43025,43.73379,133.0919],[21.42136,43.73061,131.5941],[21.41805,43.72906,130.8862],[21.41113,43.72498,131.1956],[21.40813,43.724,130.8878],[21.40012,43.72273,131.8807],[21.384,43.72369,130.3939],[21.378,43.7286,130.3899],[21.36694,43.76467,124.3786],[21.374389999999998,43.77087,124.6281],[21.35087,43.77139,129.1257],[21.34943,43.7704,131.9899],[21.34452,43.77157,140.8495],[21.34121,43.77203,140.4476],[21.33775,43.77216,140.973],[21.33428,43.77195,141.8966],[21.31997,43.76968,159.4087],[21.30183,43.76431,227.8617],[21.28948,43.76239,216.234],[21.28338,43.76115,246.3932],[21.28049,43.76105,260.0206]]]}}