{"type": "Feature","bbox": [20.1206,44.0998,20.4232,44.2943],"geometry": {"type": "MultiPolygon","coordinates": [[[[20.2163,44.282,195.6448],[20.2068,44.2695,170.8569],[20.2103,44.2619,163.224],[20.208,44.2589,168.175],[20.2077,44.2519,167.9651],[20.2013,44.2518,187.76],[20.1979,44.2541,232.9357],[20.1922,44.2527,204.5397],[20.1708,44.2427,195.7744],[20.1666,44.2389,191.6308],[20.1678,44.235,219.9868],[20.1784,44.2295,242.509],[20.181,44.2245,244.2182],[20.1783,44.2206,214.0167],[20.1674,44.2136,312.2478],[20.1591,44.1989,386.8264],[20.1594,44.1925,440.4994],[20.1679,44.1818,330.2982],[20.1679,44.1773,291.2583],[20.1479,44.1673,349.3552],[20.1345,44.1537,572.4948],[20.1224,44.1462,448.9068],[20.1206,44.1434,436.9964],[20.1324,44.1337,649.8328],[20.1369,44.124,712.509],[20.1443,44.1149,724.9127],[20.1505,44.0998,699.6011],[20.1603,44.1004,686.6279],[20.1714,44.1099,720.3891],[20.1789,44.1124,672.567],[20.1956,44.1115,643.8934],[20.2124,44.114,636.0988],[20.2292,44.1116,677.8275],[20.2536,44.1192,635.781],[20.2797,44.12,658.1123],[20.2868,44.1214,577.1149],[20.293,44.1326,582.9302],[20.2984,44.1368,552.954],[20.328,44.1472,308.8434],[20.3351,44.152,304.6902],[20.3373,44.1551,286.6022],[20.3363,44.1647,318.9031],[20.3396,44.1682,338.4166],[20.3512,44.1733,418.5994],[20.3665,44.1733,366.4691],[20.3722,44.1759,246.2739],[20.3759,44.1816,344.909],[20.3751,44.1911,307.4949],[20.3791,44.2,382.4867],[20.3828,44.2021,389.7052],[20.3958,44.2039,419.3896],[20.3992,44.2061,402.0375],[20.4053,44.2219,324.0579],[20.4231,44.2418,213.9479],[20.4232,44.2544,266.5662],[20.4148,44.27,289.842],[20.4154,44.2841,376.8609],[20.409,44.2899,374.139],[20.4005,44.2928,353.2536],[20.3891,44.2943,312.213],[20.3779,44.2908,378.4888],[20.3602,44.2907,305.8225],[20.3561,44.2894,266.4625],[20.3493,44.2824,231.3593],[20.3431,44.2699,264.9813],[20.333,44.2632,224.5054],[20.3267,44.2566,250.0437],[20.318,44.2523,211.4764],[20.3094,44.2505,190.2543],[20.294,44.2564,161.6023],[20.2883,44.2561,150.577],[20.2848,44.2533,143.2603],[20.2839,44.2425,159.0712],[20.2791,44.2405,154.476],[20.2616,44.2448,138.766],[20.2568,44.2493,147.5306],[20.2488,44.2615,195.5168],[20.2163,44.282,195.6448]]]]}
,"properties": {"GID_2": "SRB.7.2_1","GID_0": "SRB","country": "Serbia","GID_1": "SRB.7_1","province": "Kolubarski","NL_NAME_1": "Колубарски","county": "Ljig","VARNAME_2": "NA","NL_NAME_2": "Љиг","TYPE_2": "Opštine","ENGTYPE_2": "Town|Municipal","CC_2": "NA","HASC_2": "NA","name": "Ljig.county","area_km2": 287.5834,"hist_schema_id": "Elevation0-9000","hist_area_km2": {"125": 0.0152,"150": 11.3929,"175": 16.8475,"200": 24.6876,"225": 31.6018,"250": 27.4412,"275": 23.4475,"300": 19.1639,"325": 16.8402,"350": 15.0631,"375": 11.705,"400": 10.4148,"425": 8.2117,"450": 6.0374,"475": 5.2317,"500": 4.0458,"525": 3.514,"550": 3.7425,"575": 3.469,"600": 3.3626,"625": 3.4238,"650": 4.1848,"675": 5.3111,"700": 6.6048,"725": 8.203,"750": 5.844,"775": 4.1241,"800": 2.2979,"825": 1.05,"850": 0.3044}}}