{"type":"Feature","properties":{"GID_2":"SRB.5.10_1","GID_0":"SRB","country":"Serbia","GID_1":"SRB.5_1","province":"Južno-Bački","NL_NAME_1":"Јужнобачки","county":"Titel","VARNAME_2":"NA","NL_NAME_2":"Тител","TYPE_2":"Opštine","ENGTYPE_2":"Town|Municipal","CC_2":"NA","HASC_2":"NA","name":"Titel.county"},
"geometry":{"type": "MultiPolygon","coordinates": [[[[20.0798,45.1781,75.4447],[20.1101,45.1773,75.2717],[20.1402,45.1685,137.3466],[20.1728,45.1699,205.4838],[20.1855,45.1671,179.2057],[20.2031,45.1581,223.958],[20.2481,45.1254,131.658],[20.2635,45.1199,133.2516],[20.2677,45.124,140.315],[20.2691,45.1286,99.177],[20.2582,45.1457,70.5],[20.2561,45.1526,75.9719],[20.2603,45.1633,72.381],[20.2658,45.1904,71.5018],[20.27,45.1949,72.1793],[20.286,45.2049,89.1322],[20.288,45.2118,94.3101],[20.2875,45.2201,117.8409],[20.2828,45.2293,117.2504],[20.2542,45.268,121.8783],[20.2503,45.2707,122.5685],[20.2307,45.2777,120.2482],[20.222,45.289,116.8091],[20.2221,45.2936,72.1458],[20.2254,45.2961,72.7981],[20.2208,45.3002,73.671],[20.208,45.3036,72.4833],[20.1813,45.3022,72.9758],[20.1666,45.3052,74.943],[20.151,45.306,73.9469],[20.15,45.3105,72.486],[20.1549,45.3208,71.9789],[20.1719,45.3338,72.8057],[20.1709,45.3373,72.659],[20.167,45.3403,73.2051],[20.1516,45.3455,72.8171],[20.1483,45.3438,74.0766],[20.1443,45.3354,73.7846],[20.1383,45.3282,75.2406],[20.1372,45.3144,73.0332],[20.1338,45.3107,72.3843],[20.0965,45.3038,76.0003],[20.0842,45.2988,73.7234],[20.0576,45.2936,79.1994],[20.0489,45.2931,80.1786],[20.0299,45.2956,80.9726],[20.0318,45.2873,80.0336],[20.0361,45.279,79.456],[20.0475,45.2682,79.9149],[20.0464,45.2625,80.6501],[20.0477,45.2576,78.9729],[20.0615,45.2444,80.088],[20.0647,45.2255,76.336],[20.0731,45.2185,79.1806],[20.0841,45.2127,79.5109],[20.0866,45.2096,78.9427],[20.0851,45.2038,79.8484],[20.0756,45.192,77.9161],[20.0757,45.1882,77.8925],[20.0798,45.1781,75.4447]]]]}}