{"type": "Feature","bbox": [19.9196,44.0737,20.181,44.3014],"geometry": {"type": "MultiPolygon","coordinates": [[[[20.0739,44.2983,151.4501],[20.07,44.2874,155.2217],[20.0647,44.2791,154.6006],[20.0596,44.2754,143.5738],[20.0447,44.2747,170.7231],[20.0214,44.2634,177.6418],[20.0154,44.2632,186.0934],[20.0009,44.2687,228.582],[19.9912,44.2694,226.815],[19.9806,44.2676,246.9125],[19.9712,44.2625,211.559],[19.9691,44.2593,199.124],[19.9698,44.2563,196.6178],[19.983,44.2452,210.1565],[19.9836,44.241,241.9253],[19.9813,44.2314,271.9626],[19.9775,44.2243,295.5638],[19.9694,44.2149,368.6829],[19.9643,44.2118,419.5741],[19.9475,44.2066,351.6588],[19.9363,44.1951,418.0912],[19.9363,44.1817,699.8965],[19.9222,44.1665,757.9323],[19.9196,44.1618,820.1986],[19.9222,44.1528,705.2307],[19.9289,44.1445,552.0844],[19.9256,44.1302,684.5206],[19.9415,44.1176,720.4703],[19.9474,44.1155,673.6379],[19.992,44.1156,956.2336],[19.9972,44.1134,980.8098],[20.0168,44.0982,958.5704],[20.0368,44.0965,826.9152],[20.062,44.0853,778.8745],[20.0833,44.0841,795.3905],[20.1246,44.0737,675.7868],[20.1277,44.0761,645.8835],[20.1231,44.0875,662.6589],[20.1236,44.0938,688.9734],[20.1291,44.0967,665.0783],[20.1505,44.0998,699.6011],[20.1443,44.1149,724.9127],[20.1369,44.124,712.509],[20.1324,44.1337,649.8328],[20.1206,44.1434,436.9964],[20.1224,44.1462,448.9068],[20.1345,44.1537,572.4948],[20.1479,44.1673,349.3552],[20.1649,44.1752,267.2039],[20.1687,44.1786,291.2583],[20.1679,44.1818,330.2982],[20.1601,44.191,443.2847],[20.1586,44.1968,413.4875],[20.1674,44.2136,312.2478],[20.1783,44.2206,214.0167],[20.181,44.2245,244.2182],[20.1784,44.2295,242.509],[20.1678,44.235,219.9868],[20.1666,44.2389,191.6308],[20.1708,44.2427,195.7744],[20.181,44.247,208.3836],[20.1767,44.2527,238.3865],[20.1711,44.2563,217.6187],[20.1505,44.2567,218.302],[20.1407,44.2616,174.9514],[20.1374,44.2669,179.755],[20.1352,44.2778,172.0159],[20.1311,44.2839,171.9903],[20.13,44.2906,231.6087],[20.1266,44.2945,216.4457],[20.1076,44.2962,177.8336],[20.0913,44.3014,189.42],[20.0845,44.3013,196.7402],[20.0739,44.2983,151.4501]]]]}
,"properties": {"GID_2": "SRB.7.3_1","GID_0": "SRB","country": "Serbia","GID_1": "SRB.7_1","province": "Kolubarski","NL_NAME_1": "Колубарски","county": "Mionica","VARNAME_2": "NA","NL_NAME_2": "Мионица","TYPE_2": "Opštine","ENGTYPE_2": "Town|Municipal","CC_2": "NA","HASC_2": "NA","name": "Mionica.county","area_km2": 330.2232,"hist_schema_id": "Elevation0-9000","hist_area_km2": {"150": 12.8135,"175": 21.8973,"200": 22.4149,"225": 20.2768,"250": 13.6114,"275": 7.2022,"300": 9.3312,"325": 12.5995,"350": 13.0571,"375": 19.6256,"400": 19.3687,"425": 13.776,"450": 11.6333,"475": 9.4451,"500": 9.2784,"525": 8.6401,"550": 8.0927,"575": 6.1005,"600": 4.61,"625": 4.6563,"650": 5.4635,"675": 5.8138,"700": 6.179,"725": 6.788,"750": 6.6056,"775": 6.0423,"800": 6.0272,"825": 6.0733,"850": 5.7231,"875": 5.1902,"900": 4.2464,"925": 3.4397,"950": 3.3483,"975": 3.7136,"1000": 2.8919,"1025": 2.4353,"1050": 1.2481,"1075": 0.5023,"1100": 0.0609}}}