{"type": "Feature","bbox": [20.0877,43.6029,20.4663,43.8832],"geometry": {"type": "MultiPolygon","coordinates": [[[[20.1556,43.877,591.0206],[20.136,43.8735,382.9601],[20.1168,43.8739,294.3073],[20.1096,43.872,302.8335],[20.1004,43.8619,296.4831],[20.0919,43.8552,297.9094],[20.0879,43.8464,300.4869],[20.0877,43.8421,301.2371],[20.0935,43.8348,303.4153],[20.1054,43.8292,317.6915],[20.1068,43.8252,312.0717],[20.1051,43.814,392.6904],[20.1135,43.8049,314.2282],[20.1259,43.7975,384.0091],[20.1301,43.7916,363.6907],[20.1295,43.7867,390.0303],[20.122,43.7807,360.4529],[20.1191,43.7747,423.46],[20.1226,43.7645,529.6841],[20.1214,43.753,457.031],[20.1238,43.7465,464.2109],[20.1241,43.74,419.5404],[20.127,43.737,479.3691],[20.1433,43.7286,473.46],[20.1628,43.7219,506.4025],[20.1654,43.7193,509.774],[20.169,43.7015,607.41],[20.1605,43.6861,491.632],[20.1542,43.6798,567.9791],[20.1536,43.6769,557.2278],[20.1587,43.6715,576.7859],[20.1729,43.663,593.5687],[20.1751,43.6579,568.7162],[20.173,43.6523,641.5332],[20.1933,43.6474,736.6001],[20.2389,43.6455,759.3953],[20.2509,43.6399,897.6857],[20.2562,43.629,786.9817],[20.2612,43.6265,688.4415],[20.2929,43.6254,645.2101],[20.32,43.627,900.9269],[20.324,43.6253,960.1458],[20.3285,43.6182,835.3312],[20.333,43.6148,784.7184],[20.3502,43.6069,944.9784],[20.3692,43.6029,1102.127],[20.3724,43.605,1125.9291],[20.3734,43.6084,1078.7903],[20.3578,43.6276,999.6141],[20.3574,43.6297,970.2522],[20.3606,43.6329,842.1139],[20.3772,43.6397,1098.1404],[20.39,43.6471,985.7084],[20.3951,43.6477,1001.3344],[20.4134,43.6449,974.9389],[20.4204,43.6474,966.9833],[20.4302,43.654,819.7404],[20.4346,43.6531,657.3248],[20.4482,43.6447,852.3183],[20.4554,43.6445,825.9374],[20.4616,43.6484,782.7029],[20.4651,43.6555,892.0018],[20.4663,43.6636,1018.2448],[20.4596,43.6798,402.3319],[20.4602,43.6978,575.9797],[20.4544,43.7025,489.6315],[20.4367,43.7094,531.4745],[20.4273,43.7086,595.5894],[20.419,43.7112,629.1635],[20.4158,43.7171,689.3642],[20.4159,43.7261,808.6047],[20.4073,43.7383,691.9213],[20.3945,43.7502,781.0589],[20.3893,43.7594,710.7845],[20.3797,43.7684,722.4213],[20.3743,43.7818,757.2802],[20.3631,43.7906,903.244],[20.3568,43.793,877.1143],[20.334,43.7942,718.6132],[20.3209,43.7968,493.2039],[20.2907,43.8122,451.5307],[20.2745,43.8166,446.0888],[20.2714,43.8187,398.9896],[20.2654,43.828,435.6822],[20.253,43.8388,494.1661],[20.2483,43.848,452.7678],[20.2212,43.8613,463.3525],[20.1998,43.8783,455.2142],[20.1775,43.8832,682.4814],[20.1556,43.877,591.0206]]]]}
,"properties": {"GID_2": "SRB.9.4_1","GID_0": "SRB","country": "Serbia","GID_1": "SRB.9_1","province": "Moravički","NL_NAME_1": "Моравички","county": "Lučani","VARNAME_2": "NA","NL_NAME_2": "Лучани","TYPE_2": "Opštine","ENGTYPE_2": "Town|Municipal","CC_2": "NA","HASC_2": "NA","name": "Lučani.county","area_km2": 504.3452,"hist_schema_id": "Elevation0-9000","hist_area_km2": {"300": 7.7216,"325": 7.7708,"350": 14.3382,"375": 22.8617,"400": 32.5513,"425": 37.993,"450": 37.8927,"475": 38.2196,"500": 36.2645,"525": 32.1038,"550": 30.1499,"575": 26.8897,"600": 25.498,"625": 22.3749,"650": 19.344,"675": 16.1271,"700": 14.5351,"725": 12.9415,"750": 11.7015,"775": 10.9047,"800": 9.7705,"825": 7.9308,"850": 6.0747,"875": 5.2158,"900": 3.8662,"925": 3.4522,"950": 2.8692,"975": 2.2864,"1000": 1.6266,"1025": 1.1817,"1050": 0.752,"1075": 0.6138,"1100": 0.3837,"1125": 0.1074,"1150": 0.0307}}}