{"type": "Feature","bbox": [20.3918,44.6304,21.5617,45.3323],"geometry": {"type": "MultiPolygon","coordinates": [[[[20.751,44.6309,230.6873],[20.7782,44.6329,171.8587],[20.8136,44.6304,205.6483],[20.8381,44.6331,163.5579],[20.8627,44.6386,194.5264],[20.8853,44.6403,161.8217],[20.9081,44.6509,132.3384],[20.9173,44.6617,136.9843],[20.9282,44.6702,72.6606],[20.9546,44.6793,69.9291],[20.9641,44.6867,69.9585],[20.9861,44.6948,68.5279],[21.0033,44.6964,69.025],[21.0158,44.6949,74.4805],[21.0264,44.6911,69.8086],[21.0467,44.6914,71.7333],[21.0588,44.6946,71.3017],[21.0781,44.7073,97.5957],[21.0857,44.7099,70.3803],[21.1268,44.7093,69.2523],[21.1461,44.7255,68.6656],[21.1486,44.7339,67.5],[21.1527,44.7382,67.5],[21.1806,44.7527,69.278],[21.2068,44.7588,67.3552],[21.2216,44.7641,67.0129],[21.2414,44.7662,68.3202],[21.2614,44.7709,67.114],[21.288,44.7726,75.373],[21.3009,44.7805,72.0013],[21.3177,44.7957,68.055],[21.3867,44.8054,67.5],[21.378,44.8156,67.5],[21.3598,44.8221,67.5],[21.358,44.8275,67.5],[21.3658,44.8296,72.4162],[21.3644,44.8327,71.8455],[21.3581,44.832,69.571],[21.3572,44.8333,74.9318],[21.3605,44.8344,71.8713],[21.3616,44.8371,73.1513],[21.3585,44.8358,73.7867],[21.3545,44.8406,72.3244],[21.3562,44.842,72.3244],[21.3629,44.8407,71.8351],[21.3634,44.844,73.5794],[21.3595,44.8447,73.4902],[21.359,44.8469,74.929],[21.3613,44.8483,72.8666],[21.3592,44.8505,73.8488],[21.3618,44.8523,75.8336],[21.3675,44.864,75.803],[21.3726,44.867,79.8744],[21.3856,44.8657,78.762],[21.3895,44.8701,78.4109],[21.3973,44.867,91.8311],[21.4016,44.8685,79.2604],[21.4076,44.8668,88.7208],[21.4084,44.8697,80.1821],[21.4145,44.8695,83.5874],[21.4195,44.8737,82.1387],[21.4222,44.8717,85.6907],[21.4284,44.8716,83.2303],[21.4332,44.8686,88.1482],[21.4346,44.8709,84.4595],[21.437,44.8714,84.3733],[21.4406,44.8678,88.5469],[21.4445,44.8668,90.5057],[21.4456,44.8687,89.3979],[21.4427,44.8703,89.6445],[21.4485,44.8744,86.778],[21.4522,44.8705,90.7875],[21.4538,44.8711,94.0113],[21.4536,44.8736,91.787],[21.4557,44.874,88.6407],[21.4648,44.8678,88.925],[21.4726,44.8716,91.1611],[21.4777,44.8688,91.3513],[21.4811,44.8713,91.1433],[21.487,44.8685,98.5958],[21.4892,44.8694,93.518],[21.4901,44.872,95.1643],[21.5006,44.8728,152.9404],[21.5084,44.8766,226.0194],[21.5123,44.8804,178.4023],[21.5342,44.8828,222.0872],[21.5617,44.8894,203.1705],[21.56,44.9026,123.882],[21.5585,44.9043,125.593],[21.5602,44.9052,128.0225],[21.5597,44.907,124.0097],[21.5518,44.9178,155.0683],[21.5522,44.9206,156.3351],[21.5546,44.9217,160.8185],[21.5543,44.9242,180.9273],[21.5487,44.9279,205.4466],[21.5482,44.9309,213.5459],[21.5292,44.9396,170.5846],[21.5213,44.9383,170.7544],[21.4708,44.9588,122.4313],[21.4471,44.9625,124.4631],[21.4397,44.9609,132.0748],[21.4083,44.9789,105.1063],[21.4163,44.9871,108.1166],[21.4066,44.9902,105.3619],[21.4082,44.9928,104.3727],[21.39,44.9984,95.1938],[21.3845,45.0022,85.3361],[21.3884,45.0047,88.5883],[21.3798,45.0086,84.3578],[21.3786,45.0071,83.5747],[21.3618,45.0207,86.8691],[21.3629,45.0219,85.035],[21.3641,45.021,85.035],[21.3699,45.026,84.8413],[21.374,45.0261,85.0673],[21.3756,45.0284,85.7403],[21.3785,45.0271,85.3826],[21.381,45.0288,83.9982],[21.3841,45.0259,86.0889],[21.3836,45.0272,86.6692],[21.3865,45.029,86.9984],[21.3895,45.0283,86.394],[21.3901,45.0296,85.082],[21.392,45.0292,85.2192],[21.3924,45.0273,84.945],[21.3946,45.0275,86.0649],[21.3967,45.0288,86.832],[21.3957,45.0304,86.832],[21.3996,45.0299,86.0491],[21.3987,45.0318,86.5829],[21.4025,45.0306,86.8005],[21.4023,45.0321,87.4527],[21.4074,45.0373,85.1776],[21.4112,45.036,86.5653],[21.4223,45.0369,86.1824],[21.4245,45.0327,86.6505],[21.4279,45.0357,86.8853],[21.4577,45.0408,88.6983],[21.4518,45.0524,89.301],[21.449,45.0531,90.8058],[21.4492,45.0579,90.6983],[21.4524,45.0592,92.585],[21.4522,45.0615,94.0512],[21.4568,45.0635,98.4016],[21.461,45.0723,107.6717],[21.4665,45.0751,114.9801],[21.4766,45.0869,177.3025],[21.4848,45.0916,203.0409],[21.4826,45.0958,236.2379],[21.4719,45.1039,295.5354],[21.4712,45.1057,305.0715],[21.4726,45.1059,314.6746],[21.4731,45.1103,328.2005],[21.4762,45.1121,320.7902],[21.48,45.1216,343.6191],[21.4845,45.124,355.52],[21.4891,45.1258,331.5636],[21.5002,45.1258,428.58],[21.529,45.1383,223.1835],[21.5305,45.1477,200.0857],[21.5242,45.1611,205.7219],[21.5152,45.1712,193.3967],[21.5098,45.1706,175.9148],[21.4947,45.1736,153.408],[21.4845,45.1924,174.2425],[21.4403,45.2032,138.5697],[21.4372,45.2056,132.378],[21.4358,45.2102,133.0495],[21.4327,45.2132,128.1296],[21.4215,45.2176,116.4692],[21.4165,45.2213,115.5308],[21.4138,45.2214,109.6418],[21.4117,45.2239,107.2849],[21.4123,45.2252,110.9062],[21.4051,45.2296,107.8007],[21.397,45.2192,109.3494],[21.3713,45.2264,92.9078],[21.3617,45.2225,90.9166],[21.3455,45.2321,85.4094],[21.3396,45.2336,85.4237],[21.3406,45.2359,85.1959],[21.3352,45.2367,84.8194],[21.3344,45.2349,84.7554],[21.3269,45.2366,84.0606],[21.3278,45.2399,84.0879],[21.3224,45.2405,83.0844],[21.3217,45.2379,83.5173],[21.3067,45.2394,81.9634],[21.307,45.2404,82.117],[21.2938,45.2428,79.1053],[21.2763,45.23,82.1437],[21.2508,45.2442,86.0607],[21.2251,45.2533,88.7303],[21.2206,45.251,89.1154],[21.2044,45.2658,82.6472],[21.2103,45.2757,84.2977],[21.1929,45.2872,82.0272],[21.1912,45.2945,82.7464],[21.1826,45.3084,83.2141],[21.1816,45.3128,83.4282],[21.1855,45.3164,83.3796],[21.1822,45.3192,84.1536],[21.1855,45.3211,83.5695],[21.1778,45.3256,83.7696],[21.1681,45.3201,83.0044],[21.1664,45.3237,82.9432],[21.1637,45.3254,82.8473],[21.162,45.3244,83.4453],[21.1511,45.3163,81.7454],[21.1557,45.3127,81.6163],[21.146,45.3052,80.5245],[21.1295,45.305,80.1167],[21.1112,45.3011,80.421],[21.0981,45.2963,78.4161],[21.0825,45.3181,76.737],[21.0725,45.3143,76.6095],[21.0727,45.3155,76.4552],[21.0628,45.3164,76.6065],[21.0651,45.3323,78.3524],[21.0238,45.3255,77.1664],[21.0228,45.321,75.8203],[21.0164,45.3207,76.0074],[21.0138,45.3131,76.2796],[21.0069,45.3057,75.3716],[20.9862,45.3029,75.5737],[20.9711,45.306,75.4632],[20.9593,45.3061,75.5064],[20.9406,45.3022,75.7787],[20.9146,45.3009,75.6523],[20.9034,45.2967,77.1265],[20.8456,45.2666,76.939],[20.8193,45.2594,78.064],[20.8163,45.2567,77.8993],[20.818,45.2532,77.5881],[20.843,45.2392,77.0604],[20.8242,45.2308,77.5358],[20.8,45.2115,84.8177],[20.7741,45.205,95.5662],[20.7631,45.1947,109.0734],[20.7484,45.1909,117.4913],[20.7391,45.1857,118.263],[20.7368,45.1831,119.2245],[20.7356,45.1746,124.3915],[20.7297,45.1598,125.2586],[20.7259,45.1556,125.1474],[20.7207,45.1533,122.7851],[20.7144,45.1542,123.0959],[20.7055,45.1609,121.4721],[20.6863,45.181,107.8918],[20.6622,45.1906,83.2994],[20.6472,45.2001,80.156],[20.6177,45.2105,78.6276],[20.5951,45.2128,74.5115],[20.5784,45.2189,70.3901],[20.5675,45.2184,73.2859],[20.5603,45.2154,73.2447],[20.5536,45.204,74.8972],[20.5506,45.1955,73.2633],[20.5451,45.1902,76.4421],[20.5399,45.188,75.8752],[20.5324,45.1896,73.7927],[20.5209,45.1957,72.7558],[20.5169,45.1956,72.5373],[20.5054,45.1912,73.4201],[20.4997,45.1913,72.9815],[20.4948,45.194,73.1533],[20.4918,45.2026,73.0257],[20.4879,45.2038,80.1028],[20.4821,45.2015,79.7966],[20.4752,45.1887,81.1621],[20.4656,45.1794,73.3232],[20.4569,45.1659,72.4552],[20.4432,45.1508,72.9986],[20.4558,45.1363,72.2592],[20.4542,45.1303,76.7244],[20.4492,45.1266,71.137],[20.4384,45.1234,72.057],[20.4318,45.1182,71.7174],[20.4299,45.1138,71.915],[20.4339,45.1095,71.7586],[20.4346,45.1054,72.0167],[20.432,45.0992,72.2731],[20.4227,45.0894,70.6206],[20.4136,45.0846,72.3781],[20.3926,45.0673,72.2331],[20.3951,45.0651,71.6493],[20.396,45.0611,72.3954],[20.3918,45.0502,73.2577],[20.3966,45.0401,71.5799],[20.3994,45.0287,71.49],[20.4078,45.0194,71.4282],[20.4426,45.0004,72.602],[20.4498,44.9874,70.589],[20.4671,44.9745,71.8817],[20.4755,44.9706,72.0108],[20.4906,44.9693,71.0873],[20.4959,44.9665,71.4465],[20.4989,44.9607,70.8721],[20.4988,44.9484,70.8556],[20.5127,44.9344,70.4498],[20.527,44.9254,71.0029],[20.5731,44.9103,70.6819],[20.5866,44.9009,70.6622],[20.6,44.8886,70.3276],[20.6023,44.8843,69.7519],[20.6017,44.8801,71.1016],[20.595,44.8719,70.2756],[20.5903,44.8578,69.1745],[20.5767,44.8386,151.4832],[20.5645,44.8279,160.6354],[20.5626,44.8194,249.8696],[20.5634,44.8148,246.0854],[20.566,44.8111,198.0296],[20.5865,44.8056,98.8001],[20.6013,44.7925,148.0508],[20.6101,44.782,84.6945],[20.5969,44.7552,141.2596],[20.6028,44.7376,82.9979],[20.624,44.7199,121.5587],[20.6451,44.7106,176.2608],[20.6522,44.7058,184.1017],[20.6571,44.7004,239.8606],[20.6666,44.6819,166.2573],[20.6801,44.6648,101.7993],[20.6867,44.659,156.8761],[20.7042,44.6496,99.2393],[20.7249,44.6459,238.4604],[20.7393,44.6347,151.7974],[20.751,44.6309,230.6873]]]]}
,"properties": {"GID_1": "SRB.6_1","GID_0": "SRB","country": "Serbia","province": "Južno-Banatski","VARNAME_1": "SouthBanat","NL_NAME_1": "Јужнобанатски","TYPE_1": "Okrug","ENGTYPE_1": "District","CC_1": "NA","HASC_1": "RS.JN","ISO_1": "NA","name": "Južno-Banatski.province","area_km2": 4460.131,"hist_schema_id": "Elevation0-9000","hist_area_km2": {"75": 2525.672,"100": 709.333,"125": 534.497,"150": 436.817,"175": 134.956,"200": 49.974,"225": 26.671,"250": 12.992,"275": 8.681,"300": 5.58,"325": 4.398,"350": 3.081,"375": 2.004,"400": 1.346,"425": 1.002,"450": 0.643,"475": 0.688,"500": 0.494,"525": 0.538,"550": 0.344,"575": 0.254,"600": 0.105,"625": 0.06}}}