{"type": "Feature","id": "1060","bbox": [20.39177,44.66093,21.53908,45.32148],"geometry": {"type": "Polygon","coordinates": [[[21.10334,45.28607,77.6914],[21.09156,45.28809,76.9953],[21.08277,45.29367,76.8748],[21.0743,45.30054,76.4374],[21.06396,45.30628,78.7951],[21.01667,45.32148,76.0074],[21.01642,45.3207,76.0074],[21.01374,45.31315,76.2796],[21.00795,45.30705,75.3716],[21.00686,45.30568,75.3716],[20.98619,45.30292,75.5737],[20.98314,45.30307,75.6574],[20.97488,45.3054,75.5317],[20.9711,45.30602,75.4632],[20.96718,45.30628,75.4088],[20.95927,45.30612,75.5064],[20.9555,45.30561,75.6621],[20.94418,45.30271,75.0146],[20.94061,45.30222,75.7787],[20.93694,45.30199,75.6575],[20.9218,45.30173,77.0044],[20.91808,45.3015,77.3862],[20.91457,45.30096,75.6523],[20.90816,45.29884,78.3816],[20.90335,45.29667,77.1265],[20.88217,45.28587,76.5514],[20.86858,45.27868,76.1641],[20.85757,45.27228,75.5398],[20.84822,45.26768,75.9777],[20.84563,45.26654,76.939],[20.83866,45.26421,75.5],[20.82222,45.26044,78.0095],[20.81933,45.25938,78.064],[20.81716,45.25796,78.0558],[20.81633,45.25675,77.8993],[20.81623,45.25543,77.8993],[20.81685,45.25429,78.4105],[20.81799,45.25316,77.5881],[20.82997,45.24613,75.5],[20.843,45.23918,77.0604],[20.82801,45.23295,77.4928],[20.82419,45.23078,77.5358],[20.8123,45.22225,78.388],[20.80941,45.21962,79.8511],[20.80641,45.21616,81.2146],[20.80476,45.21476,82.0395],[20.8,45.2115,84.8177],[20.79664,45.20985,88.5873],[20.78223,45.20701,93.7541],[20.77411,45.20499,95.5662],[20.7723,45.20411,95.7743],[20.77034,45.20246,99.7771],[20.76631,45.19714,103.7271],[20.76486,45.19582,106.1536],[20.76311,45.19471,109.0734],[20.75933,45.19306,112.1196],[20.75742,45.19249,112.2468],[20.75044,45.19143,116.3178],[20.74838,45.19094,117.4913],[20.74657,45.19021,117.3339],[20.74393,45.18882,116.6151],[20.73913,45.18567,118.263],[20.73778,45.18443,117.3753],[20.73685,45.18308,119.2245],[20.73634,45.18158,119.621],[20.73618,45.17673,123.8649],[20.73561,45.17461,124.3915],[20.73251,45.16877,123.9955],[20.72972,45.15978,125.2586],[20.72879,45.15817,125.6808],[20.72755,45.15678,127.2479],[20.72595,45.15559,125.1474],[20.72244,45.15388,123.2705],[20.72068,45.15332,122.7851],[20.71872,45.15306,122.9796],[20.7168,45.15321,122.6942],[20.71443,45.15422,123.0959],[20.71282,45.15528,123.5043],[20.70554,45.16096,121.4721],[20.69531,45.17145,117.0269],[20.6906,45.17729,111.1821],[20.68864,45.17936,109.788],[20.68631,45.18102,107.8918],[20.68347,45.182,107.2201],[20.68094,45.1822,105.0704],[20.66223,45.19055,83.2994],[20.65918,45.19228,81.7339],[20.65314,45.19693,79.6975],[20.64725,45.20008,80.156],[20.63856,45.20355,79.9948],[20.62482,45.20846,80.1699],[20.61774,45.21047,78.6276],[20.61407,45.21099,72.5683],[20.60249,45.21174,73.1032],[20.59867,45.21212,75.2766],[20.59505,45.21282,74.5115],[20.58141,45.21809,71.6965],[20.57841,45.21895,70.3901],[20.57552,45.21923,74.0396],[20.5734,45.21918,77.0277],[20.56751,45.21838,73.2859],[20.56374,45.21714,73.0241],[20.56028,45.21543,73.2231],[20.55857,45.21373,76.5241],[20.55738,45.21176,73.4838],[20.55356,45.20406,74.8972],[20.55175,45.19734,73.4695],[20.55056,45.19548,73.2633],[20.54725,45.19202,76.3438],[20.54508,45.19016,76.4421],[20.54265,45.18866,75.6487],[20.53986,45.18797,75.8752],[20.53661,45.1882,75.8129],[20.53237,45.18959,73.7927],[20.52374,45.19481,72.5659],[20.5209,45.19569,72.7558],[20.51888,45.19585,72.6932],[20.51692,45.19564,72.5373],[20.5134,45.19435,75.2884],[20.50968,45.19244,72.8884],[20.50762,45.19171,72.8804],[20.50545,45.19125,73.4201],[20.50255,45.19104,73.2011],[20.49971,45.19132,72.9815],[20.49769,45.19192,72.8169],[20.49604,45.1928,72.9418],[20.49485,45.19404,73.1533],[20.49403,45.19548,72.9511],[20.49335,45.20008,73.1818],[20.49279,45.20143,74.0716],[20.4918,45.20256,73.0257],[20.48963,45.20355,71.5672],[20.48788,45.20378,80.1028],[20.48612,45.20355,78.1612],[20.48395,45.20272,79.141],[20.48209,45.20148,79.7966],[20.48054,45.19983,74.0793],[20.47945,45.19776,73.2022],[20.47692,45.19104,73.3189],[20.47516,45.18866,81.1621],[20.46566,45.17939,73.3232],[20.46276,45.17549,74.0376],[20.45904,45.1697,72.1959],[20.45687,45.16587,72.4552],[20.45486,45.16339,73.0548],[20.44633,45.15546,73.4912],[20.44421,45.15311,72.2447],[20.44318,45.15084,72.9986],[20.44323,45.14998,73.3973],[20.44431,45.14815,73.1494],[20.44948,45.14241,72.7379],[20.45444,45.13802,74.9401],[20.45584,45.13626,72.2592],[20.4561,45.1342,72.462],[20.45532,45.13203,73.5259],[20.45418,45.13027,76.7244],[20.4517,45.12802,70.5452],[20.44917,45.1266,71.137],[20.44721,45.12588,72.3927],[20.44023,45.12409,72.06],[20.43837,45.12334,72.057],[20.4362,45.12203,71.8611],[20.43186,45.11818,71.7174],[20.43,45.11567,71.9601],[20.42995,45.11384,71.915],[20.43108,45.11229,72.3868],[20.43387,45.10944,71.7586],[20.43455,45.10738,72.1633],[20.43455,45.10544,72.0674],[20.43424,45.1034,72.2547],[20.43346,45.10133,72.4136],[20.43207,45.09926,72.2731],[20.42271,45.08944,70.6206],[20.42049,45.08779,72.3354],[20.41362,45.08464,72.3781],[20.40886,45.08001,71.3872],[20.4009,45.07472,71.426],[20.39517,45.06516,71.6493],[20.39517,45.06515,71.6493],[20.39517,45.06515,71.6493],[20.39518,45.06514,71.6493],[20.3959,45.0632,71.6918],[20.39601,45.06111,72.3954],[20.39549,45.0591,72.5379],[20.3927,45.05476,71.9991],[20.39177,45.05266,72.3917],[20.39177,45.05021,73.2577],[20.39239,45.04814,72.7339],[20.39657,45.04008,71.5799],[20.3974,45.03726,72.0508],[20.39854,45.03145,71.6517],[20.39942,45.02866,71.49],[20.40117,45.02575,71.3165],[20.40117,45.02574,71.3165],[20.40396,45.02241,71.4585],[20.40784,45.01936,71.4282],[20.41053,45.0177,71.7487],[20.42432,45.01047,71.1547],[20.4313,45.00706,71.0107],[20.44029,45.0021,71.0216],[20.44257,45.00037,72.602],[20.44432,44.99841,71.8038],[20.44432,44.9984,71.8038],[20.44541,44.99636,71.3645],[20.44691,44.99194,70.8909],[20.44794,44.9898,70.7266],[20.44794,44.9898,70.7266],[20.44985,44.98739,70.589],[20.45223,44.98512,70.4418],[20.45786,44.98081,70.8271],[20.46716,44.9745,71.8817],[20.47254,44.97169,72.2646],[20.47554,44.97063,72.0108],[20.47817,44.97008,71.5635],[20.48137,44.9697,71.5324],[20.49068,44.96928,71.0873],[20.49181,44.96897,71.0873],[20.49388,44.96794,72.1053],[20.49595,44.96644,71.4465],[20.49739,44.96479,71.0501],[20.49739,44.96479,71.0501],[20.49838,44.963,70.9537],[20.49889,44.96065,70.8721],[20.49884,44.9583,70.8128],[20.49791,44.9528,70.6393],[20.49812,44.95052,71.1373],[20.49884,44.94835,70.8556],[20.50007,44.94643,70.4496],[20.50008,44.94642,70.4496],[20.50494,44.94078,70.6029],[20.50732,44.93859,70.7285],[20.51269,44.9344,70.4498],[20.52137,44.92841,71.2409],[20.52695,44.92536,71.0029],[20.5316,44.9237,70.6612],[20.54411,44.91991,70.7179],[20.55434,44.91569,70.9049],[20.5592,44.91435,72.9246],[20.56788,44.91244,70.3945],[20.57026,44.91164,77.16],[20.57315,44.91027,70.6819],[20.57873,44.90683,70.0909],[20.58659,44.90091,70.6622],[20.59305,44.89482,69.6259],[20.59791,44.89068,69.8626],[20.60008,44.88862,70.3276],[20.60167,44.88641,69.9614],[20.60168,44.88639,69.9614],[20.6023,44.88433,69.7519],[20.6023,44.88216,69.6555],[20.60168,44.88009,71.1016],[20.60028,44.87802,70.4476],[20.59661,44.87399,71.0376],[20.59496,44.85801,73.2026],[20.59496,44.858,73.2026],[20.62369,44.85459,68.0],[20.6364,44.84945,73.4186],[20.6364,44.84944,73.4186],[20.63863,44.83735,68.0],[20.62819,44.78857,68.0],[20.62793,44.77705,68.0],[20.6333,44.76522,69.8384],[20.6333,44.76521,69.8384],[20.64452,44.75581,70.3193],[20.67201,44.74397,69.4461],[20.68482,44.73353,73.1201],[20.72033,44.6962,70.5372],[20.74198,44.67917,68.671],[20.76363,44.66837,75.3568],[20.79478,44.66468,75.0259],[20.79479,44.66468,75.0259],[20.82647,44.66093,73.4621],[20.88321,44.67266,71.9554],[20.98956,44.71679,67.5],[21.03684,44.72201,67.5],[21.03684,44.72201,67.5],[21.07788,44.72651,69.4534],[21.10284,44.74069,70.3838],[21.11229,44.7448,71.2197],[21.12573,44.74557,70.3668],[21.15095,44.7441,67.5],[21.16381,44.74782,67.5],[21.17229,44.75687,67.5],[21.17947,44.76808,67.5],[21.18883,44.77823,69.3258],[21.22247,44.79668,71.5002],[21.26949,44.81368,84.7164],[21.31905,44.82505,67.5],[21.35984,44.82664,67.5],[21.3598,44.82666,67.5],[21.34281,44.83194,68.3339],[21.34643,44.84564,70.4567],[21.35552,44.85659,72.9665],[21.36855,44.86486,75.803],[21.39531,44.87163,78.3088],[21.4534,44.86956,87.4699],[21.48151,44.87261,93.6624],[21.52213,44.88078,233.1189],[21.53629,44.8893,159.4348],[21.53908,44.90847,166.5178],[21.53102,44.92465,215.4485],[21.51634,44.9339,175.2993],[21.48151,44.94356,136.5007],[21.4565,44.95235,134.2151],[21.40844,44.95834,116.2615],[21.38519,44.9695,105.0485],[21.38457,44.97493,97.7436],[21.38705,44.98154,95.9815],[21.38394,44.98666,97.1561],[21.367,44.98728,88.7167],[21.35346,44.98981,83.7773],[21.35139,44.99824,80.8493],[21.35614,45.00857,81.458],[21.36338,45.01653,83.4768],[21.3733,45.0201,83.7754],[21.39883,45.02139,84.2655],[21.40927,45.02397,85.4428],[21.42188,45.03141,85.967],[21.42508,45.03622,86.4443],[21.4256,45.04325,93.5412],[21.42952,45.0573,157.9827],[21.43252,45.06149,174.9649],[21.441,45.06872,156.4011],[21.44379,45.07291,175.4794],[21.44441,45.07787,169.3038],[21.44441,45.08526,157.6835],[21.44379,45.09146,167.0355],[21.44244,45.09291,193.9207],[21.44999,45.10102,192.0569],[21.45857,45.10733,229.0641],[21.469,45.11105,290.9761],[21.48151,45.11156,293.8587],[21.49412,45.11931,312.5172],[21.49784,45.13187,300.5367],[21.49329,45.1451,172.1781],[21.48439,45.1527,169.9175],[21.45939,45.17404,172.8481],[21.43376,45.18882,153.4406],[21.40555,45.19967,115.2891],[21.2993,45.22318,86.8165],[21.25713,45.22411,77.4944],[21.23925,45.22939,79.2447],[21.20607,45.24592,85.0312],[21.18974,45.25956,81.3269],[21.155639999999998,45.29517,80.7777],[21.13941,45.3037,81.1266],[21.12918,45.30189,80.1021],[21.11306,45.28933,77.9955],[21.10334,45.28607,77.6914]]]}
,"properties": {"ISO3166-1-Alpha-3": "SRB","country": "Republic of Serbia","fill": "#00F","name": "Južno-Banatski","area_km2": 4054.385,"hist_schema_id": "Elevation0-9000","hist_area_km2": {"75": 2299.792,"100": 666.363,"125": 500.21,"150": 404.3,"175": 102.058,"200": 28.474,"225": 16.583,"250": 8.588,"275": 7.225,"300": 5.49,"325": 4.607,"350": 3.291,"375": 2.034,"400": 1.331,"425": 0.957,"450": 0.598,"475": 0.688,"500": 0.494,"525": 0.538,"550": 0.344,"575": 0.254,"600": 0.105,"625": 0.06}}}