{"type": "Feature","bbox": [20.187,44.2405,20.4422,44.5424],"geometry": {"type": "MultiPolygon","coordinates": [[[[20.2831,44.5424,115.5436],[20.2723,44.5373,141.862],[20.2588,44.5358,90.8673],[20.2549,44.5335,85.3911],[20.2478,44.5245,91.1632],[20.2476,44.5203,86.0211],[20.2515,44.514,86.0534],[20.2602,44.5083,88.5374],[20.2614,44.5047,90.1599],[20.2584,44.5023,87.671],[20.2431,44.4984,91.3147],[20.2346,44.4904,73.6769],[20.2175,44.4787,85.9718],[20.2263,44.4515,116.7733],[20.2202,44.4342,110.4473],[20.226,44.4233,101.6981],[20.2265,44.4103,99.3609],[20.2154,44.3863,102.8324],[20.2006,44.3766,104.5413],[20.1992,44.3674,105.5411],[20.1914,44.3608,120.6985],[20.1923,44.3536,141.6756],[20.2006,44.3463,131.6068],[20.2027,44.3405,112.4168],[20.2005,44.3363,112.4251],[20.1899,44.3261,184.3392],[20.187,44.3199,142.587],[20.1923,44.3081,202.2253],[20.2129,44.2844,212.2142],[20.2488,44.2615,195.5168],[20.2568,44.2493,147.5306],[20.2616,44.2448,138.766],[20.2791,44.2405,154.476],[20.2839,44.2425,159.0712],[20.2848,44.2533,143.2603],[20.2883,44.2561,150.577],[20.294,44.2564,161.6023],[20.3094,44.2505,190.2543],[20.318,44.2523,211.4764],[20.3267,44.2566,250.0437],[20.333,44.2632,224.5054],[20.3431,44.2699,264.9813],[20.3493,44.2824,231.3593],[20.3561,44.2894,266.4625],[20.3602,44.2907,305.8225],[20.3779,44.2908,378.4888],[20.3891,44.2943,312.213],[20.4001,44.3081,283.8353],[20.4001,44.3237,324.2794],[20.4015,44.3269,360.6118],[20.4196,44.345,238.0326],[20.4312,44.3531,185.7684],[20.4332,44.3561,199.0957],[20.4312,44.3603,254.8999],[20.4221,44.3682,201.2547],[20.4127,44.3726,164.4902],[20.3996,44.3822,139.5065],[20.3967,44.3894,143.3925],[20.4095,44.4025,199.8707],[20.4242,44.4065,151.9443],[20.4422,44.4189,159.5186],[20.409,44.4241,137.3174],[20.392,44.441,157.64],[20.3523,44.4481,116.1014],[20.3369,44.4561,147.1674],[20.3328,44.4601,126.5792],[20.3272,44.4752,104.7633],[20.3341,44.4873,135.3246],[20.3292,44.4971,104.2878],[20.3283,44.5051,99.1413],[20.3208,44.5132,108.5199],[20.3023,44.5165,123.5419],[20.2936,44.5199,147.4838],[20.2911,44.5228,146.5389],[20.2831,44.5424,115.5436]]]]}
,"properties": {"GID_2": "SRB.3.4_1","GID_0": "SRB","country": "Serbia","GID_1": "SRB.3_1","province": "GradBeograd","NL_NAME_1": "Београд","county": "Lazarevac","VARNAME_2": "NA","NL_NAME_2": "Лазаревац","TYPE_2": "Opštine","ENGTYPE_2": "Town|Municipal","CC_2": "NA","HASC_2": "NA","name": "Lazarevac.county","area_km2": 384.1729,"hist_schema_id": "Elevation0-9000","hist_area_km2": {"0": 0.8024,"25": 1.2869,"50": 4.3284,"75": 12.5275,"100": 76.6042,"125": 63.5578,"150": 43.138,"175": 40.3125,"200": 37.6359,"225": 34.9058,"250": 26.8549,"275": 17.3932,"300": 12.4199,"325": 8.1438,"350": 3.3061,"375": 0.9099,"400": 0.0455}}}