{"type":"Feature","properties":{"GID_2":"SRB.20.7_1","GID_0":"SRB","country":"Serbia","GID_1":"SRB.20_1","province":"Sremski","NL_NAME_1":"Сремски","county":"StaraPazova","VARNAME_2":"Pazova","NL_NAME_2":"СтараПазова","TYPE_2":"Opštine","ENGTYPE_2":"Town|Municipal","CC_2":"NA","HASC_2":"NA","name":"Stara_Pazova.county"},
"geometry":{"type": "MultiPolygon","coordinates": [[[[20.2777,45.0823,104.4909],[20.265,45.0793,101.0861],[20.2435,45.0713,95.9491],[20.2338,45.0648,93.6119],[20.2209,45.053,91.3458],[20.219,45.0466,88.5511],[20.2241,45.0294,87.9311],[20.2202,45.0176,86.4333],[20.2154,45.0137,85.923],[20.2032,45.0124,86.6804],[20.1241,45.0131,88.9342],[20.1139,45.0146,90.6585],[20.1045,45.0204,94.050299999999993],[20.1,45.021,95.3287],[20.094,45.0169,94.6203],[20.0823,45.001,89.5005],[20.0749,44.997,89.4231],[19.9991,44.9936,98.6083],[20.0028,44.9867,94.883],[20.0032,44.9825,93.7538],[19.9959,44.9633,88.4043],[19.9911,44.9555,88.0798],[19.9907,44.9487,86.919],[19.9931,44.9379,84.8083],[20.0075,44.9325,84.2769],[20.0361,44.9182,79.9998],[20.0415,44.9118,78.5383],[20.0418,44.909,78.0439],[20.0387,44.902,78.1855],[20.0428,44.8983,77.9739],[20.0492,44.8979,76.305],[20.0631,44.9032,75.1494],[20.0726,44.9016,76.1942],[20.0777,44.8969,76.4021],[20.0883,44.8789,75.5024],[20.1043,44.8644,75.3806],[20.1059,44.8583,74.8022],[20.1101,44.8522,75.043],[20.1225,44.8452,75.0181],[20.136,44.8442,76.224],[20.1501,44.8654,76.2025],[20.155,44.8864,74.3073],[20.1613,44.891,75.0621],[20.168,44.8931,74.4826],[20.1981,44.8922,75.2547],[20.2388,44.9142,76.5908],[20.2585,44.9155,78.2249],[20.2809,44.9193,84.5546],[20.2576,44.9406,86.6834],[20.255,44.9494,83.9115],[20.2557,44.9535,83.3295],[20.2603,44.9581,85.603],[20.2759,44.9658,89.6023],[20.2772,44.9685,88.9215],[20.2767,44.9756,88.4123],[20.2791,44.9787,89.2857],[20.2868,44.982,70.0],[20.3039,44.9851,74.9416],[20.318,44.9956,70.0],[20.3217,44.9999,71.5129],[20.3235,45.0152,95.0488],[20.3223,45.0235,94.3533],[20.3136,45.046,97.6968],[20.3054,45.0538,98.2692],[20.2842,45.0673,98.8211],[20.2777,45.0823,104.4909]]]]}}