{"type":"Feature","properties":{"GID_2":"SRB.3.14_1","GID_0":"SRB","country":"Serbia","GID_1":"SRB.3_1","province":"GradBeograd","NL_NAME_1":"Београд","county":"Voždovac","VARNAME_2":"NA","NL_NAME_2":"Вождовац","TYPE_2":"Opštine","ENGTYPE_2":"Town|Municipal","CC_2":"NA","HASC_2":"NA","name":"Voždovac.county"},
"geometry":{"type": "MultiPolygon","coordinates": [[[[20.4889,44.5585,327.0984],[20.5013,44.5671,404.7742],[20.5134,44.5715,273.9312],[20.5235,44.5725,254.134],[20.5362,44.5695,198.4018],[20.5429,44.571,204.7812],[20.5483,44.5764,208.7646],[20.5464,44.5836,275.6264],[20.5493,44.5874,373.4247],[20.6014,44.5874,172.8453],[20.5975,44.6022,234.8152],[20.5921,44.6096,226.5307],[20.5862,44.6133,253.1963],[20.5879,44.6181,221.1091],[20.586,44.6202,205.7651],[20.5811,44.6217,180.8878],[20.5777,44.6193,210.4227],[20.5609,44.6154,298.9102],[20.5505,44.6145,263.3587],[20.5396,44.6158,215.2285],[20.5349,44.6199,184.0256],[20.533,44.6421,170.3817],[20.5217,44.6522,228.2397],[20.5215,44.6576,157.445],[20.5269,44.66,206.4325],[20.541,44.6598,245.1173],[20.5551,44.6552,224.2349],[20.5631,44.6578,177.2948],[20.569,44.6635,211.1326],[20.5666,44.669,178.1059],[20.5699,44.678,160.5018],[20.5688,44.6862,190.5223],[20.5557,44.698,202.3039],[20.5445,44.716,113.5422],[20.5389,44.7196,118.6885],[20.5148,44.7243,268.4207],[20.4985,44.7349,300.8853],[20.4887,44.7487,207.2926],[20.4941,44.7566,178.741],[20.4937,44.7601,164.5829],[20.4907,44.7625,156.5198],[20.4749,44.7693,167.7202],[20.4478,44.767,89.4259],[20.4521,44.7503,115.2133],[20.4575,44.7416,211.4877],[20.4558,44.7389,207.4977],[20.4458,44.7353,107.7739],[20.453,44.72,172.4611],[20.4649,44.7111,177.4322],[20.468,44.7068,144.0295],[20.4679,44.7027,156.6283],[20.4643,44.6967,108.0783],[20.4693,44.6854,116.2487],[20.4667,44.6833,130.2943],[20.4504,44.6798,198.687],[20.4299,44.673,264.0322],[20.4621,44.6643,239.1333],[20.465,44.6606,256.0811],[20.4676,44.6472,252.1637],[20.462,44.6422,270.9368],[20.4456,44.637,273.851],[20.4243,44.6274,245.7047],[20.4398,44.6191,218.9169],[20.4522,44.6097,210.9366],[20.4579,44.5993,261.5906],[20.4756,44.581,247.8099],[20.4889,44.5585,327.0984]]]]}}