{"type": "Feature","bbox": [20.8939,42.8508,21.4755,43.255],"geometry": {"type": "MultiPolygon","coordinates": [[[[20.9267,43.1042,1417.2894],[20.9451,43.1108,1222.4086],[20.9576,43.1123,1440.8961],[20.9689,43.1157,1716.9238],[20.9782,43.1159,1529.1183],[20.9964,43.1098,1591.51],[21.0247,43.09,1083.1245],[21.0317,43.0889,1030.7279],[21.055,43.0962,1099.4941],[21.0581,43.1075,1236.4731],[21.0613,43.1097,1287.0298],[21.0649,43.1099,1298.9264],[21.0714,43.1065,1180.196],[21.0818,43.0945,1025.772],[21.0874,43.0916,1096.7864],[21.0955,43.0903,1076.0148],[21.1111,43.0911,870.4139],[21.1153,43.0895,849.2963],[21.1248,43.0734,780.7437],[21.1237,43.0676,824.0547],[21.1166,43.0592,808.2971],[21.1163,43.0527,763.6419],[21.1279,43.0357,758.1904],[21.1345,43.0138,729.1146],[21.1443,43.0066,688.9333],[21.145,43.0009,688.3098],[21.1435,42.9937,673.5305],[21.1452,42.9893,671.2559],[21.1517,42.9837,664.3223],[21.1575,42.9813,672.9645],[21.1682,42.9825,750.4716],[21.1737,42.9869,779.4055],[21.1739,42.9959,831.6869],[21.1763,43.0007,821.1641],[21.1826,43.0044,774.8257],[21.2,42.9998,714.5289],[21.2129,42.9908,718.975],[21.2154,42.9861,686.9691],[21.2174,42.9706,637.701],[21.2241,42.9586,645.2507],[21.2212,42.9472,628.1265],[21.2161,42.9383,611.4463],[21.2162,42.935,614.5525],[21.2363,42.9071,627.5897],[21.2542,42.8923,740.5931],[21.2568,42.8814,733.3278],[21.2609,42.8775,761.9506],[21.2672,42.8779,839.4292],[21.2894,42.8853,797.5624],[21.3249,42.8823,927.0541],[21.3319,42.8785,779.6188],[21.3365,42.8732,745.1701],[21.3381,42.8694,812.1495],[21.3379,42.8633,793.6688],[21.3404,42.8607,753.8647],[21.3537,42.8544,779.0726],[21.3695,42.8508,851.192],[21.3776,42.8508,873.5731],[21.3997,42.8571,927.2924],[21.4324,42.858,902.6197],[21.4372,42.8686,909.6104],[21.4383,42.8779,878.1432],[21.4485,42.8892,806.6027],[21.4485,42.9117,930.5294],[21.4625,42.9203,906.4194],[21.4741,42.9325,878.1589],[21.4732,42.9384,940.4047],[21.4682,42.9445,1025.7399],[21.464,42.9532,1035.7915],[21.4577,42.9586,1023.0668],[21.4503,42.9732,1176.4285],[21.4537,42.9764,1142.6804],[21.4755,42.9831,993.6083],[21.4564,42.9923,1186.5273],[21.4465,43.0043,988.1616],[21.4343,43.0063,1028.8674],[21.4277,43.009,1093.3069],[21.4225,43.014,964.347],[21.4154,43.0252,775.424],[21.3935,43.031,655.4203],[21.3917,43.0333,638.92],[21.3903,43.0457,570.9256],[21.3824,43.0525,802.9321],[21.3799,43.0572,832.1771],[21.3808,43.065,923.644],[21.388,43.0719,917.5027],[21.3948,43.0847,893.5116],[21.3902,43.0971,664.763],[21.3939,43.1028,578.3044],[21.4039,43.1111,633.7057],[21.4027,43.114,598.5873],[21.3942,43.1203,595.6248],[21.3912,43.1325,539.8739],[21.385,43.1399,563.0228],[21.3859,43.1438,597.3627],[21.3925,43.1501,621.1029],[21.3947,43.1548,479.497],[21.3909,43.1729,511.2371],[21.3846,43.1803,421.8942],[21.3746,43.188,390.0198],[21.3547,43.1925,347.9838],[21.3528,43.192,357.1955],[21.3527,43.1898,353.2911],[21.356,43.1854,362.8862],[21.3555,43.1826,335.6437],[21.3488,43.1742,316.2521],[21.3391,43.1704,389.7751],[21.3322,43.1721,435.8198],[21.3139,43.1838,435.5176],[21.3147,43.1994,531.3939],[21.3063,43.2096,466.4783],[21.3016,43.2191,388.1808],[21.2925,43.2214,417.523],[21.2864,43.2199,449.9444],[21.2714,43.203,463.1137],[21.2522,43.1957,458.2067],[21.2423,43.1951,515.0023],[21.218,43.2011,572.8373],[21.2069,43.2022,687.4341],[21.1973,43.201,789.0918],[21.1821,43.1963,500.4985],[21.1572,43.2124,641.9792],[21.1535,43.2205,708.461],[21.1435,43.2313,844.521],[21.1402,43.2389,856.4921],[21.1304,43.2525,1028.3812],[21.1019,43.2405,845.1179],[21.0803,43.2356,689.6237],[21.0689,43.2366,548.2313],[21.0596,43.2403,603.5286],[21.0561,43.2425,605.6874],[21.0514,43.2491,564.9911],[21.0361,43.255,626.5094],[21.0119,43.248,721.765],[21.0012,43.2499,698.309],[20.9874,43.255,700.1844],[20.9716,43.2523,757.8032],[20.968,43.2511,799.6862],[20.9655,43.2478,886.9008],[20.9671,43.2418,1021.0331],[20.9658,43.2377,1040.7476],[20.9511,43.2246,917.4779],[20.9483,43.2191,824.7916],[20.9484,43.2084,848.608],[20.9524,43.1852,1081.4142],[20.9557,43.1781,1130.8719],[20.9549,43.1753,1005.8194],[20.945,43.1671,1120.1418],[20.9326,43.1624,1220.6979],[20.9204,43.1499,1468.9347],[20.9115,43.1376,1127.72],[20.8939,43.1258,951.0901],[20.9003,43.1145,1117.6016],[20.9148,43.1083,1149.3679],[20.9212,43.104,1320.1678],[20.9267,43.1042,1417.2894]]]]}
,"properties": {"GID_2": "SRB.22.2_1","GID_0": "SRB","country": "Serbia","GID_1": "SRB.22_1","province": "Toplički","NL_NAME_1": "Топлички","county": "Kuršumlija","VARNAME_2": "NA","NL_NAME_2": "Куршумлија","TYPE_2": "Opštine","ENGTYPE_2": "Town|Municipal","CC_2": "NA","HASC_2": "NA","name": "Kuršumlija.county","area_km2": 1014.934,"hist_schema_id": "Elevation0-9000","hist_area_km2": {"300": 0.7575,"325": 3.9592,"350": 7.4876,"375": 10.9694,"400": 13.8781,"425": 19.9918,"450": 24.342,"475": 27.2983,"500": 32.7654,"525": 34.6393,"550": 33.9382,"575": 34.1172,"600": 36.5731,"625": 41.8348,"650": 43.0637,"675": 44.4301,"700": 43.7818,"725": 42.5985,"750": 40.6435,"775": 43.3584,"800": 41.7655,"825": 38.1095,"850": 37.5022,"875": 34.1715,"900": 33.2202,"925": 29.2661,"950": 26.7202,"975": 23.1231,"1000": 20.5612,"1025": 17.5865,"1050": 15.9733,"1075": 13.4955,"1100": 13.0309,"1125": 12.0234,"1150": 9.5467,"1175": 9.2833,"1200": 8.0459,"1225": 7.3039,"1250": 6.2518,"1275": 5.1223,"1300": 4.3173,"1325": 3.3736,"1350": 3.3581,"1375": 2.9863,"1400": 2.7235,"1425": 2.6151,"1450": 2.2283,"1475": 1.9652,"1500": 1.8724,"1525": 1.6248,"1550": 1.826,"1575": 1.3617,"1600": 1.1142,"1625": 0.5571,"1650": 0.2785,"1675": 0.1238,"1700": 0.0464,"1725": 0.031}}}