{"type":"Feature","properties":{"GID_1":"SRB.10_1","GID_0":"SRB","country":"Serbia","province":"Nišavski","VARNAME_1":"Nišava","NL_NAME_1":"Нишавски","TYPE_1":"Okrug","ENGTYPE_1":"District","CC_1":"NA","HASC_1":"RS.NS","ISO_1":"NA","name":"Nišavski.province"},
"geometry":{"type": "MultiPolygon","coordinates": [[[[22.1405,43.072,727.4352],[22.1552,43.0587,634.4125],[22.1752,43.0599,540.8983],[22.193,43.0547,469.2505],[22.2127,43.0568,406.7439],[22.2198,43.0601,426.0615],[22.234,43.074,604.302],[22.2367,43.0835,681.9093],[22.2408,43.0879,714.3387],[22.2956,43.1099,1387.5875],[22.2818,43.1301,1385.2515],[22.2755,43.1361,1311.3975],[22.2775,43.141,1194.5679],[22.2764,43.1441,1225.6908],[22.2688,43.1487,1364.0044],[22.2605,43.1515,1406.8043],[22.2418,43.1478,1397.8354],[22.23,43.1497,1504.8846],[22.2232,43.153,1499.5298],[22.2137,43.162,1597.9332],[22.1965,43.165,1612.906],[22.1741,43.1805,1770.0768],[22.1552,43.185,1340.7738],[22.1351,43.196,1080.2],[22.1136,43.203,1125.1572],[22.1317,43.2302,673.4282],[22.1297,43.2394,549.4575],[22.131,43.243,550.6498],[22.1393,43.2498,513.6939],[22.1451,43.2576,439.6861],[22.1612,43.2599,474.2719],[22.167,43.2682,609.0131],[22.1634,43.2815,537.5131],[22.1503,43.288,470.3947],[22.1466,43.2914,440.1995],[22.1468,43.3024,484.8241],[22.1419,43.3152,575.2404],[22.1374,43.3369,425.3365],[22.1649,43.3437,809.3943],[22.2013,43.3394,940.1661],[22.2206,43.3303,849.9462],[22.2388,43.3267,1052.0446],[22.2494,43.3213,974.23],[22.2615,43.3189,958.4988],[22.3075,43.3211,1176.1699],[22.3255,43.3252,1190.248],[22.3283,43.328,1191.9874],[22.3338,43.3423,873.4893],[22.3337,43.3556,940.1255],[22.3387,43.3631,613.4907],[22.3364,43.3848,671.7469],[22.3408,43.3921,666.847],[22.34,43.4027,581.4648],[22.3477,43.413,632.3112],[22.3515,43.4242,751.8256],[22.3485,43.4334,718.2069],[22.345,43.4381,742.0521],[22.3371,43.4435,669.0997],[22.3222,43.448,697.6984],[22.3005,43.4594,669.9512],[22.2922,43.4577,681.0998],[22.2769,43.4402,590.3969],[22.2709,43.4384,547.4913],[22.2544,43.449,617.8097],[22.2425,43.4505,744.5306],[22.2423,43.4556,633.0123],[22.2378,43.4601,661.4802],[22.2119,43.4685,648.3676],[22.2007,43.4687,696.3041],[22.1877,43.4632,668.5883],[22.1661,43.4609,692.3763],[22.1407,43.4663,627.6559],[22.1316,43.4704,602.1803],[22.1189,43.4791,614.339],[22.1039,43.4831,324.0762],[22.0884,43.4902,415.6858],[22.0722,43.4928,552.8739],[22.0565,43.4892,546.7556],[22.0474,43.4905,549.9038],[22.0405,43.496,562.3027],[22.0398,43.4989,568.5756],[22.0414,43.505,537.7739],[22.0223,43.5198,679.7579],[22.0258,43.5265,707.7057],[22.025,43.5339,733.3015],[21.9987,43.5489,645.823],[21.9938,43.5535,747.0658],[21.993,43.5579,882.9438],[21.9774,43.57,865.4928],[21.9704,43.5727,872.0659],[21.9591,43.572,914.7518],[21.9529,43.5697,930.13],[21.9489,43.5611,966.7689],[21.9507,43.5505,814.8245],[21.9537,43.5466,791.5687],[21.972,43.5327,566.7291],[21.9854,43.5266,761.9719],[21.9871,43.5245,793.6171],[21.9859,43.5216,783.9958],[21.9787,43.5183,783.4195],[21.9726,43.5177,804.5427],[21.9529,43.5227,729.5438],[21.934,43.5162,518.9101],[21.9127,43.5136,537.2015],[21.9031,43.5248,575.5353],[21.8835,43.5375,663.6315],[21.8711,43.5625,806.3918],[21.8631,43.5705,791.4344],[21.8518,43.5733,723.689],[21.8306,43.5702,600.438],[21.8118,43.5778,505.0938],[21.7814,43.5752,524.9025],[21.7709,43.5769,443.3713],[21.7515,43.5887,759.7419],[21.7499,43.5915,781.3219],[21.7505,43.6007,608.6176],[21.7474,43.6064,538.1551],[21.7382,43.615,464.2648],[21.7218,43.6248,445.1726],[21.7049,43.6418,255.5208],[21.6993,43.6566,349.6516],[21.6896,43.6654,335.9686],[21.6874,43.6864,559.7109],[21.6831,43.7014,535.8676],[21.6988,43.7117,752.2976],[21.7005,43.7167,822.8134],[21.6885,43.7303,662.3768],[21.6766,43.735,531.392],[21.6736,43.7384,478.1498],[21.6781,43.7451,367.3547],[21.694,43.7499,550.6369],[21.7039,43.7563,514.4415],[21.6839,43.7747,575.7662],[21.6643,43.7841,393.7585],[21.646,43.8029,667.2089],[21.6327,43.7972,376.1071],[21.6111,43.7911,468.3241],[21.6016,43.7912,451.449],[21.5812,43.7953,236.1085],[21.5492,43.7901,298.7141],[21.5211,43.7744,235.8216],[21.5087,43.7708,200.2746],[21.4846,43.7605,299.7057],[21.4659,43.7494,169.5374],[21.4715,43.741,158.1424],[21.4743,43.73,257.7039],[21.4766,43.727,225.741],[21.4842,43.7235,260.6878],[21.4965,43.7215,338.7352],[21.5026,43.7173,326.5934],[21.5089,43.6985,274.0421],[21.5044,43.6923,300.7593],[21.4947,43.688,208.2578],[21.489,43.6874,279.9103],[21.4787,43.6891,204.9661],[21.4736,43.6872,226.5155],[21.4718,43.6846,203.3298],[21.4721,43.6777,158.1883],[21.4702,43.6736,154.1025],[21.4614,43.6649,259.7932],[21.4545,43.6604,297.7903],[21.4564,43.655,257.9116],[21.4669,43.6485,194.1782],[21.4726,43.6383,296.8422],[21.4755,43.6291,347.3179],[21.4743,43.6159,300.2201],[21.4755,43.612,241.5506],[21.4788,43.6098,192.5611],[21.4924,43.6065,144.3495],[21.491,43.6035,159.3114],[21.4788,43.5956,286.2441],[21.4787,43.5917,251.2255],[21.481,43.5863,256.6068],[21.514,43.5771,214.4941],[21.5182,43.5711,220.7379],[21.5222,43.5606,224.7957],[21.5369,43.5522,261.1249],[21.5403,43.5387,267.0827],[21.5642,43.5215,340.553],[21.5663,43.5186,342.6369],[21.5672,43.5119,325.6785],[21.5644,43.5043,334.7529],[21.5459,43.4856,322.6876],[21.5482,43.472,336.2733],[21.5426,43.4622,376.1503],[21.5532,43.441,342.5025],[21.5661,43.4266,336.4943],[21.5669,43.4199,367.0862],[21.5657,43.4156,412.8947],[21.5526,43.4023,488.6633],[21.5356,43.4012,676.4539],[21.5201,43.3928,898.0636],[21.5148,43.3831,768.8758],[21.5116,43.3807,860.879],[21.4949,43.3741,1108.8127],[21.4694,43.3678,982.8098],[21.4851,43.3499,894.6609],[21.4901,43.3474,856.4346],[21.5161,43.3486,776.5184],[21.5479,43.3422,612.5935],[21.5703,43.343,518.5118],[21.5939,43.3492,569.4545],[21.5923,43.3335,472.9174],[21.5862,43.3235,511.0366],[21.5787,43.3153,485.5732],[21.5782,43.3117,471.144],[21.5846,43.3035,434.0594],[21.5881,43.2936,409.9687],[21.6015,43.2773,443.2811],[21.6074,43.2746,422.3894],[21.6196,43.2726,390.8391],[21.626,43.2676,384.8093],[21.6253,43.2649,418.9298],[21.6146,43.257,347.92],[21.6113,43.2523,321.201],[21.611,43.2459,302.6182],[21.6149,43.2394,306.7654],[21.6291,43.2319,272.9224],[21.655,43.2282,260.175],[21.6906,43.2088,267.1085],[21.695,43.2087,241.4725],[21.701,43.2131,273.2576],[21.6978,43.2288,262.8857],[21.7003,43.2448,293.3319],[21.7025,43.2513,308.6568],[21.708,43.2556,324.4543],[21.7145,43.2553,311.7747],[21.7234,43.2477,282.0243],[21.7289,43.2456,270.0738],[21.7406,43.2465,263.1556],[21.7581,43.2443,249.3446],[21.7659,43.2466,246.499],[21.7719,43.2295,222.4782],[21.7786,43.222,270.4354],[21.7795,43.2184,263.3666],[21.777,43.2155,252.0485],[21.7635,43.2078,222.446],[21.7614,43.2049,212.41],[21.7611,43.2009,207.4628],[21.7632,43.1972,205.7379],[21.7867,43.1767,218.6922],[21.8038,43.1589,287.4547],[21.8043,43.1553,265.5247],[21.7941,43.1495,288.4471],[21.7922,43.146,277.3108],[21.7941,43.142,258.2158],[21.7992,43.139,243.9216],[21.8043,43.1377,236.616],[21.8563,43.1401,204.0672],[21.8974,43.1555,198.7182],[21.915,43.128,203.8312],[21.9198,43.1265,204.7982],[21.9419,43.1373,319.628],[21.9633,43.1408,383.7102],[21.9826,43.1511,556.0055],[21.9918,43.152,661.2167],[22.0017,43.1444,676.6487],[22.0107,43.1404,725.5981],[22.028,43.1438,944.88],[22.034,43.1345,899.7665],[22.0505,43.1258,947.8869],[22.0776,43.1022,782.6398],[22.109,43.0867,648.8129],[22.1271,43.0813,650.5643],[22.1405,43.072,727.4352]]]]}}