{"type":"Feature","properties":{"ISO3166-1-Alpha-3":"SRB","country":"Republic of Serbia","fill":"#F0F","id":"830","name":"Nišavski"},
"geometry":{"type": "Polygon","coordinates": [[[21.77829,43.57517,481.6521],[21.77524,43.57553,435.7064],[21.77302,43.5761,408.5656],[21.77095,43.5769,443.3713],[21.76842,43.57848,470.7337],[21.76356,43.58194,570.6647],[21.75478,43.58641,722.4402],[21.75152,43.58868,759.7419],[21.75049,43.59005,739.9846],[21.74992,43.59155,781.3219],[21.74981,43.59352,774.9486],[21.75064,43.59853,702.4203],[21.75054,43.6007,608.6176],[21.74992,43.60277,572.916],[21.74733,43.60643,538.1551],[21.74413,43.6101,520.3055],[21.74237,43.61181,510.3334],[21.73819,43.61501,464.2648],[21.73359,43.61796,443.7128],[21.72418,43.62292,531.2702],[21.72186,43.62475,445.1726],[21.71938,43.62731,291.1989],[21.71664,43.63124,214.1821],[21.71462,43.63344,221.8403],[21.70491,43.64178,255.5208],[21.70315,43.64405,257.1303],[21.70222,43.64617,250.0],[21.70088,43.65289,314.3294],[21.70021,43.65501,350.8917],[21.69933,43.65661,349.6516],[21.69814,43.65806,381.507],[21.69121,43.66333,311.5117],[21.68956,43.6654,335.9686],[21.68863,43.66783,305.5934],[21.68816,43.67041,327.0005],[21.68744,43.68643,559.7109],[21.68599,43.69232,587.8984],[21.68388,43.69803,524.1372],[21.68326,43.69862,493.8261],[21.68284,43.70002,477.2569],[21.68305,43.70136,535.8676],[21.68382,43.7026,576.8022],[21.68568,43.70395,611.9433],[21.69059,43.70648,704.2978],[21.6954,43.70927,822.1995],[21.69876,43.7117,752.2976],[21.69984,43.71315,762.4816],[21.70046,43.71467,798.5514],[21.70046,43.71671,822.8134],[21.69995,43.71826,826.16],[21.69897,43.71976,817.7336],[21.69483,43.72358,814.1948],[21.6907,43.72839,679.1935],[21.68853,43.73025,662.3768],[21.68574,43.73175,588.275],[21.6785,43.73415,500.693],[21.67654,43.73495,531.392],[21.67499,43.73594,507.3932],[21.67401,43.73712,478.1498],[21.67364,43.73842,478.1498],[21.67385,43.73966,440.5296],[21.67561,43.74276,389.4596],[21.67674,43.74395,365.6102],[21.67814,43.74508,367.3547],[21.68078,43.74655,399.947],[21.68279,43.74725,401.1811],[21.69127,43.74891,568.5653],[21.694,43.74989,550.6369],[21.70387,43.75635,514.4415],[21.69276,43.76606,717.8547],[21.68656,43.77242,577.5201],[21.68393,43.77464,575.7662],[21.67974,43.77707,544.843],[21.66703,43.78252,462.6032],[21.66424,43.7841,393.7585],[21.66207,43.78606,410.3976],[21.646,43.80293,667.2089],[21.63938,43.79981,464.6843],[21.63277,43.79717,376.1071],[21.62238,43.79438,345.2776],[21.61416,43.79162,447.3379],[21.61112,43.79113,468.3241],[21.60791,43.79092,483.045],[21.60156,43.79123,451.449],[21.59856,43.7918,462.2583],[21.59055,43.79443,326.9724],[21.5875,43.795,274.4705],[21.58119,43.79529,236.1085],[21.57804,43.79508,294.1192],[21.57499,43.79459,315.2685],[21.56693,43.79211,325.8618],[21.56388,43.79159,273.8785],[21.55437,43.79082,302.3035],[21.54921,43.79014,298.7141],[21.54735,43.78955,301.3964],[21.54507,43.78821,304.4111],[21.54239,43.78609,288.7516],[21.53985,43.78477,264.0338],[21.53293,43.78208,244.3794],[21.53024,43.78064,243.6541],[21.52104,43.77438,235.8216],[21.51686,43.77278,230.6412],[21.50869,43.77079,200.2746],[21.50663,43.76996,204.1571],[21.50125,43.76694,275.2935],[21.49712,43.76503,296.3914],[21.49319,43.76348,285.1563],[21.4873,43.76162,292.4601],[21.48461,43.76048,299.7057],[21.47831,43.75707,291.3116],[21.4659,43.74942,169.5374],[21.46839,43.74637,152.4619],[21.47014,43.74379,149.2928],[21.47154,43.74105,155.4796],[21.47242,43.73816,228.6588],[21.4735,43.73258,245.96],[21.47433,43.73002,257.7039],[21.47531,43.72842,228.0546],[21.4766,43.72705,225.741],[21.47831,43.72586,237.0993],[21.48032,43.72493,234.0138],[21.4842,43.72353,260.6878],[21.4873,43.72291,267.8811],[21.49355,43.72211,314.1093],[21.4965,43.72147,338.7352],[21.499389999999998,43.72028,332.2364],[21.50125,43.71893,317.152],[21.50259,43.71733,326.5934],[21.50363,43.71526,342.4594],[21.50652,43.70793,342.7452],[21.5089,43.69852,274.0421],[21.50859,43.69656,282.3596],[21.50776,43.69527,262.5581],[21.50663,43.69403,262.5581],[21.50446,43.69232,276.7331],[21.50187,43.69082,282.9677],[21.49975,43.68984,210.7594],[21.49469,43.68798,208.2578],[21.49179,43.68736,292.8452],[21.489,43.68736,279.9103],[21.48141,43.68909,213.7974],[21.47872,43.68912,204.9661],[21.47696,43.68881,217.6378],[21.4751,43.68816,226.5155],[21.47355,43.68726,244.1345],[21.47247,43.68602,232.7684],[21.47185,43.68462,203.3298],[21.46999,43.66847,145.054],[21.47619,43.66847,159.5423],[21.48254,43.66129,148.6765],[21.48658,43.65361,187.1027],[21.48704,43.64473,145.7805],[21.48239,43.63372,289.3351],[21.49014,43.63289,149.4351],[21.49443,43.63111,236.3124],[21.49789,43.62907,237.2296],[21.50347,43.62752,248.57],[21.49846,43.62524,148.1151],[21.49448,43.62276,164.0543],[21.49164,43.61928,142.3263],[21.48983,43.61385,144.3042],[21.49102,43.60351,159.3114],[21.48192,43.59842,228.9945],[21.48022,43.59718,256.8803],[21.47882,43.59563,286.2441],[21.4782,43.59388,275.5482],[21.47872,43.59171,251.2255],[21.48079,43.58721,273.7401],[21.48099,43.58628,256.6068],[21.49593,43.58277,264.6303],[21.50053,43.58091,167.4254],[21.50347,43.58013,157.984],[21.5075,43.57843,177.8031],[21.51396,43.57708,204.9125],[21.5166,43.57377,217.6085],[21.5182,43.57109,220.7379],[21.51939,43.5683,225.5661],[21.52037,43.56437,224.0623],[21.5212,43.56215,222.3658],[21.52218,43.56055,224.7957],[21.52347,43.55915,224.2764],[21.52523,43.55796,231.7708],[21.52895,43.55605,244.4619],[21.53463,43.55367,251.7906],[21.53691,43.55223,261.1249],[21.53799,43.55093,283.2935],[21.53861,43.54949,294.9933],[21.53877,43.54752,288.969],[21.53835,43.54473,264.3044],[21.5383,43.54272,276.0529],[21.53887,43.5407,263.1893],[21.54032,43.53874,267.0827],[21.54249,43.53703,266.2797],[21.54761,43.53373,306.6897],[21.55355,43.52809,333.2979],[21.56254,43.52277,326.2302],[21.56419,43.52153,340.553],[21.56543,43.52013,348.2675],[21.56631,43.51853,342.6369],[21.56698,43.51641,348.3043],[21.56724,43.51189,325.6785],[21.56698,43.50964,330.7803],[21.56631,43.50745,336.6715],[21.56549,43.50582,336.8588],[21.5644,43.50432,334.7529],[21.55887,43.49905,309.4041],[21.5552,43.49404,332.1882],[21.55386,43.49269,340.1234],[21.54859,43.48882,318.6052],[21.54698,43.48727,314.7359],[21.5459,43.48556,322.6876],[21.54559,43.4837,309.5342],[21.54828,43.47399,358.8979],[21.54817,43.47202,336.2733],[21.54693,43.46928,353.6483],[21.54337,43.46391,356.7759],[21.54259,43.46215,376.1503],[21.54259,43.46029,372.8544],[21.54363,43.45833,380.6178],[21.54838,43.45244,386.1056],[21.54936,43.45037,389.4392],[21.55148,43.44386,340.2492],[21.55324,43.44102,342.5025],[21.55572,43.43766,296.6104],[21.5583,43.43487,336.5958],[21.56414,43.4297,330.85],[21.56533,43.4282,319.5034],[21.56616,43.4266,336.4943],[21.56678,43.42443,369.417],[21.56688,43.41993,367.0862],[21.56652,43.41769,386.1157],[21.56564,43.41557,412.8947],[21.56414,43.41347,459.5385],[21.55484,43.40381,493.5462],[21.55257,43.40231,488.6633],[21.54988,43.40143,464.5181],[21.54859,43.40128,483.0266],[21.53996,43.40185,630.6998],[21.53773,43.40169,666.8015],[21.53562,43.40123,676.4539],[21.53314,43.40027,724.2012],[21.53081,43.39908,709.428],[21.52011,43.39286,898.0636],[21.51856,43.39112,931.3815],[21.51748,43.38913,926.1583],[21.51593,43.38503,804.7767],[21.51484,43.38309,768.8758],[21.51319,43.38154,847.6173],[21.51159,43.38071,860.879],[21.50482,43.37864,884.5456],[21.5027,43.37779,900.6271],[21.49712,43.37495,1060.9675],[21.4949,43.37412,1108.8127],[21.49247,43.37348,1169.8876],[21.48161,43.37141,1083.75],[21.47391,43.36929,1156.3652],[21.46942,43.36782,982.8098],[21.47944,43.35663,1075.8544],[21.48513,43.34991,894.6609],[21.48735,43.34831,845.0679],[21.49009,43.34743,856.4346],[21.49334,43.34738,863.2726],[21.50342,43.34893,713.8795],[21.50983,43.34914,786.9529],[21.51303,43.34898,809.09],[21.51613,43.34862,776.5184],[21.52647,43.34666,711.9468],[21.52941,43.34599,725.1204],[21.53732,43.3433,660.4723],[21.54073,43.34268,658.6964],[21.54792,43.34221,612.5935],[21.55913,43.34211,595.8804],[21.56662,43.3425,525.8868],[21.57029,43.34299,532.7386],[21.57701,43.34459,543.5055],[21.59386,43.34919,569.4545],[21.59282,43.3358,507.3092],[21.59225,43.33343,472.9174],[21.58951,43.32831,407.1622],[21.58621,43.32345,511.0366],[21.58373,43.32046,487.347],[21.5797,43.31674,483.8333],[21.57871,43.31529,485.5732],[21.57815,43.31374,481.4041],[21.57815,43.31172,471.144],[21.57871,43.3102,461.6439],[21.57964,43.30873,453.9881],[21.58347,43.30495,439.9919],[21.58455,43.30346,434.0594],[21.586,43.30012,422.4805],[21.58714,43.29529,411.5094],[21.58807,43.29359,409.9687],[21.58941,43.29203,402.342],[21.5936,43.28834,405.8772],[21.59577,43.28532,417.2287],[21.59794,43.28123,444.4363],[21.59892,43.27989,450.089],[21.60156,43.27726,443.2811],[21.60321,43.27612,451.4388],[21.60517,43.27524,445.76],[21.60739,43.27462,422.3894],[21.61675,43.27328,404.734],[21.61964,43.2726,390.8391],[21.62145,43.27188,387.6002],[21.623,43.27095,377.5534],[21.62491,43.26932,386.5352],[21.626,43.26757,384.8093],[21.626,43.26625,390.8335],[21.62533,43.2649,418.9298],[21.6229,43.26271,426.2632],[21.6167,43.25886,373.8134],[21.61463,43.257,347.92],[21.6121,43.25374,327.3719],[21.61132,43.25235,321.201],[21.6107,43.25023,319.3284],[21.6106,43.24806,309.5195],[21.61101,43.24591,302.6182],[21.61246,43.24299,297.554],[21.61494,43.2394,306.7654],[21.61644,43.23798,312.7502],[21.61835,43.23672,298.9415],[21.62321,43.23416,282.116],[21.6261,43.23292,281.248],[21.6291,43.23194,272.9224],[21.63287,43.23126,279.3669],[21.63509,43.23121,288.7816],[21.63613,43.23142,288.7816],[21.64874,43.22976,278.0349],[21.65251,43.22894,273.9934],[21.65499,43.22819,260.175],[21.65871,43.22625,253.1718],[21.66228,43.22367,263.0454],[21.66574,43.22157,296.1098],[21.67545,43.21739,292.149],[21.68594,43.2109,278.1051],[21.68827,43.20969,276.8413],[21.69059,43.20878,267.1085],[21.69338,43.20847,252.7109],[21.69499,43.20873,241.4725],[21.69736,43.20977,241.171],[21.69891,43.2107,254.9052],[21.70021,43.21178,264.9357],[21.70103,43.21307,273.2576],[21.70134,43.21452,286.6507],[21.70124,43.21586,301.5021],[21.70021,43.21933,310.6069],[21.69829,43.22439,325.7961],[21.69783,43.22656,315.8446],[21.69778,43.22878,262.8857],[21.69809,43.23095,257.628],[21.69953,43.23659,271.5483],[21.70026,43.24475,293.3319],[21.70072,43.24744,299.9361],[21.70165,43.24994,305.5192],[21.70253,43.25131,308.6568],[21.70563,43.25441,321.6914],[21.70796,43.25565,324.4543],[21.70977,43.25602,319.1223],[21.71168,43.25596,318.7842],[21.71457,43.25529,311.7747],[21.7171,43.254,306.6108],[21.71912,43.25214,299.0445],[21.72191,43.24894,286.1284],[21.72341,43.2477,282.0243],[21.72517,43.24671,279.3956],[21.72894,43.24558,270.0738],[21.73162,43.24542,269.1154],[21.73762,43.24635,264.8915],[21.74056,43.24653,263.1556],[21.74367,43.24638,258.5709],[21.75338,43.24462,249.8568],[21.75565,43.24434,246.5995],[21.75808,43.24431,249.3446],[21.76046,43.24457,248.523],[21.7631,43.24524,246.8503],[21.76594,43.24656,246.499],[21.77069,43.2324,229.4597],[21.77193,43.22956,222.4782],[21.77369,43.22708,219.912],[21.77865,43.22201,270.4354],[21.77958,43.22015,263.3086],[21.77948,43.2184,263.3666],[21.77875,43.21721,263.3666],[21.777,43.21553,252.0485],[21.77467,43.214,242.9025],[21.76697,43.21008,229.19],[21.76346,43.20778,222.446],[21.76222,43.20641,216.2038],[21.76139,43.20491,212.41],[21.76098,43.20289,209.8184],[21.76108,43.20088,207.4628],[21.76186,43.19891,206.8394],[21.7632,43.19716,205.7379],[21.76883,43.19287,203.466],[21.77297,43.18801,201.4097],[21.77534,43.18563,201.2907],[21.78671,43.17669,218.6922],[21.78919,43.17432,207.0302],[21.79705,43.16522,261.7773],[21.80387,43.15892,287.4547],[21.80449,43.15778,276.7879],[21.8047,43.15654,266.893],[21.80433,43.15532,265.5247],[21.80278,43.15372,270.1225],[21.80139,43.15282,270.1225],[21.7956,43.15034,283.2899],[21.7941,43.14946,288.4471],[21.79271,43.14791,284.8533],[21.79219,43.14605,277.3108],[21.79255,43.14409,272.9751],[21.79415,43.14202,258.2158],[21.79674,43.14024,247.3704],[21.79922,43.13905,243.9216],[21.8018,43.13819,240.0186],[21.80433,43.13773,236.616],[21.80552,43.13778,233.1567],[21.82227,43.13897,222.8204],[21.83033,43.13923,218.2754],[21.84929,43.13933,206.0455],[21.85286,43.13959,204.1184],[21.85632,43.14005,204.0672],[21.8633,43.14202,208.2199],[21.87007,43.14434,203.1088],[21.87828,43.14796,200.1185],[21.8926,43.15365,198.7438],[21.90453,43.16341,215.9041],[21.93683,43.13305,234.1667],[21.94784,43.13856,312.0064],[21.9558,43.13928,382.5871],[21.95972,43.13987,370.9421],[21.96324,43.1408,383.7102],[21.96639,43.14199,354.5834],[21.96887,43.14326,376.9236],[21.97978,43.14987,550.4876],[21.98257,43.15111,556.0055],[21.98479,43.15178,603.3204],[21.98701,43.1522,593.5269],[21.98985,43.15225,633.3518],[21.99182,43.15199,661.2167],[21.99362,43.15145,591.4114],[21.99569,43.14998,623.4425],[21.99998,43.14558,664.7581],[22.00169,43.1444,676.6487],[22.00587,43.14212,697.8404],[22.00825,43.14109,735.4285],[22.01073,43.14042,754.0334],[22.01347,43.14026,701.8196],[22.01559,43.14057,760.7311],[22.0176,43.14114,739.3822],[22.02261,43.14357,822.3423],[22.0251,43.14421,878.2985],[22.0267,43.14421,878.2985],[22.02799,43.14378,944.88],[22.02923,43.14259,892.4966],[22.03176,43.13706,860.9106],[22.03398,43.13447,899.7665],[22.03621,43.13266,939.9576],[22.03889,43.13117,924.1744],[22.04597,43.12838,942.5155],[22.04835,43.12719,968.2031],[22.05047,43.12579,947.8869],[22.05233,43.12424,926.8113],[22.0561,43.12037,894.9148],[22.06106,43.11613,922.5211],[22.06613,43.11106,885.7838],[22.07527,43.10383,822.0104],[22.07765,43.10223,782.6398],[22.08406,43.09915,770.8738],[22.08923,43.09613,642.4049],[22.09129,43.0952,627.1042],[22.09837,43.09277,681.1835],[22.10039,43.09184,667.3765],[22.1055,43.08858,664.1001],[22.10902,43.08672,648.8129],[22.11351,43.0853,627.8728],[22.12199,43.08342,621.9447],[22.12426,43.08264,666.8043],[22.12716,43.08132,650.5643],[22.13263,43.07799,666.6603],[22.13801,43.07409,688.7582],[22.14054,43.072,727.4352],[22.14958,43.06331,661.4756],[22.15522,43.05866,634.4125],[22.16137,43.05908,585.9584],[22.1687,43.06014,542.7819],[22.17201,43.06027,551.1897],[22.17522,43.05996,540.8983],[22.18229,43.05791,513.0258],[22.18741,43.05587,556.295],[22.19005,43.05507,473.0343],[22.19294,43.05468,469.2505],[22.19594,43.05474,430.4859],[22.21273,43.05683,406.7439],[22.21501,43.05748,409.2897],[22.21718,43.05835,414.2783],[22.21981,43.06011,426.0615],[22.22643,43.06621,450.8502],[22.23402,43.07399,604.302],[22.23392,43.07569,580.2343],[22.23666,43.08352,681.9093],[22.23769,43.08523,660.7695],[22.23909,43.0867,700.9278],[22.24084,43.08791,714.3387],[22.24663,43.09065,798.7856],[22.25345,43.09298,867.491],[22.26105,43.0952,939.2463],[22.264,43.09652,1038.9996],[22.26921,43.09962,1211.4202],[22.28565,43.10584,1442.6117],[22.29562,43.10993,1387.5875],[22.28182,43.13008,1385.2515],[22.28002,43.13189,1389.7334],[22.2765,43.13468,1368.4698],[22.27547,43.13613,1311.3975],[22.27536,43.1368,1311.3975],[22.27748,43.14098,1194.5679],[22.27743,43.14259,1200.8958],[22.27645,43.14409,1225.6908],[22.27521,43.14504,1241.2649],[22.26885,43.14874,1364.0044],[22.26622,43.15003,1401.887],[22.26348,43.15104,1409.4102],[22.26048,43.1515,1406.8043],[22.25914,43.15145,1395.1991],[22.25604,43.15075,1370.6146],[22.24958,43.14863,1385.5608],[22.24581,43.14799,1403.5778],[22.24183,43.14775,1397.8354],[22.23785,43.14786,1389.9395],[22.23407,43.14843,1461.4395],[22.23004,43.14967,1504.8846],[22.22586,43.15142,1515.4004],[22.22327,43.15297,1499.5298],[22.22116,43.15489,1512.0967],[22.21563,43.16073,1593.6447],[22.21377,43.16197,1597.9332],[22.21206,43.16246,1636.5187],[22.21025,43.16269,1610.7394],[22.20653,43.16264,1603.8281],[22.20374,43.16282,1582.7057],[22.20147,43.16321,1579.2476],[22.1993,43.16385,1599.6119],[22.19651,43.16504,1612.906],[22.19155,43.16791,1676.844],[22.18441,43.17261,1640.8865],[22.17749,43.17819,1702.7117],[22.17413,43.18052,1770.0768],[22.17211,43.18134,1763.7219],[22.16994,43.18202,1756.6089],[22.16085,43.18346,1437.3972],[22.15785,43.18411,1409.983],[22.15522,43.18501,1340.7738],[22.14597,43.18935,1051.1051],[22.13723,43.19501,1052.2281],[22.13506,43.19602,1080.2],[22.11362,43.20294,1125.1572],[22.1192,43.21245,1182.8649],[22.1255,43.22227,792.1296],[22.13067,43.22821,684.0593],[22.1317,43.23018,673.4282],[22.13191,43.23212,620.1674],[22.12964,43.23945,549.4575],[22.12995,43.24129,538.7258],[22.13098,43.24299,550.6498],[22.13253,43.24452,481.3395],[22.13775,43.24832,495.1793],[22.13935,43.24976,513.6939],[22.14054,43.25137,508.9418],[22.14219,43.25488,457.4423],[22.14312,43.25609,450.4062],[22.14514,43.25762,439.6861],[22.14845,43.25896,439.43],[22.15119,43.25938,482.3962],[22.1577,43.25927,493.6655],[22.15956,43.25943,465.1303],[22.16121,43.25989,474.2719],[22.16302,43.26113,532.8678],[22.16436,43.26279,543.497],[22.16643,43.2664,602.8438],[22.167,43.26821,609.0131],[22.16695,43.26909,600.4526],[22.16509,43.27276,552.9028],[22.16467,43.27413,534.795],[22.16436,43.27881,524.5507],[22.16405,43.28025,524.5507],[22.16343,43.28149,537.5131],[22.16152,43.28294,533.4573],[22.15434,43.28601,466.0559],[22.15036,43.28795,470.3947],[22.14814,43.28953,453.0839],[22.14659,43.29136,440.1995],[22.14597,43.29328,439.4647],[22.14591,43.29529,449.9233],[22.1469,43.3003,492.4146],[22.14684,43.30245,484.8241],[22.14638,43.30459,500.8727],[22.14266,43.31252,602.7636],[22.14183,43.31521,575.2404],[22.14013,43.32697,785.491],[22.13739,43.33694,425.3365],[22.14979,43.33986,749.5524],[22.16069,43.34283,855.986],[22.16488,43.34366,809.3943],[22.16777,43.34371,816.7925],[22.16984,43.3435,812.5818],[22.17806,43.34237,592.4919],[22.1885,43.34064,719.0485],[22.19816,43.33984,919.1454],[22.20131,43.33937,940.1661],[22.20596,43.33808,1006.7362],[22.2088,43.33673,1016.642],[22.21769,43.33157,917.8582],[22.22059,43.33028,849.9462],[22.22519,43.32898,865.5257],[22.23454,43.32769,1035.5894],[22.23878,43.32671,1052.0446],[22.24146,43.32542,1087.3368],[22.24746,43.32206,975.1814],[22.24937,43.32131,974.23],[22.25537,43.31953,929.1512],[22.25841,43.31906,947.3427],[22.26151,43.31885,958.4988],[22.26792,43.31898,1000.3192],[22.27531,43.3201,1024.307],[22.28312,43.32074,1096.8397],[22.30348,43.32092,1176.6815],[22.30751,43.32108,1176.1699],[22.31133,43.32149,1137.2703],[22.32146,43.32361,1109.4426],[22.32363,43.32428,1197.5977],[22.32544,43.32521,1197.5977],[22.32714,43.3265,1203.8373],[22.32828,43.32805,1191.9874],[22.33009,43.33446,1203.764],[22.33376,43.34226,873.4893],[22.33428,43.34438,863.9328],[22.33433,43.34655,851.7471],[22.33335,43.35157,893.8666],[22.33324,43.35363,926.3059],[22.33366,43.35565,940.1255],[22.33495,43.35787,867.3405],[22.3381,43.36169,693.4823],[22.33872,43.36314,613.4907],[22.33898,43.36469,571.2406],[22.33872,43.37022,572.6743],[22.33727,43.38237,656.9118],[22.3365,43.38288,656.9118],[22.33645,43.38477,671.7469],[22.33701,43.38598,698.3378],[22.33991,43.38996,655.9155],[22.34084,43.39205,666.0879],[22.34084,43.39448,664.7859],[22.33996,43.39844,622.7769],[22.33975,43.40058,593.0649],[22.34001,43.40273,581.4648],[22.34068,43.40474,576.9928],[22.34151,43.40608,577.363],[22.34606,43.41074,624.4573],[22.34771,43.41298,632.3112],[22.34874,43.415,644.0626],[22.35081,43.42066,730.0778],[22.35154,43.42422,751.8256],[22.35086,43.42779,682.8928],[22.34849,43.43342,718.2069],[22.34502,43.43807,742.0521],[22.34229,43.4405,687.9653],[22.33986,43.4421,667.4987],[22.33707,43.44345,669.0997],[22.33257,43.44495,716.2259],[22.32658,43.44637,735.713],[22.32223,43.44799,697.6984],[22.31536,43.45244,669.9396],[22.31164,43.45456,660.95],[22.30353,43.45854,683.5778],[22.30048,43.45941,669.9512],[22.29784,43.45949,675.3872],[22.29603,43.45916,666.1898],[22.29402,43.45856,678.5774],[22.29221,43.45766,681.0998],[22.29061,43.45652,683.7607],[22.28684,43.45249,653.405],[22.28306,43.44701,627.4171],[22.27826,43.44148,577.6147],[22.27691,43.44019,590.3969],[22.2748,43.4388,579.9908],[22.27242,43.43823,581.3962],[22.27087,43.43833,547.4913],[22.26834,43.43931,589.03],[22.25733,43.44748,607.5291],[22.25438,43.44898,617.8097],[22.25092,43.44996,597.0142],[22.24725,43.45042,655.2184],[22.2425,43.45047,744.5306],[22.2425,43.45285,709.7172],[22.24265,43.45376,660.3295],[22.24229,43.45559,633.0123],[22.24121,43.45753,646.6488],[22.23971,43.4589,643.6298],[22.2378,43.46009,661.4802],[22.23464,43.46159,710.5596],[22.23123,43.46285,728.3543],[22.22002,43.46582,642.7243],[22.21196,43.46851,648.3676],[22.20896,43.46897,659.8209],[22.20591,43.46913,661.8165],[22.20069,43.46866,696.3041],[22.19868,43.46815,721.795],[22.18968,43.46381,693.8665],[22.18767,43.46319,668.5883],[22.17532,43.46089,654.7866],[22.17227,43.4606,667.5184],[22.16922,43.46063,679.7478],[22.16612,43.46091,692.3763],[22.15279,43.46314,620.0213],[22.14271,43.46567,608.9213],[22.1407,43.46634,627.6559],[22.13439,43.46887,649.1091],[22.1316,43.47042,686.6801],[22.12282,43.47709,721.7401],[22.11894,43.4791,614.339],[22.11506,43.48055,410.5343],[22.10618,43.48244,346.6697],[22.10395,43.48308,324.0762],[22.10183,43.48391,330.9583],[22.0945,43.48789,372.6624],[22.08845,43.49021,415.6858],[22.0855,43.49089,478.4776],[22.07734,43.49228,555.9047],[22.07217,43.4928,552.8739],[22.06912,43.49264,523.1],[22.06618,43.49218,494.1172],[22.05972,43.49003,538.1229],[22.05651,43.48921,546.7556],[22.05372,43.48908,565.9128],[22.05176,43.48931,551.2751],[22.04742,43.49052,549.9038],[22.04473,43.49187,559.8299],[22.04251,43.49357,578.9853],[22.04055,43.49595,562.3027],[22.03987,43.49771,554.4294],[22.03977,43.4989,568.5756],[22.03993,43.49967,568.5756],[22.04199,43.50339,538.4712],[22.04137,43.50494,537.7739],[22.03967,43.50649,521.8427],[22.03491,43.50962,545.6688],[22.03006,43.51334,669.1582],[22.02458,43.51709,638.3091],[22.02287,43.51874,653.6284],[22.02225,43.5198,679.7579],[22.02225,43.52057,707.6186],[22.02261,43.52166,707.6186],[22.02525,43.525149999999996,733.0475],[22.02582,43.52646,707.7057],[22.02608,43.52789,679.3716],[22.02587,43.53114,740.6967],[22.02561,43.53259,753.6635],[22.02494,43.53388,733.3015],[22.02318,43.53543,769.6335],[22.01822,43.53804,856.89],[22.01316,43.54135,821.6649],[22.00355,43.54574,820.0062],[21.99874,43.54887,645.823],[21.996,43.55114,764.9613],[21.99378,43.55349,747.0658],[21.99254,43.55579,859.5327],[21.99249,43.55724,882.9438],[21.99295,43.55791,882.9438],[21.97735,43.57,865.4928],[21.97368,43.57197,864.4513],[21.97042,43.57274,872.0659],[21.96706,43.57284,916.4586],[21.9591,43.57197,914.7518],[21.95507,43.57098,928.789],[21.95295,43.56969,930.13],[21.95202,43.56848,920.7222],[21.94887,43.56109,966.7689],[21.94882,43.55915,940.1476],[21.95011,43.55507,874.6813],[21.95063,43.55052,814.8245],[21.95125,43.54907,807.7943],[21.95223,43.54778,795.2492],[21.95368,43.54654,791.5687],[21.96407,43.53931,776.9803],[21.97202,43.53272,566.7291],[21.97425,43.53132,623.9822],[21.97667,43.53016,652.7067],[21.9837,43.52752,693.5905],[21.98541,43.52665,761.9719],[21.9866,43.52561,774.9205],[21.98711,43.52448,793.6171],[21.98706,43.52329,782.1331],[21.98587,43.52156,783.9958],[21.98437,43.52055,783.9958],[21.98251,43.51962,786.0161],[21.97874,43.51833,783.4195],[21.97569,43.51786,803.4219],[21.97254,43.51771,804.5427],[21.96717,43.51822,767.6836],[21.96505,43.51874,781.2606],[21.95745,43.52205,745.4616],[21.95502,43.52262,705.1995],[21.9529,43.52267,729.5438],[21.95073,43.52233,723.1777],[21.9482,43.52153,765.0166],[21.94081,43.51843,499.2581],[21.93399,43.51618,518.9101],[21.92758,43.51512,589.0144],[21.9127,43.51357,537.2015],[21.91012,43.51628,544.1058],[21.90453,43.52344,615.2053],[21.90309,43.52481,575.5353],[21.89942,43.52724,536.369],[21.88727,43.53432,627.2618],[21.88485,43.5361,653.5081],[21.8835,43.53755,663.6315],[21.87963,43.54401,701.6578],[21.8774,43.55047,736.838],[21.87115,43.56251,806.3918],[21.86784,43.56721,823.2375],[21.86578,43.56907,788.6356],[21.86314,43.57054,791.4344],[21.85875,43.57202,827.0178],[21.85182,43.57331,723.689],[21.84898,43.57326,749.7836],[21.84702,43.5729,776.4575],[21.83818,43.57062,721.2799],[21.83539,43.57016,678.9918],[21.83338,43.56995,618.5009],[21.83059,43.57016,600.438],[21.82774,43.57096,582.1761],[21.82299,43.57305,550.4407],[21.81591,43.57693,574.1851],[21.81389,43.57752,515.0194],[21.81183,43.57781,505.0938],[21.79255,43.57667,550.2564],[21.78444,43.57545,579.3618],[21.78139,43.57517,524.9025],[21.77829,43.57517,481.6521]]]}}