{"type":"Feature","properties":{"GID_2":"SRB.3.9_1","GID_0":"SRB","country":"Serbia","GID_1":"SRB.3_1","province":"GradBeograd","NL_NAME_1":"Београд","county":"Rakovica","VARNAME_2":"NA","NL_NAME_2":"Раковица","TYPE_2":"Opštine","ENGTYPE_2":"Town|Municipal","CC_2":"NA","HASC_2":"NA","name":"Rakovica.county"},
"geometry":{"type": "MultiPolygon","coordinates": [[[[20.4299,44.673,264.0322],[20.4504,44.6798,198.687],[20.4667,44.6833,130.2943],[20.4694,44.6871,113.732],[20.4643,44.6967,108.0783],[20.4684,44.7041,138.9173],[20.4671,44.7086,156.616],[20.453,44.72,172.4611],[20.4458,44.7353,107.7739],[20.4383,44.7378,93.4902],[20.4372,44.7487,149.8728],[20.4305,44.7578,217.1075],[20.4162,44.743,169.5748],[20.4149,44.7341,177.1801],[20.4114,44.7273,189.5044],[20.4126,44.7169,169.8587],[20.4024,44.7064,175.1703],[20.401,44.7009,148.6347],[20.4021,44.6954,206.465],[20.4118,44.6774,201.2276],[20.4204,44.6737,260.1778],[20.4299,44.673,264.0322]]]]}}