{"type": "Feature","bbox": [20.4982,45.5821,20.8247,45.8018],"geometry": {"type": "MultiPolygon","coordinates": [[[[20.8247,45.7754,79.476],[20.785,45.7862,79.2794],[20.7757,45.7549,78.6993],[20.7343,45.7562,79.0138],[20.7195,45.7523,77.7595],[20.7197,45.7498,77.5149],[20.7156,45.7493,77.6998],[20.7139,45.7512,78.2865],[20.7091,45.7517,78.4912],[20.7023,45.7508,78.3644],[20.6985,45.7608,76.9744],[20.6946,45.7602,78.6839],[20.6923,45.7666,78.7355],[20.6962,45.7673,77.8717],[20.6829,45.7976,77.6397],[20.6643,45.7944,78.7943],[20.6634,45.7965,79.2456],[20.6619,45.7943,79.0119],[20.6528,45.7969,78.6044],[20.6487,45.8018,79.0969],[20.642,45.7938,79.502],[20.6306,45.7871,79.7012],[20.6317,45.7839,78.6944],[20.6415,45.7746,77.3425],[20.6445,45.7653,76.9197],[20.6424,45.7616,76.6872],[20.6289,45.7529,77.3482],[20.623,45.7429,76.0477],[20.6191,45.7302,76.8291],[20.6203,45.7063,75.9935],[20.6185,45.703,77.8455],[20.5881,45.6997,75.0637],[20.5635,45.7059,76.2976],[20.5535,45.7054,76.5122],[20.5315,45.6899,76.4969],[20.5084,45.6788,76.2169],[20.4998,45.6629,76.2162],[20.4982,45.6538,75.1767],[20.5044,45.6455,75.3982],[20.509,45.6355,75.3264],[20.516,45.6294,75.9829],[20.521,45.6212,76.2174],[20.5291,45.6131,76.2493],[20.5335,45.6175,76.4051],[20.5386,45.6188,76.0671],[20.5489,45.6151,75.1858],[20.5604,45.6146,74.8831],[20.5725,45.6072,76.9384],[20.6083,45.5957,75.3218],[20.6255,45.5835,75.0491],[20.6331,45.5821,74.9893],[20.638,45.5831,75.135],[20.6436,45.5859,75.2248],[20.6528,45.594,76.6842],[20.6689,45.5969,76.1102],[20.6723,45.5991,76.5263],[20.6741,45.6066,77.414],[20.6733,45.6254,77.0594],[20.6752,45.6293,76.6239],[20.6811,45.6318,77.1754],[20.7215,45.638,76.4342],[20.7337,45.644,77.2099],[20.7354,45.6493,76.6766],[20.7344,45.6563,76.1147],[20.7298,45.6655,77.0649],[20.7201,45.6743,76.009],[20.7227,45.6796,76.0131],[20.7506,45.6946,77.2277],[20.7904,45.7011,77.9082],[20.7905,45.734,78.4864],[20.8009,45.7498,78.3776],[20.8091,45.7475,78.2556],[20.8098,45.7488,78.4022],[20.8175,45.7496,78.5796],[20.8247,45.7754,79.476]]]]}
,"properties": {"GID_2": "SRB.19.2_1","GID_0": "SRB","country": "Serbia","GID_1": "SRB.19_1","province": "Srednje-Banatski","NL_NAME_1": "Средњебанатски","county": "NovaCrnja","VARNAME_2": "Magyarcsernye|Neuzerne","NL_NAME_2": "НоваЦрња","TYPE_2": "Opštine","ENGTYPE_2": "Town|Municipal","CC_2": "NA","HASC_2": "NA","name": "Nova_Crnja.county","area_km2": 282.2733,"hist_schema_id": "Elevation0-9000","hist_area_km2": {"75": 282.2733}}}