{"type": "Feature","bbox": [19.4818,43.5597,19.8934,43.8313],"geometry": {"type": "MultiPolygon","coordinates": [[[[19.4863,43.6147,502.5459],[19.5108,43.6096,545.4487],[19.5534,43.6059,1030.7844],[19.5763,43.5991,939.8525],[19.5818,43.5956,791.7672],[19.5893,43.5842,1060.3691],[19.6167,43.5688,1054.5009],[19.6233,43.5611,928.4584],[19.6268,43.5597,888.8119],[19.6396,43.5652,980.9257],[19.6435,43.5688,868.7326],[19.6468,43.5753,951.5721],[19.6531,43.579,634.4449],[19.6616,43.5782,657.4589],[19.669,43.5735,915.5208],[19.6777,43.5751,1000.5087],[19.6957,43.5892,977.082],[19.701,43.5969,901.3644],[19.712,43.6041,1054.6453],[19.7212,43.6143,1029.9348],[19.7269,43.6169,1123.5079],[19.7369,43.6151,1100.1848],[19.7482,43.6082,1268.9214],[19.7554,43.5958,1079.2423],[19.7581,43.5802,1006.8676],[19.7635,43.5761,1027.9462],[19.77,43.5764,1123.9692],[19.7813,43.5842,1284.2853],[19.7916,43.5877,1426.3186],[19.7986,43.5876,1365.9189],[19.8137,43.5829,1335.0137],[19.8336,43.5875,1074.2544],[19.8421,43.5854,1183.1927],[19.8562,43.578,1222.0314],[19.8828,43.5744,1064.7114],[19.8831,43.5866,1026.4565],[19.8863,43.6052,878.0707],[19.8825,43.6091,839.2228],[19.8596,43.6186,794.5422],[19.8566,43.6237,937.2833],[19.8615,43.6279,1046.7617],[19.8731,43.63,1040.0911],[19.8789,43.6327,1021.3735],[19.8801,43.6352,974.399],[19.8797,43.6458,683.2509],[19.8911,43.6512,859.6252],[19.8934,43.6576,837.8942],[19.8907,43.664,884.674],[19.8798,43.67,869.5547],[19.8713,43.6782,963.5042],[19.8694,43.6872,849.8607],[19.8664,43.6913,816.813],[19.8494,43.6991,800.3357],[19.8427,43.7104,800.4906],[19.8352,43.7138,818.141],[19.8055,43.7207,852.9526],[19.797,43.7261,928.7858],[19.7966,43.7289,853.608],[19.7991,43.7334,873.9281],[19.8177,43.7495,794.9537],[19.8104,43.7644,730.1229],[19.8036,43.7727,713.8112],[19.7983,43.7769,728.8961],[19.78,43.7857,728.0285],[19.7729,43.7935,712.5813],[19.7667,43.7956,697.9685],[19.7475,43.7949,630.7344],[19.734,43.7902,722.2035],[19.7251,43.785,695.6125],[19.7185,43.7853,702.1395],[19.716,43.7887,677.6083],[19.714,43.8008,774.6145],[19.7227,43.8119,755.1818],[19.7224,43.8219,727.6014],[19.7178,43.8262,694.3171],[19.6958,43.8313,828.7198],[19.6877,43.8283,835.5476],[19.6862,43.8257,857.2354],[19.6862,43.8185,753.176],[19.6784,43.8153,887.8524],[19.6668,43.8154,854.7517],[19.6436,43.8199,894.4592],[19.6114,43.8191,793.7912],[19.6092,43.8167,809.3099],[19.609,43.8096,868.5264],[19.6051,43.8055,927.3297],[19.5881,43.8035,1092.6764],[19.5789,43.7992,1023.3743],[19.5722,43.7866,820.9454],[19.5711,43.7801,995.9188],[19.5645,43.7757,1079.222],[19.5444,43.7701,1049.5239],[19.5273,43.775,833.4601],[19.5141,43.7766,643.7242],[19.5095,43.7748,720.6155],[19.5091,43.7711,797.8944],[19.5156,43.7587,771.7939],[19.5134,43.7493,1013.5583],[19.5147,43.7331,643.3082],[19.5114,43.727,530.8903],[19.5026,43.7237,706.9172],[19.5105,43.7199,690.858],[19.5072,43.6966,736.252],[19.5157,43.6712,965.3024],[19.501,43.6481,761.5713],[19.4818,43.6388,467.816],[19.4904,43.6273,399.4717],[19.4863,43.6147,502.5459]]]]}
,"properties": {"GID_2": "SRB.25.3_1","GID_0": "SRB","country": "Serbia","GID_1": "SRB.25_1","province": "Zlatiborski","NL_NAME_1": "Златиборски","county": "Čajetina","VARNAME_2": "NA","NL_NAME_2": "Чајетина","TYPE_2": "Opštine","ENGTYPE_2": "Town|Municipal","CC_2": "NA","HASC_2": "NA","name": "Čajetina.county","area_km2": 640.2934,"hist_schema_id": "Elevation0-9000","hist_area_km2": {"400": 1.1972,"425": 1.1356,"450": 1.2892,"475": 1.059,"500": 1.6576,"525": 1.7802,"550": 2.3785,"575": 2.8693,"600": 2.8388,"625": 3.6662,"650": 5.3669,"675": 9.4705,"700": 15.5356,"725": 16.4243,"750": 18.8159,"775": 20.9905,"800": 24.2723,"825": 25.5317,"850": 26.6984,"875": 29.7039,"900": 32.2657,"925": 35.7768,"950": 41.5231,"975": 47.5938,"1000": 45.3009,"1025": 42.0581,"1050": 34.8279,"1075": 29.9708,"1100": 23.5778,"1125": 17.9956,"1150": 14.2376,"1175": 12.7655,"1200": 10.9861,"1225": 10.2202,"1250": 8.5017,"1275": 7.0437,"1300": 4.6496,"1325": 3.3605,"1350": 2.1176,"1375": 1.2889,"1400": 0.8439,"1425": 0.399,"1450": 0.1842,"1475": 0.1074,"1500": 0.0153}}}