{"type":"Feature","properties":{"GID_2":"SRB.2.2_1","GID_0":"SRB","country":"Serbia","GID_1":"SRB.2_1","province":"Braničevski","NL_NAME_1":"Браничевски","county":"Kučevo","VARNAME_2":"NA","NL_NAME_2":"Кучево","TYPE_2":"Opštine","ENGTYPE_2":"Town|Municipal","CC_2":"NA","HASC_2":"NA","name":"Kučevo.county"},
"geometry":{"type": "MultiPolygon","coordinates": [[[[21.9298,44.5144,458.1237],[21.914,44.5182,509.6472],[21.8799,44.5486,356.1909],[21.8464,44.5534,568.0],[21.8217,44.5613,643.8398],[21.807,44.5638,589.862],[21.8019,44.5674,393.1814],[21.7891,44.5855,465.3275],[21.7724,44.5877,390.0449],[21.7516,44.5938,341.1891],[21.7391,44.5952,334.7592],[21.7364,44.5952,305.4713],[21.733,44.5904,285.9189],[21.7218,44.5823,392.9236],[21.7072,44.5762,513.6133],[21.6957,44.5625,435.2309],[21.6865,44.5563,464.9537],[21.6667,44.5527,244.8315],[21.6505,44.553,317.7736],[21.6289,44.5468,337.11],[21.6111,44.5479,254.0182],[21.5872,44.561,201.5636],[21.576,44.5632,129.4737],[21.5623,44.5591,117.9484],[21.5568,44.5555,121.8127],[21.5488,44.5467,138.6949],[21.542,44.5455,201.0309],[21.5365,44.5497,193.727],[21.5364,44.5585,134.5807],[21.5387,44.5616,121.6366],[21.5487,44.5676,113.6174],[21.5496,44.5704,113.8099],[21.5422,44.5746,111.8672],[21.5325,44.5732,114.41],[21.4946,44.5578,194.5743],[21.495,44.5539,215.9899],[21.4814,44.5497,264.1908],[21.4762,44.5463,256.6185],[21.4715,44.5406,219.3611],[21.4653,44.5167,179.8416],[21.4779,44.5122,219.4019],[21.4904,44.5111,239.2723],[21.495,44.5089,265.3381],[21.5004,44.498,173.2809],[21.5007,44.4896,237.9052],[21.5055,44.4762,272.2955],[21.5111,44.4694,232.6],[21.539,44.4618,328.8824],[21.5653,44.462,380.6616],[21.5738,44.4575,387.0823],[21.5715,44.4487,393.2375],[21.5737,44.4412,348.0284],[21.5725,44.428,437.4081],[21.5736,44.4226,391.5046],[21.5785,44.4135,440.9295],[21.5777,44.4013,433.9438],[21.590699999999998,44.3774,483.0278],[21.604,44.368899999999996,613.6105],[21.6042,44.3649,687.8909],[21.6002,44.3528,519.3101],[21.6022,44.3485,500.7396],[21.6127,44.3385,622.8488],[21.6283,44.3305,601.3603],[21.6528,44.3354,667.2311],[21.666,44.335,746.1922],[21.672,44.3323,779.7632],[21.6862,44.3186,735.8309],[21.6916,44.3153,678.965],[21.703,44.3147,581.6398],[21.7128,44.3186,681.834],[21.7184,44.319,677.5511],[21.7434,44.3031,673.4244],[21.7621,44.2958,678.4028],[21.7706,44.2949,594.7407],[21.7844,44.2963,561.01],[21.7972,44.2947,681.631],[21.8157,44.2981,745.0505],[21.8071,44.3131,829.2117],[21.8129,44.3233,649.6445],[21.813,44.3274,703.9775],[21.8085,44.3328,635.4797],[21.7964,44.3409,595.7725],[21.7943,44.3505,450.6373],[21.7956,44.3585,526.9929],[21.7997,44.3638,747.5737],[21.8091,44.3679,634.0317],[21.8152,44.3731,568.5996],[21.8177,44.3785,506.0563],[21.8194,44.3921,531.723],[21.8215,44.3951,609.4094],[21.8318,44.3988,612.3788],[21.8492,44.395,509.9954],[21.854,44.3958,527.644],[21.8583,44.3993,563.3725],[21.8642,44.4088,351.5638],[21.8718,44.414,281.6669],[21.882,44.4245,463.6417],[21.8892,44.4267,470.2762],[21.9125,44.4257,597.9365],[21.9163,44.4268,549.2684],[21.9196,44.4301,474.9721],[21.9247,44.4418,656.0158],[21.9176,44.4568,600.1802],[21.9169,44.4635,506.2875],[21.9182,44.4673,535.291],[21.9253,44.4759,617.7933],[21.9286,44.4864,602.0862],[21.9348,44.4948,630.085],[21.935,44.5061,597.7159],[21.9298,44.5144,458.1237]]]]}}