{"type":"Feature","properties":{"GID_2":"SRB.8.5_1","GID_0":"SRB","country":"Serbia","GID_1":"SRB.8_1","province":"Mačvanski","NL_NAME_1":"Мачвански","county":"Loznica","VARNAME_2":"AdDrinum.","NL_NAME_2":"Лозница","TYPE_2":"Opštine","ENGTYPE_2":"Town|Municipal","CC_2":"NA","HASC_2":"NA","name":"Loznica.county"},
"geometry":{"type": "MultiPolygon","coordinates": [[[[19.1844,44.5743,112.0],[19.1876,44.5682,117.3639],[19.1848,44.5596,122.3209],[19.176,44.5508,160.2616],[19.1677,44.5372,172.5888],[19.1582,44.5333,179.7862],[19.1307,44.5335,124.1124],[19.1222,44.5266,124.7714],[19.1242,44.4966,127.4135],[19.1295,44.4772,129.2359],[19.1524,44.4821,337.8326],[19.1612,44.479,499.051],[19.1848,44.4568,273.618],[19.1991,44.4489,381.0386],[19.2015,44.4458,322.1088],[19.2008,44.4416,254.8239],[19.1938,44.4291,298.9054],[19.1934,44.4148,285.1872],[19.1971,44.4093,202.3488],[19.2047,44.4047,247.4806],[19.2242,44.3983,372.787],[19.2354,44.3917,524.5403],[19.2623,44.3856,682.7451],[19.2634,44.3966,682.89],[19.2621,44.4014,705.3971],[19.2521,44.4104,592.8967],[19.251,44.4131,531.1397],[19.2595,44.4265,508.4518],[19.2649,44.4305,626.3801],[19.2907,44.4377,459.3933],[19.3098,44.4369,503.4195],[19.3617,44.4566,371.0114],[19.3705,44.4539,383.2263],[19.3899,44.439,342.6215],[19.396,44.4383,384.0639],[19.4031,44.4408,414.428],[19.4105,44.4461,396.5866],[19.4224,44.4604,342.9282],[19.4309,44.463,283.1156],[19.4465,44.4655,237.5938],[19.463,44.4648,171.2705],[19.4803,44.4679,209.0255],[19.5004,44.465,239.0588],[19.5246,44.4698,294.138],[19.5276,44.4708,303.5644],[19.5288,44.4786,312.8209],[19.5388,44.4889,329.92],[19.5441,44.4997,253.0102],[19.5458,44.5093,265.2294],[19.5442,44.5131,266.8461],[19.5267,44.5247,212.3805],[19.5205,44.5312,218.3776],[19.5142,44.541,246.0293],[19.5092,44.5617,246.9148],[19.4972,44.5746,260.3901],[19.4898,44.5793,274.627],[19.4854,44.5879,351.8668],[19.476,44.5943,389.5894],[19.453,44.604,324.7531],[19.4343,44.6029,440.9922],[19.4028,44.612,344.8516],[19.3955,44.6192,451.8263],[19.3932,44.6237,312.3979],[19.3909,44.6515,146.7394],[19.3782,44.6666,119.9099],[19.3681,44.6706,110.4934],[19.351,44.6701,100.5045],[19.3342,44.6823,99.1555],[19.3275,44.6906,98.5373],[19.3077,44.7025,95.9367],[19.2968,44.7036,99.2373],[19.2754,44.69,99.0705],[19.2655,44.6771,100.9087],[19.2522,44.6553,104.2516],[19.2507,44.6467,107.5676],[19.2457,44.6382,106.3438],[19.2373,44.6296,106.3095],[19.2279,44.6059,110.5725],[19.2202,44.5953,111.9344],[19.2152,44.5902,111.4562],[19.2069,44.588,112.2381],[19.1907,44.5882,130.626],[19.1829,44.5773,125.982],[19.1844,44.5743,112.0]]]]}}