{"type":"Feature","properties":{"GID_2":"SRB.9.1_1","GID_0":"SRB","country":"Serbia","GID_1":"SRB.9_1","province":"Moravički","NL_NAME_1":"Моравички","county":"Čačak","VARNAME_2":"NA","NL_NAME_2":"Чачак","TYPE_2":"Opštine","ENGTYPE_2":"Town|Municipal","CC_2":"NA","HASC_2":"NA","name":"Čačak.county"},
"geometry":{"type": "MultiPolygon","coordinates": [[[[20.4367,43.7094,531.4745],[20.4435,43.7224,730.5946],[20.4498,43.7276,519.6394],[20.4739,43.7327,428.4311],[20.4892,43.739,321.3693],[20.5027,43.7372,347.0958],[20.5095,43.7379,308.4272],[20.5259,43.7452,265.3107],[20.5294,43.7484,247.0671],[20.5306,43.7521,249.2436],[20.5236,43.7644,258.7003],[20.5234,43.7699,247.7968],[20.5331,43.7828,228.6691],[20.5462,43.7878,214.1572],[20.5638,43.8008,209.3761],[20.5639,43.8063,202.3987],[20.5578,43.8143,208.0975],[20.5591,43.8198,211.1562],[20.5691,43.8255,210.8873],[20.5938,43.8452,232.521],[20.6208,43.8592,336.5728],[20.6061,43.8699,288.871],[20.5911,43.8919,284.3954],[20.5833,43.9004,308.0737],[20.5764,43.9046,335.0497],[20.5609,43.9086,439.7868],[20.5477,43.9156,424.7046],[20.5448,43.9198,437.1573],[20.5434,43.9342,543.8372],[20.5401,43.9373,584.0699],[20.5315,43.942,644.2987],[20.5262,43.9469,722.9976],[20.5122,43.9456,665.7753],[20.4998,43.9467,502.968],[20.489,43.9436,433.1236],[20.477,43.9464,356.1085],[20.4648,43.9469,386.2065],[20.4575,43.9503,373.3111],[20.4483,43.9596,414.4083],[20.4412,43.9609,387.4568],[20.4311,43.9518,366.5311],[20.4173,43.9428,279.7443],[20.4016,43.939,245.8875],[20.387,43.93,320.6233],[20.3726,43.9265,260.6112],[20.3569,43.9256,253.4152],[20.3525,43.9274,260.8912],[20.3496,43.9318,268.3629],[20.3456,43.9452,298.5835],[20.3464,43.9578,319.1208],[20.3291,43.9671,317.1474],[20.3221,43.977,344.0636],[20.3149,43.9799,433.4383],[20.3003,43.9793,402.0482],[20.2797,43.9815,430.3167],[20.2685,43.9806,378.1547],[20.2512,43.9754,474.8485],[20.2341,43.9784,417.0405],[20.2272,43.9664,488.5268],[20.215,43.9577,531.9659],[20.2074,43.9474,428.3802],[20.2004,43.9446,328.6707],[20.1929,43.9442,432.9019],[20.1782,43.9469,586.8613],[20.1587,43.9405,755.1693],[20.1504,43.9395,639.0921],[20.121,43.9472,659.722],[20.1108,43.9518,688.5432],[20.0962,43.9499,716.5284],[20.1041,43.9328,531.3109],[20.0984,43.9263,501.4962],[20.0883,43.9205,589.3101],[20.0871,43.9158,617.0637],[20.0892,43.9118,612.1044],[20.0995,43.9011,581.2665],[20.1163,43.8905,323.6886],[20.1556,43.877,591.0206],[20.1775,43.8832,682.4814],[20.1998,43.8783,455.2142],[20.2212,43.8613,463.3525],[20.2483,43.848,452.7678],[20.253,43.8388,494.1661],[20.2654,43.828,435.6822],[20.2714,43.8187,398.9896],[20.2745,43.8166,446.0888],[20.2907,43.8122,451.5307],[20.3209,43.7968,493.2039],[20.3608,43.792,895.9219],[20.3743,43.7818,757.2802],[20.3797,43.7684,722.4213],[20.3893,43.7594,710.7845],[20.3945,43.7502,781.0589],[20.4073,43.7383,691.9213],[20.4159,43.7261,808.6047],[20.4158,43.7171,689.3642],[20.4173,43.7129,618.0748],[20.425,43.709,654.0117],[20.4367,43.7094,531.4745]]]]}}