{"type": "Feature","bbox": [19.6603,44.6812,20.0028,45.1015],"geometry": {"type": "MultiPolygon","coordinates": [[[[19.8326,44.6911,127.1161],[19.8545,44.6839,129.2205],[19.8767,44.6812,122.8544],[19.8829,44.6898,98.2505],[19.8836,44.6995,71.5],[19.8791,44.7133,93.8515],[19.8635,44.735,87.7954],[19.863,44.7385,89.9933],[19.8662,44.7407,89.8178],[19.872,44.7413,94.0079],[19.8841,44.7411,74.5124],[19.8944,44.7354,76.9987],[19.8975,44.736,90.2518],[19.8994,44.7381,82.1],[19.8975,44.7433,77.3258],[19.887,44.7488,92.7899],[19.8753,44.7606,77.5262],[19.8608,44.7694,77.8032],[19.8592,44.7725,79.0706],[19.8637,44.7765,79.2155],[19.8887,44.7876,86.9422],[19.8898,44.7916,90.7995],[19.8835,44.7986,86.658],[19.8823,44.8034,97.7026],[19.8937,44.8178,81.3924],[19.9034,44.8262,77.0646],[19.9045,44.8301,77.9237],[19.9003,44.8334,77.6088],[19.8918,44.836,77.3765],[19.8707,44.8358,80.355],[19.8672,44.8376,89.7613],[19.867,44.8401,78.4599],[19.8753,44.8539,78.9806],[19.8776,44.8616,76.9836],[19.8822,44.8658,77.6171],[19.8932,44.868899999999996,77.3206],[19.92,44.8699,76.6275],[19.9266,44.872,77.8922],[19.9298,44.8752,77.13],[19.9263,44.8777,76.5737],[19.8997,44.8827,77.8388],[19.8923,44.8922,77.2602],[19.8844,44.8972,77.0927],[19.8836,44.9027,78.1686],[19.8897,44.9091,78.9852],[19.9081,44.9178,80.6532],[19.941,44.924,81.8822],[19.972,44.9279,82.8792],[19.9931,44.9379,84.8083],[19.9907,44.9487,86.919],[19.9911,44.9555,88.0798],[19.9959,44.9633,88.4043],[19.9984,44.9723,91.0469],[20.0027,44.9805,93.4029],[20.0028,44.9867,94.883],[19.9951,44.9983,101.4465],[19.9936,45.0034,103.1847],[19.9874,45.0092,107.2519],[19.9839,45.0165,109.0057],[19.9834,45.0218,109.691],[19.9859,45.0341,116.8857],[19.9623,45.0262,115.6044],[19.9496,45.0249,115.4873],[19.9314,45.0197,118.8262],[19.9149,45.0178,121.3767],[19.9111,45.0184,113.9504],[19.9005,45.025,124.8325],[19.887,45.0288,129.8154],[19.8683,45.0381,133.8139],[19.8604,45.04,119.336],[19.8275,45.0328,133.3962],[19.8119,45.0252,122.0729],[19.7854,45.0198,113.5853],[19.782,45.0175,110.7736],[19.7756,45.0177,107.3052],[19.7757,45.0219,110.9886],[19.7825,45.025,118.0976],[19.7845,45.0306,122.346],[19.7842,45.0712,162.7159],[19.7835,45.0746,166.0737],[19.7805,45.0765,164.1114],[19.7717,45.0734,157.0555],[19.7623,45.0647,134.6588],[19.7522,45.0488,117.9529],[19.7478,45.0355,117.7061],[19.748,45.0207,105.6243],[19.7461,45.0137,96.538],[19.7372,45.0086,94.1594],[19.726,45.0087,94.3442],[19.7214,45.013,95.947],[19.7208,45.0199,99.0745],[19.7221,45.0244,100.3345],[19.7292,45.0351,106.0964],[19.7288,45.0482,115.1938],[19.7116,45.062,128.204],[19.7115,45.066,135.8238],[19.7176,45.0761,148.986],[19.7159,45.0801,154.3693],[19.7096,45.0858,148.6075],[19.7158,45.0961,198.2801],[19.7111,45.1015,173.3244],[19.7038,45.1003,198.4578],[19.7025,45.0977,193.3237],[19.7027,45.0882,171.7941],[19.695,45.0816,156.6136],[19.6909,45.067,130.912],[19.6839,45.0581,116.6689],[19.6888,45.049,107.6066],[19.6904,45.033,98.575],[19.6964,45.0196,95.4549],[19.7002,45.001,90.9439],[19.6978,44.9979,89.6182],[19.69,44.9947,87.4096],[19.6699,44.993899999999996,87.0747],[19.6634,44.992,86.7341],[19.6603,44.9889,85.5157],[19.6614,44.9854,84.2283],[19.6687,44.9789,84.8664],[19.695,44.9706,84.6166],[19.7306,44.9679,87.4386],[19.7452,44.9594,87.3268],[19.7864,44.9467,86.3704],[19.7946,44.9431,89.0072],[19.7989,44.9394,86.4763],[19.8003,44.9286,84.2942],[19.7925,44.9111,83.1622],[19.7773,44.8923,79.9138],[19.748,44.8811,76.4321],[19.7409,44.8835,71.5],[19.7324,44.89,76.4401],[19.7067,44.8724,80.0455],[19.683,44.8434,77.7108],[19.6733,44.8289,78.8425],[19.6693,44.8141,80.8406],[19.6687,44.7937,78.7218],[19.6661,44.7822,78.8331],[19.6667,44.7526,80.0591],[19.6705,44.7462,81.5615],[19.6897,44.7333,96.073],[19.6974,44.7306,96.2109],[19.7338,44.7302,83.9241],[19.7619,44.7368,79.5653],[19.7778,44.7336,78.599],[19.7938,44.7238,79.1553],[19.8326,44.6911,127.1161]]]]}
,"properties": {"GID_2": "SRB.20.4_1","GID_0": "SRB","country": "Serbia","GID_1": "SRB.20_1","province": "Sremski","NL_NAME_1": "Сремски","county": "Ruma","VARNAME_2": "NA","NL_NAME_2": "Рума","TYPE_2": "Opštine","ENGTYPE_2": "Town|Municipal","CC_2": "NA","HASC_2": "NA","name": "Ruma.county","area_km2": 606.4585,"hist_schema_id": "Elevation0-9000","hist_area_km2": {"75": 338.6647,"100": 199.7857,"125": 59.2774,"150": 7.4585,"175": 0.8981,"200": 0.3742}}}