{"type":"Feature","properties":{"GID_2":"SRB.25.4_1","GID_0":"SRB","country":"Serbia","GID_1":"SRB.25_1","province":"Zlatiborski","NL_NAME_1":"Златиборски","county":"Kosjerić","VARNAME_2":"NA","NL_NAME_2":"Косјерић","TYPE_2":"Opštine","ENGTYPE_2":"Town|Municipal","CC_2":"NA","HASC_2":"NA","name":"Kosjerić.county"},
"geometry":{"type": "MultiPolygon","coordinates": [[[[19.6895,44.1226,938.4752],[19.6976,44.1025,695.8049],[19.7125,44.0938,1031.1959],[19.7142,44.0893,747.4945],[19.7038,44.0768,581.9064],[19.7012,44.0703,746.011],[19.689,44.0621,876.5735],[19.6738,44.0453,623.1738],[19.67,44.0399,590.6982],[19.6695,44.0357,489.2664],[19.6776,44.0256,530.0635],[19.6847,44.0217,491.1854],[19.6921,44.0214,675.0168],[19.7015,44.0238,755.0309],[19.7232,44.0194,661.9009],[19.7289,44.0168,489.4132],[19.7385,44.0063,522.4404],[19.747,43.9896,643.8892],[19.7451,43.9725,653.6818],[19.751,43.9647,813.1616],[19.7641,43.9618,856.2122],[19.7695,43.9568,808.8832],[19.8032,43.9459,844.6656],[19.8318,43.9457,737.8417],[19.86,43.9511,529.483],[19.8803,43.9467,470.6913],[19.9034,43.9491,524.7125],[19.9077,43.9477,549.3097],[19.9122,43.9436,511.173],[19.9213,43.9281,501.9854],[19.9427,43.9282,645.0399],[19.9576,43.9309,560.1781],[19.9718,43.9364,586.2107],[19.9802,43.9447,550.1703],[19.98,43.952,524.1548],[19.9827,43.9585,440.7859],[19.997,43.969,517.8222],[19.9996,43.9779,553.6013],[19.9988,43.9805,541.3961],[19.9892,43.9881,544.0925],[19.9817,44.0009,555.7733],[19.9718,44.0106,721.9197],[19.9723,44.0135,751.2808],[19.9778,44.0196,695.8204],[19.9781,44.0229,660.483],[19.9708,44.031,585.9869],[19.9674,44.0496,535.6973],[19.9707,44.0633,562.3866],[19.9778,44.0756,784.1658],[19.9539,44.0784,688.119],[19.9164,44.094,584.1159],[19.9049,44.1047,774.7263],[19.904,44.1086,862.7906],[19.91,44.1151,881.865],[19.9104,44.1187,819.9923],[19.9014,44.1247,799.7682],[19.8873,44.1288,677.4584],[19.8627,44.1296,643.7346],[19.8598,44.1276,485.794],[19.8538,44.1165,647.23],[19.841,44.1128,602.1301],[19.829,44.1049,894.5079],[19.8121,44.1113,827.4968],[19.8003,44.1198,784.2168],[19.796,44.1213,757.8749],[19.7867,44.1213,914.0646],[19.7757,44.117,1057.379],[19.7736,44.1136,989.1323],[19.775,44.1112,1026.9062],[19.7939,44.1008,877.9615],[19.7993,44.0955,842.4144],[19.8064,44.0835,766.0894],[19.81,44.0738,784.915],[19.8112,44.0629,766.2945],[19.8101,44.0577,670.9346],[19.8062,44.0539,731.9849],[19.7994,44.0522,728.326],[19.785,44.0529,663.2749],[19.7759,44.0563,730.4651],[19.7741,44.0602,772.9562],[19.7761,44.0675,874.5309],[19.774,44.0721,902.1045],[19.7621,44.0827,799.0543],[19.7555,44.0932,912.7325],[19.7397,44.1056,999.9368],[19.7343,44.1075,938.514],[19.7212,44.1079,903.3524],[19.7044,44.119,839.0376],[19.6895,44.1226,938.4752]]]]}}