{"type": "Feature","bbox": [19.5335,45.1451,20.0866,45.4316],"geometry": {"type": "MultiPolygon","coordinates": [[[[19.5335,45.2406,78.7819],[19.5438,45.2264,76.4554],[19.5459,45.2158,121.1515],[19.548,45.2132,130.2247],[19.5553,45.2093,120.7765],[19.5752,45.2063,108.4441],[19.5872,45.2068,121.5413],[19.606,45.2124,74.0],[19.6322,45.213,139.2842],[19.6539,45.2169,131.9644],[19.692,45.2194,85.0523],[19.7275,45.2189,76.5993],[19.7532,45.213,79.0028],[19.7594,45.2094,76.3887],[19.7643,45.2042,124.9941],[19.7646,45.2,178.9373],[19.7612,45.1901,252.0808],[19.7683,45.181399999999996,242.989],[19.7731,45.1671,332.0976],[19.792,45.1471,315.8309],[19.7973,45.1451,283.5359],[19.8197,45.1482,422.2971],[19.8681,45.1464,398.3934],[19.8869,45.1632,388.729],[19.8909,45.1765,305.6172],[19.8968,45.1854,187.9892],[19.8966,45.1905,170.4757],[19.8914,45.1972,152.4092],[19.8915,45.2005,152.1352],[19.9009,45.2125,157.8785],[19.9211,45.2266,81.1398],[19.926,45.2209,81.3919],[19.9231,45.2175,84.9532],[19.9355,45.2112,75.756],[19.9717,45.2037,76.7527],[19.9985,45.2018,74.2066],[20.0163,45.1952,80.6943],[20.0239,45.1858,78.2218],[20.0251,45.1812,74.2774],[20.0233,45.1751,73.5],[20.0148,45.1638,168.9834],[20.0165,45.1607,185.398],[20.0241,45.1571,140.7535],[20.0397,45.1587,179.0632],[20.0561,45.1548,160.9185],[20.0762,45.1648,134.9246],[20.0795,45.1698,73.0],[20.0801,45.1741,75.278],[20.0756,45.192,77.9161],[20.0866,45.2072,79.439],[20.0841,45.2127,79.5109],[20.0731,45.2185,79.1806],[20.0647,45.2255,76.336],[20.0615,45.2444,80.088],[20.0477,45.2576,78.9729],[20.0464,45.2625,80.6501],[20.0475,45.2682,79.9149],[20.0361,45.279,79.456],[20.0318,45.2873,80.0336],[20.0299,45.2956,80.9726],[20.0337,45.2999,80.1337],[20.0313,45.3028,79.6194],[20.0137,45.3085,79.9532],[19.993,45.3038,80.9279],[19.9808,45.3041,80.8562],[19.9654,45.3102,79.5249],[19.961,45.3145,79.9943],[19.961,45.3195,80.6992],[19.9673,45.3262,80.3875],[19.9687,45.3322,80.1784],[19.9662,45.3374,79.9759],[19.959,45.3415,79.0136],[19.9471,45.3454,79.5947],[19.9325,45.3468,80.3318],[19.909,45.3526,80.7329],[19.8928,45.3481,81.1352],[19.8846,45.3481,80.932],[19.8627,45.3588,80.5434],[19.8449,45.3643,80.7604],[19.8257,45.3766,80.2809],[19.8119,45.3801,80.755],[19.8034,45.3857,80.6714],[19.7998,45.3919,79.6364],[19.8025,45.4017,80.0576],[19.8015,45.4056,79.5323],[19.7943,45.4138,81.4728],[19.7887,45.4169,80.5015],[19.7371,45.4213,80.8993],[19.7035,45.4152,83.0421],[19.6838,45.4295,81.408],[19.6743,45.4316,80.6943],[19.6647,45.4308,80.9911],[19.6428,45.4248,81.1439],[19.6214,45.4147,81.3787],[19.6093,45.4067,80.9915],[19.6312,45.3867,81.4591],[19.6496,45.3654,81.9892],[19.6572,45.3439,81.9945],[19.6557,45.3288,82.0536],[19.6516,45.3218,82.0761],[19.6444,45.3155,82.5598],[19.6375,45.3142,83.0967],[19.6137,45.3187,82.1463],[19.6069,45.3175,82.5573],[19.6027,45.3125,83.4924],[19.6039,45.2987,82.2133],[19.6023,45.294,82.4427],[19.5989,45.2917,82.2541],[19.5859,45.2897,81.156],[19.5827,45.2875,80.041],[19.5824,45.2816,79.9826],[19.5865,45.2736,80.1551],[19.5845,45.2662,77.4419],[19.5645,45.2513,75.3624],[19.5515,45.244,80.3561],[19.5335,45.2406,78.7819]]]]}
,"properties": {"GID_2": "SRB.5.6_1","GID_0": "SRB","country": "Serbia","GID_1": "SRB.5_1","province": "Južno-Bački","NL_NAME_1": "Јужнобачки","county": "NoviSad","VARNAME_2": "ÚjvidékVáros|MestoNovýSad","NL_NAME_2": "НовиСад","TYPE_2": "Opštine","ENGTYPE_2": "Town|Municipal","CC_2": "NA","HASC_2": "NA","name": "Novi_Sad.county","area_km2": 726.5805,"hist_schema_id": "Elevation0-9000","hist_area_km2": {"75": 627.4595,"100": 17.053,"125": 11.6197,"150": 10.4568,"175": 8.2027,"200": 8.6512,"225": 5.7678,"250": 4.4384,"275": 3.8259,"300": 4.1251,"325": 4.1701,"350": 3.3931,"375": 2.8253,"400": 3.1992,"425": 2.9752,"450": 3.0351,"475": 2.8706,"500": 2.1081,"525": 0.4037}}}