{"type": "Feature","bbox": [20.3782,45.3943,20.8341,45.7498],"geometry": {"type": "MultiPolygon","coordinates": [[[[20.8091,45.7475,78.2556],[20.8009,45.7498,78.3776],[20.7905,45.734,78.4864],[20.7904,45.7011,77.9082],[20.7506,45.6946,77.2277],[20.7272,45.6829,76.052],[20.7211,45.6779,75.9519],[20.7201,45.6743,76.009],[20.7213,45.6723,76.3935],[20.7298,45.6655,77.0649],[20.7344,45.6563,76.1147],[20.7354,45.6493,76.6766],[20.7337,45.644,77.2099],[20.7215,45.638,76.4342],[20.6811,45.6318,77.1754],[20.6752,45.6293,76.6239],[20.6733,45.6254,77.0594],[20.6741,45.6066,77.414],[20.6723,45.5991,76.5263],[20.6689,45.5969,76.1102],[20.6528,45.594,76.6842],[20.6436,45.5859,75.2248],[20.638,45.5831,75.135],[20.6331,45.5821,74.9893],[20.6255,45.5835,75.0491],[20.6131,45.593,75.2617],[20.6021,45.5984,74.9571],[20.5725,45.6072,76.9384],[20.5604,45.6146,74.8831],[20.5489,45.6151,75.1858],[20.5386,45.6188,76.0671],[20.5335,45.6175,76.4051],[20.5291,45.6131,76.2493],[20.511,45.6097,76.0327],[20.5004,45.6098,76.4561],[20.4783,45.6143,75.4291],[20.4319,45.6145,77.5423],[20.413,45.6088,77.5941],[20.3968,45.6065,77.9862],[20.3782,45.6013,78.666],[20.3864,45.5873,77.654],[20.4138,45.5608,76.177],[20.4281,45.5422,75.6728],[20.4774,45.4961,75.8258],[20.4786,45.4924,76.1266],[20.4764,45.4891,76.1979],[20.4598,45.4849,76.6253],[20.458,45.4824,76.8046],[20.4589,45.4792,76.7002],[20.4651,45.4749,77.3213],[20.482,45.4712,76.7936],[20.4872,45.4678,77.209],[20.4899,45.4639,76.7762],[20.4889,45.4557,77.4575],[20.4902,45.452,77.8351],[20.4935,45.4495,77.8258],[20.5042,45.4466,77.4224],[20.5079,45.4433,77.6619],[20.5168,45.42,78.069],[20.5333,45.408,78.0704],[20.5339,45.4014,78.1437],[20.5371,45.3975,78.3211],[20.5453,45.3943,78.2798],[20.5541,45.3953,78.1878],[20.5657,45.4092,77.4669],[20.5747,45.413,77.5225],[20.5893,45.4072,77.6147],[20.5999,45.409,77.8961],[20.6074,45.4143,77.5411],[20.6074,45.4243,77.8433],[20.6099,45.4269,77.9666],[20.6267,45.4299,77.9013],[20.6389,45.4341,78.1939],[20.6502,45.4317,78.062],[20.6583,45.4269,77.8876],[20.661,45.4236,77.7412],[20.6727,45.4201,77.6802],[20.6772,45.423,77.8399],[20.6891,45.4374,77.0288],[20.6857,45.4424,78.2175],[20.6693,45.4492,78.8445],[20.6697,45.4533,78.8206],[20.6793,45.4655,78.1673],[20.7107,45.4798,79.2578],[20.7191,45.4818,78.5532],[20.7243,45.4798,77.7649],[20.7339,45.468,78.3216],[20.738,45.4671,77.9516],[20.7454,45.4684,77.6111],[20.7562,45.4767,77.4793],[20.7622,45.4773,77.4431],[20.7703,45.5006,77.5641],[20.8086,45.5162,77.7896],[20.8295,45.5344,77.9185],[20.8341,45.5362,77.0067],[20.8212,45.5507,76.7375],[20.8248,45.5522,77.1368],[20.8129,45.5661,77.0411],[20.8152,45.5684,77.3933],[20.7969,45.588,78.1086],[20.7736,45.5831,79.2649],[20.7672,45.613,78.7032],[20.7808,45.6229,78.6572],[20.7905,45.6461,76.6154],[20.8066,45.6576,77.728],[20.8016,45.6723,78.1766],[20.8046,45.6824,77.9786],[20.7977,45.6874,78.6349],[20.8041,45.7002,78.497],[20.8004,45.7026,78.4545],[20.8027,45.7023,78.304],[20.8043,45.7382,78.004],[20.8091,45.7475,78.2556]]]]}
,"properties": {"GID_2": "SRB.19.4_1","GID_0": "SRB","country": "Serbia","GID_1": "SRB.19_1","province": "Srednje-Banatski","NL_NAME_1": "Средњебанатски","county": "Žitište","VARNAME_2": "Jitişte|Zitişte|SanktGeorgenan","NL_NAME_2": "Житиште","TYPE_2": "Opštine","ENGTYPE_2": "Town|Municipal","CC_2": "NA","HASC_2": "NA","name": "Žitište.county","area_km2": 576.0692,"hist_schema_id": "Elevation0-9000","hist_area_km2": {"75": 576.0544,"100": 0.0148}}}