{"type": "Feature","bbox": [19.8937,43.2605,20.4215,43.6523],"geometry": {"type": "MultiPolygon","coordinates": [[[[20.173,43.6523,641.5332],[20.1644,43.6365,521.5792],[20.1559,43.6319,413.7792],[20.1241,43.6421,498.2359],[20.1104,43.6438,760.2224],[20.0975,43.6417,921.1473],[20.089,43.6449,882.7616],[20.0827,43.6448,713.3945],[20.0825,43.6415,707.4307],[20.0858,43.6379,845.9231],[20.0848,43.619,689.5569],[20.086,43.6127,631.8032],[20.0825,43.6071,714.1317],[20.0752,43.6032,874.1788],[20.0659,43.6013,933.7716],[20.0485,43.6058,976.5485],[20.0384,43.6041,1098.1249],[20.0128,43.587,1012.7292],[19.9966,43.5803,1147.2404],[19.9809,43.5674,1075.0979],[19.977,43.5608,882.6485],[19.9737,43.5585,929.7836],[19.9568,43.5538,1244.1517],[19.9496,43.5542,1198.5996],[19.9252,43.5685,1121.5077],[19.9089,43.5758,854.0731],[19.9063,43.5637,1107.7958],[19.9113,43.5499,1241.0917],[19.9084,43.5461,1176.1121],[19.8967,43.5403,1072.3004],[19.8937,43.5347,1167.5479],[19.905,43.5185,1187.2477],[19.9148,43.5116,1084.3154],[19.9225,43.509,1226.1082],[19.9386,43.5073,1150.083],[19.9509,43.5028,1257.7854],[19.9541,43.5003,1125.4565],[19.958,43.4924,1264.7496],[19.9615,43.4902,1142.0793],[19.986,43.4884,1259.7487],[19.9996,43.484,1304.5868],[20.0029,43.479,1204.6438],[20.0056,43.4686,1181.5383],[20.0131,43.4605,1142.7593],[20.011,43.4506,1272.9409],[20.0119,43.4424,1253.8325],[20.0221,43.4273,1229.6576],[20.0293,43.4205,1262.5284],[20.028199999999998,43.4193,1259.7335],[20.0482,43.3983,1147.2769],[20.0549,43.3856,1148.0957],[20.075,43.3677,1161.7264],[20.0775,43.3593,1169.1887],[20.0858,43.3463,1265.12],[20.0972,43.3349,1396.9468],[20.097,43.3289,1428.8562],[20.0912,43.3237,1214.7522],[20.0903,43.321,1188.2096],[20.0933,43.3144,1195.6355],[20.1004,43.309,1183.2191],[20.1096,43.3046,1284.0417],[20.119,43.2974,1311.7944],[20.1236,43.2964,1258.8716],[20.1376,43.3012,1225.2755],[20.1591,43.3031,1294.0361],[20.1738,43.308,1221.3505],[20.2061,43.31,1275.7747],[20.2406,43.3178,1356.0164],[20.2447,43.3175,1272.52],[20.2541,43.3148,1284.9915],[20.2644,43.3067,1173.485],[20.2674,43.2985,1070.5815],[20.2778,43.289,1289.2102],[20.287,43.2769,1456.2136],[20.3004,43.2684,1027.2764],[20.3189,43.2605,1158.0771],[20.3283,43.2607,1389.7319],[20.3358,43.2844,1701.4468],[20.3662,43.3003,1500.5131],[20.3787,43.3148,1582.115],[20.3827,43.3222,1571.2458],[20.388,43.3271,1498.468],[20.395,43.3302,1548.3427],[20.4058,43.3303,1448.366],[20.4116,43.3325,1342.5796],[20.4137,43.3354,1414.9165],[20.4147,43.3421,1452.4644],[20.4215,43.3488,1425.9418],[20.4207,43.3513,1379.2947],[20.4106,43.3596,1312.0933],[20.4089,43.3633,1166.5594],[20.4124,43.3767,997.4088],[20.4016,43.38,957.1562],[20.3964,43.3861,910.6972],[20.3978,43.3901,1072.947],[20.4039,43.3962,1223.4772],[20.4057,43.4003,1116.8259],[20.404,43.4043,1142.4574],[20.398,43.4102,1014.6369],[20.3947,43.4217,892.1738],[20.3997,43.4318,1046.6318],[20.4027,43.4432,1096.4424],[20.4034,43.4487,1231.3887],[20.4019,43.4541,1460.3555],[20.3886,43.4648,1123.9309],[20.3835,43.474,759.0337],[20.3702,43.4859,910.5385],[20.36,43.4928,922.2813],[20.3536,43.5004,794.5821],[20.3403,43.5057,905.8864],[20.3188,43.52,1174.7113],[20.3053,43.5332,892.1951],[20.3095,43.5371,1103.5297],[20.3436,43.551,1034.0769],[20.3527,43.5574,1144.0458],[20.3672,43.5781,1163.5603],[20.3667,43.5943,1155.9972],[20.3692,43.6029,1102.127],[20.3502,43.6069,944.9784],[20.333,43.6148,784.7184],[20.3285,43.6182,835.3312],[20.324,43.6253,960.1458],[20.32,43.627,900.9269],[20.2929,43.6254,645.2101],[20.2612,43.6265,688.4415],[20.2562,43.629,786.9817],[20.2509,43.6399,897.6857],[20.2389,43.6455,759.3953],[20.1933,43.6474,736.6001],[20.173,43.6523,641.5332]]]]}
,"properties": {"GID_2": "SRB.9.3_1","GID_0": "SRB","country": "Serbia","GID_1": "SRB.9_1","province": "Moravički","NL_NAME_1": "Моравички","county": "Ivanjica","VARNAME_2": "NA","NL_NAME_2": "Ивањица","TYPE_2": "Opštine","ENGTYPE_2": "Town|Municipal","CC_2": "NA","HASC_2": "NA","name": "Ivanjica.county","area_km2": 1079.7147,"hist_schema_id": "Elevation0-9000","hist_area_km2": {"400": 0.1074,"425": 3.0697,"450": 4.4827,"475": 4.6368,"500": 5.727,"525": 7.6622,"550": 9.2441,"575": 11.4713,"600": 13.407,"625": 14.714,"650": 16.4195,"675": 19.0638,"700": 19.897,"725": 21.8346,"750": 24.8952,"775": 25.6514,"800": 26.9929,"825": 27.8421,"850": 27.7999,"875": 29.4651,"900": 29.9437,"925": 31.8227,"950": 31.5494,"975": 32.7973,"1000": 32.8915,"1025": 32.2939,"1050": 32.7737,"1075": 32.7923,"1100": 33.3497,"1125": 32.9993,"1150": 34.7275,"1175": 35.0988,"1200": 36.1807,"1225": 39.526,"1250": 38.6688,"1275": 35.6083,"1300": 31.546,"1325": 27.5597,"1350": 27.3584,"1375": 22.8141,"1400": 19.521,"1425": 14.669,"1450": 12.0513,"1475": 10.6041,"1500": 8.8339,"1525": 7.6632999999999996,"1550": 6.6469,"1575": 5.9229,"1600": 4.9975,"1625": 4.5965,"1650": 4.7201,"1675": 4.4579,"1700": 3.193,"1725": 2.437,"1750": 1.2956,"1775": 0.7559,"1800": 0.509,"1825": 0.1542}}}