{"type": "Feature","bbox": [21.4694,43.3422,21.9153,43.698],"geometry": {"type": "MultiPolygon","coordinates": [[[[21.7019,43.3659,499.3655],[21.7398,43.3796,427.3776],[21.7619,43.3847,211.2135],[21.7662,43.3889,169.6646],[21.7664,43.3929,172.8616],[21.7646,43.3956,178.1305],[21.7554,43.4016,280.3815],[21.7494,43.4128,201.6621],[21.7515,43.4188,175.4105],[21.7615,43.4216,170.7993],[21.7733,43.4211,172.8263],[21.788,43.4173,171.6532],[21.7976,43.4193,186.0982],[21.807,43.4286,190.6936],[21.819,43.4446,281.4932],[21.8311,43.4532,287.4491],[21.8334,43.4612,345.5336],[21.839,43.4655,339.0715],[21.8509,43.4674,293.5637],[21.8756,43.462,413.3301],[21.9065,43.4583,306.9761],[21.8965,43.4767,437.0003],[21.8987,43.4799,449.3919],[21.9102,43.4875,567.4254],[21.9153,43.5006,534.765],[21.9127,43.5136,537.2015],[21.9031,43.5248,575.5353],[21.8835,43.5375,663.6315],[21.8711,43.5625,806.3918],[21.8631,43.5705,791.4344],[21.8518,43.5733,723.689],[21.8306,43.5702,600.438],[21.8118,43.5778,505.0938],[21.7753,43.5755,435.7064],[21.7515,43.5887,759.7419],[21.7499,43.5915,781.3219],[21.7505,43.6007,608.6176],[21.7474,43.6064,538.1551],[21.7382,43.615,464.2648],[21.7218,43.6248,445.1726],[21.7049,43.6418,255.5208],[21.6993,43.6566,349.6516],[21.6896,43.6654,335.9686],[21.6874,43.6864,559.7109],[21.6839,43.698,524.1372],[21.6402,43.6822,738.6332],[21.6173,43.6668,392.8557],[21.6163,43.6615,387.8534],[21.6266,43.6495,323.4917],[21.629,43.6391,334.0771],[21.6262,43.6284,247.6607],[21.6206,43.6211,214.0809],[21.6049,43.6128,183.6184],[21.5973,43.611,172.3592],[21.5805,43.6101,149.0429],[21.5669,43.6142,149.1726],[21.5626,43.6137,148.6641],[21.5554,43.6084,147.8054],[21.5473,43.5931,192.5537],[21.5406,43.59,296.8746],[21.5281,43.5872,393.7594],[21.514,43.5771,214.4941],[21.5182,43.5711,220.7379],[21.5222,43.5606,224.7957],[21.538,43.5509,283.2935],[21.5383,43.5427,276.0529],[21.5403,43.5387,267.0827],[21.5642,43.5215,340.553],[21.5663,43.5186,342.6369],[21.5672,43.5119,325.6785],[21.5655,43.5058,336.8588],[21.5459,43.4856,322.6876],[21.5482,43.472,336.2733],[21.5426,43.4622,376.1503],[21.5532,43.441,342.5025],[21.5653,43.4282,319.5034],[21.5667,43.4244,369.417],[21.5665,43.4177,386.1157],[21.5641,43.4135,441.9804],[21.5526,43.4023,488.6633],[21.5356,43.4012,676.4539],[21.5201,43.3928,898.0636],[21.5132,43.3815,847.6173],[21.4949,43.3741,1108.8127],[21.4694,43.3678,982.8098],[21.4874,43.3483,845.0679],[21.4933,43.3474,863.2726],[21.513,43.349,809.09],[21.5479,43.3422,612.5935],[21.5703,43.343,518.5118],[21.5939,43.3492,569.4545],[21.5929,43.3525,526.769],[21.5961,43.3567,638.8372],[21.6116,43.3647,694.1965],[21.6208,43.3671,638.5804],[21.6313,43.3659,668.6464],[21.6432,43.3574,595.564],[21.6503,43.3565,556.3229],[21.6906,43.3662,434.9649],[21.7019,43.3659,499.3655]]]]}
,"properties": {"GID_2": "SRB.10.1_1","GID_0": "SRB","country": "Serbia","GID_1": "SRB.10_1","province": "Nišavski","NL_NAME_1": "Нишавски","county": "Aleksinac","VARNAME_2": "NA","NL_NAME_2": "Алексинац","TYPE_2": "Opštine","ENGTYPE_2": "Town|Municipal","CC_2": "NA","HASC_2": "NA","name": "Aleksinac.county","area_km2": 709.1472,"hist_schema_id": "Elevation0-9000","hist_area_km2": {"150": 64.2829,"175": 83.3951,"200": 36.3415,"225": 46.4887,"250": 54.3812,"275": 58.3563,"300": 57.7325,"325": 45.1345,"350": 31.527,"375": 20.9597,"400": 19.4356,"425": 15.792,"450": 14.0399,"475": 13.9945,"500": 12.4879,"525": 11.9976,"550": 12.7993,"575": 12.371,"600": 10.5107,"625": 10.5601,"650": 9.7439,"675": 8.7574,"700": 7.6969,"725": 7.6674,"750": 7.1446,"775": 6.4532,"800": 5.5309,"825": 4.361,"850": 3.3443,"875": 3.1439,"900": 2.6508,"925": 1.7262,"950": 1.6338,"975": 1.4027,"1000": 1.156,"1025": 1.0789,"1050": 0.9248,"1075": 0.8169,"1100": 0.524,"1125": 0.3545,"1150": 0.3237,"1175": 0.1079,"1200": 0.0154}}}