{"type": "Feature","bbox": [20.0553,43.9254,20.6369,44.2418],"geometry": {"type": "MultiPolygon","coordinates": [[[[20.1505,44.0998,699.6011],[20.1291,44.0967,665.0783],[20.1236,44.0938,688.9734],[20.1231,44.0875,662.6589],[20.1277,44.0761,645.8835],[20.1246,44.0737,675.7868],[20.0833,44.0841,795.3905],[20.062,44.0853,778.8745],[20.0711,44.0674,727.0988],[20.0691,44.063,708.7269],[20.0595,44.0513,596.7332],[20.0591,44.047,552.573],[20.063,44.0374,519.5289],[20.0553,44.0267,630.9238],[20.0583,44.0217,599.6738],[20.0716,44.0134,784.8337],[20.0747,44.0077,802.605],[20.071,44.0019,811.9653],[20.0604,43.9933,777.1024],[20.0557,43.9824,608.8218],[20.0584,43.9789,625.5598],[20.0664,43.9768,635.977],[20.069,43.9748,654.4153],[20.0643,43.9658,585.4409],[20.068,43.9603,557.5723],[20.0872,43.9511,672.6634],[20.0962,43.9499,716.5284],[20.1108,43.9518,688.5432],[20.137,43.9423,716.4093],[20.1538,43.9396,679.5754],[20.1782,43.9469,586.8613],[20.1957,43.944,371.5339],[20.2041,43.9457,377.4125],[20.209,43.949,453.571],[20.215,43.9577,531.9659],[20.2272,43.9664,488.5268],[20.2341,43.9784,417.0405],[20.2512,43.9754,474.8485],[20.2721,43.9812,382.6832],[20.2874,43.9812,409.3898],[20.3003,43.9793,402.0482],[20.3149,43.9799,433.4383],[20.3221,43.977,344.0636],[20.3291,43.9671,317.1474],[20.3464,43.9578,319.1208],[20.3459,43.9436,286.1201],[20.3496,43.9318,268.3629],[20.3525,43.9274,260.8912],[20.3591,43.9254,249.5553],[20.3726,43.9265,260.6112],[20.387,43.93,320.6233],[20.4016,43.939,245.8875],[20.4173,43.9428,279.7443],[20.4311,43.9518,366.5311],[20.4412,43.9609,387.4568],[20.4483,43.9596,414.4083],[20.4575,43.9503,373.3111],[20.4648,43.9469,386.2065],[20.477,43.9464,356.1085],[20.489,43.9436,433.1236],[20.4998,43.9467,502.968],[20.5122,43.9456,665.7753],[20.5262,43.9469,722.9976],[20.545,43.9545,637.7431],[20.565,43.9668,443.9733],[20.567,43.9708,475.0735],[20.5663,43.98,531.3181],[20.5688,43.9849,587.2251],[20.5752,43.9921,681.8177],[20.5912,44.0015,645.5439],[20.595,44.0113,637.3474],[20.6009,44.012,536.775],[20.6133,44.0055,499.5992],[20.6186,44.0048,485.6117],[20.6279,44.0144,456.1509],[20.6369,44.0202,443.5793],[20.6235,44.033,362.3312],[20.6119,44.0406,340.8442],[20.6063,44.0484,428.3558],[20.5981,44.0541,568.6771],[20.5416,44.0775,842.1614],[20.5391,44.0814,718.1544],[20.5399,44.0914,900.5914],[20.5383,44.0999,648.9086],[20.5323,44.1104,801.275],[20.5186,44.1225,684.364],[20.5159,44.1329,971.1636],[20.5133,44.1367,807.8584],[20.4884,44.1511,584.7131],[20.4692,44.1531,414.8164],[20.462,44.1558,470.795],[20.4597,44.1599,537.0718],[20.4622,44.1697,649.5902],[20.4619,44.176,483.2194],[20.4502,44.1776,522.252],[20.4404,44.1895,468.549],[20.4322,44.2137,401.7403],[20.4362,44.2269,308.1511],[20.4231,44.2418,213.9479],[20.4053,44.2219,324.0579],[20.3992,44.2061,402.0375],[20.3958,44.2039,419.3896],[20.3828,44.2021,389.7052],[20.3791,44.2,382.4867],[20.3751,44.1911,307.4949],[20.3759,44.1816,344.909],[20.3722,44.1759,246.2739],[20.3665,44.1733,366.4691],[20.3512,44.1733,418.5994],[20.3396,44.1682,338.4166],[20.3363,44.1647,318.9031],[20.3373,44.1551,286.6022],[20.3351,44.152,304.6902],[20.328,44.1472,308.8434],[20.2984,44.1368,552.954],[20.293,44.1326,582.9302],[20.2868,44.1214,577.1149],[20.2797,44.12,658.1123],[20.2536,44.1192,635.781],[20.2292,44.1116,677.8275],[20.2124,44.114,636.0988],[20.1956,44.1115,643.8934],[20.1789,44.1124,672.567],[20.1714,44.1099,720.3891],[20.1603,44.1004,686.6279],[20.1505,44.0998,699.6011]]]]}
,"properties": {"GID_2": "SRB.9.2_1","GID_0": "SRB","country": "Serbia","GID_1": "SRB.9_1","province": "Moravički","NL_NAME_1": "Моравички","county": "GornjiMilanovac","VARNAME_2": "NA","NL_NAME_2": "ГoрњиМилановац","TYPE_2": "Opštine","ENGTYPE_2": "Town|Municipal","CC_2": "NA","HASC_2": "NA","name": "Gornji_Milanovac.county","area_km2": 831.2462,"hist_schema_id": "Elevation0-9000","hist_area_km2": {"200": 0.0304,"225": 0.1216,"250": 6.2213,"275": 10.1042,"300": 19.0465,"325": 32.2867,"350": 47.6917,"375": 56.0536,"400": 63.8886,"425": 71.0649,"450": 70.9915,"475": 62.8741,"500": 57.6814,"525": 52.9304,"550": 46.5924,"575": 41.7919,"600": 36.6398,"625": 31.6416,"650": 30.5617,"675": 27.6971,"700": 25.5029,"725": 16.2027,"750": 10.6862,"775": 6.9972,"800": 3.187,"825": 1.2504,"850": 0.7622,"875": 0.3809,"900": 0.1979,"925": 0.0761,"950": 0.0457,"975": 0.0152,"1000": 0.0304}}}