{"type": "Feature","bbox": [20.3283,43.1855,20.8381,43.4379],"geometry": {"type": "MultiPolygon","coordinates": [[[[20.7984,43.2441,1128.213],[20.8061,43.252,1292.6968],[20.8097,43.2598,1464.9402],[20.8081,43.2718,1755.9517],[20.8093,43.2834,1728.9138],[20.8052,43.2933,1710.0441],[20.8058,43.2987,1644.8423],[20.8087,43.3025,1656.7473],[20.8182,43.3083,1774.2795],[20.8237,43.3167,1908.7991],[20.8331,43.3238,1736.4187],[20.8381,43.3319,1620.3563],[20.832,43.3405,1510.0559],[20.8291,43.3527,1185.2327],[20.8326,43.3625,1328.6243],[20.8291,43.383,1309.2666],[20.8147,43.3856,1036.3201],[20.7982,43.3812,786.7409],[20.7911,43.3821,742.9673],[20.7731,43.3887,685.717],[20.7615,43.404,925.5546],[20.7617,43.4069,1030.8645],[20.771,43.4158,915.3168],[20.7701,43.4244,923.5447],[20.7746,43.4379,924.285],[20.7367,43.436,828.079],[20.6965,43.4238,840.6681],[20.6692,43.4246,559.7464],[20.6609,43.4204,420.797],[20.6603,43.4185,443.4525],[20.6633,43.4111,429.5607],[20.6592,43.4057,383.5358],[20.6528,43.4051,373.9441],[20.6277,43.411,703.8159],[20.6158,43.4107,669.7618],[20.6037,43.4059,688.0939],[20.5833,43.4009,767.1061],[20.5616,43.3869,781.4258],[20.5548,43.3843,690.5262],[20.5449,43.3856,688.8876],[20.5368,43.3889,694.321],[20.5345,43.3914,651.8246],[20.5334,43.3977,728.6255],[20.5316,43.3989,774.4041],[20.5185,43.3997,818.579],[20.4896,43.3963,1140.3462],[20.4775,43.3865,1070.8975],[20.4642,43.3812,1173.9388],[20.455,43.3737,1250.9961],[20.4473,43.3708,1243.3489],[20.441,43.3711,1271.168],[20.4267,43.3753,1091.2419],[20.4124,43.3767,997.4088],[20.4089,43.3633,1166.5594],[20.4106,43.3596,1312.0933],[20.4207,43.3513,1379.2947],[20.4215,43.3488,1425.9418],[20.4147,43.3421,1452.4644],[20.4127,43.3335,1403.1407],[20.4076,43.3307,1406.3926],[20.395,43.3302,1548.3427],[20.388,43.3271,1498.468],[20.3827,43.3222,1571.2458],[20.3787,43.3148,1582.115],[20.3662,43.3003,1500.5131],[20.3611,43.2966,1591.3074],[20.337,43.2855,1689.7838],[20.3345,43.2824,1684.2593],[20.3336,43.2754,1667.7159],[20.3283,43.2607,1389.7319],[20.3688,43.2729,1426.0892],[20.4364,43.2732,984.459],[20.4593,43.2593,885.6921],[20.4683,43.2513,968.5537],[20.4945,43.2367,717.2534],[20.5259,43.2255,567.5034],[20.5615,43.2004,536.6687],[20.5724,43.1898,560.2303],[20.5731,43.1855,633.2382],[20.6028,43.1863,740.0764],[20.6203,43.1893,859.2777],[20.6336,43.1882,820.728],[20.6417,43.1891,818.6102],[20.6505,43.1931,690.444],[20.6802,43.2156,603.0728],[20.69,43.2284,437.3315],[20.6994,43.2287,439.5138],[20.718,43.2231,594.3203],[20.7372,43.2239,733.4578],[20.7556,43.2213,791.8892],[20.7587,43.2232,817.9176],[20.76,43.2272,879.9561],[20.7577,43.2399,905.3017],[20.7626,43.2442,1114.9556],[20.7752,43.2461,1036.5979],[20.7984,43.2441,1128.213]]]]}
,"properties": {"GID_2": "SRB.16.3_1","GID_0": "SRB","country": "Serbia","GID_1": "SRB.16_1","province": "Raški","NL_NAME_1": "Рашки","county": "Raška","VARNAME_2": "NA","NL_NAME_2": "Рашка","TYPE_2": "Opštine","ENGTYPE_2": "Town|Municipal","CC_2": "NA","HASC_2": "NA","name": "Raška.county","area_km2": 676.3755,"hist_schema_id": "Elevation0-9000","hist_area_km2": {"375": 4.4683,"400": 12.9715,"425": 14.025,"450": 13.6539,"475": 15.3364,"500": 17.3425,"525": 20.2908,"550": 22.9139,"575": 24.7496,"600": 26.924,"625": 27.2486,"650": 27.1717,"675": 25.6297,"700": 23.9326,"725": 23.1303,"750": 22.3107,"775": 20.7206,"800": 19.0357,"825": 19.5141,"850": 17.9868,"875": 16.3505,"900": 15.1311,"925": 12.5402,"950": 12.3398,"975": 10.4114,"1000": 8.6679,"1025": 8.1593,"1050": 8.3286,"1075": 8.159,"1100": 8.7135,"1125": 9.5613,"1150": 8.421,"1175": 8.4518,"1200": 8.298,"1225": 7.6349,"1250": 7.0486,"1275": 6.8788,"1300": 6.3086,"1325": 6.031,"1350": 6.016,"1375": 6.2475,"1400": 6.6179,"1425": 5.9697,"1450": 6.7872,"1475": 6.988,"1500": 7.6823,"1525": 6.6645,"1550": 7.2203,"1575": 6.9582,"1600": 7.0511,"1625": 7.9927,"1650": 5.6929,"1675": 3.78,"1700": 2.7157,"1725": 1.7436,"1750": 1.1417,"1775": 0.8949,"1800": 0.4628,"1825": 0.4319,"1850": 0.2005,"1875": 0.1543,"1900": 0.108,"1925": 0.0617}}}