{"type": "Feature","bbox": [19.7498,45.4979,20.1208,45.7752],"geometry": {"type": "MultiPolygon","coordinates": [[[[19.9586,45.5045,79.2705],[19.9742,45.499,80.5575],[19.9844,45.4979,79.6591],[19.9943,45.4987,79.6065],[20.0087,45.5023,80.5331],[20.0425,45.5025,73.2305],[20.0435,45.511,73.3281],[20.0514,45.5295,73.4269],[20.0492,45.5358,73.767],[20.0392,45.5444,74.5947],[20.0395,45.5489,73.8981],[20.0434,45.5556,75.0559],[20.0471,45.5577,74.7429],[20.0639,45.5603,74.8279],[20.0784,45.5644,73.72],[20.0925,45.5733,74.2447],[20.1085,45.5774,74.6167],[20.1196,45.5838,74.0699],[20.1208,45.5879,73.9854],[20.1194,45.5921,75.7339],[20.1145,45.596,70.0],[20.1103,45.5969,70.0],[20.102,45.5959,73.8732],[20.0768,45.5863,81.9161],[20.0629,45.5879,75.1883],[20.0531,45.5912,75.0126],[20.0459,45.598,76.6558],[20.0427,45.6054,81.3094],[20.0428,45.609,81.0657],[20.0472,45.613,82.2169],[20.0642,45.6182,76.956],[20.0671,45.6206,76.1769],[20.067,45.6231,76.355],[20.0577,45.6282,75.7372],[20.0292,45.6313,81.3933],[20.0234,45.6341,80.9002],[20.0209,45.6373,80.8489],[20.0234,45.6437,79.1886],[20.0334,45.6523,80.0774],[20.0412,45.656,74.2137],[20.051,45.6576,73.7615],[20.0716,45.6547,74.3802],[20.0961,45.66,75.2503],[20.0978,45.6629,74.9531],[20.0962,45.6663,74.7948],[20.0778,45.6825,74.7757],[20.0759,45.6867,74.8136],[20.0839,45.704,81.8408],[20.0845,45.7137,80.2432],[20.092,45.7171,81.089],[20.1085,45.7155,75.08],[20.1203,45.7171,74.6305],[20.1126,45.7262,74.5294],[20.0989,45.7346,79.815],[20.0853,45.7461,79.5803],[20.074,45.7511,79.9382],[20.0525,45.7544,80.7312],[19.9923,45.7556,88.2246],[19.976,45.7627,88.2161],[19.9503,45.769,89.5915],[19.9311,45.7705,92.5886],[19.9048,45.7752,93.998],[19.8606,45.7722,94.9633],[19.8429,45.762,96.6351],[19.8201,45.7566,96.5986],[19.7905,45.7552,94.9669],[19.7674,45.7494,100.9301],[19.7498,45.7415,101.8292],[19.7594,45.7238,100.5931],[19.7587,45.7175,99.1835],[19.751,45.7069,98.7001],[19.7539,45.7018,96.7717],[19.7566,45.6998,96.3171],[19.7678,45.7017,94.7165],[19.7812,45.6981,93.5881],[19.8067,45.697,90.6606],[19.839,45.6911,91.5275],[19.8417,45.6886,92.4389],[19.843,45.6817,91.033],[19.8499,45.6723,91.1536],[19.8482,45.6607,91.1422],[19.8568,45.6532,88.8561],[19.8587,45.6441,87.6698],[19.8799,45.6253,84.1871],[19.8846,45.6193,83.8233],[19.8844,45.6144,83.0821],[19.8741,45.6065,80.8157],[19.862,45.5925,81.7699],[19.8598,45.5859,81.0258],[19.8525,45.5767,81.7601],[19.851,45.5599,81.3768],[19.8536,45.5547,78.9116],[19.8645,45.5482,78.2566],[19.8975,45.5375,80.1474],[19.905,45.5368,79.6223],[19.914,45.5408,79.0323],[19.919,45.5394,79.0006],[19.9295,45.5321,80.5086],[19.9364,45.5235,80.3745],[19.9586,45.5045,79.2705]]]]}
,"properties": {"GID_2": "SRB.5.4_1","GID_0": "SRB","country": "Serbia","GID_1": "SRB.5_1","province": "Južno-Bački","NL_NAME_1": "Јужнобачки","county": "Bečej","VARNAME_2": "Óbecse|Becei","NL_NAME_2": "Бечеј","TYPE_2": "Opštine","ENGTYPE_2": "Town|Municipal","CC_2": "NA","HASC_2": "NA","name": "Bečej.county","area_km2": 501.5576,"hist_schema_id": "Elevation0-9000","hist_area_km2": {"75": 374.8027,"100": 126.755}}}