{"type": "Feature","id": "1505","bbox": [19.17519,43.02222,20.2821,44.14501],"geometry": {"type": "Polygon","coordinates": [[[19.72565,44.10702,911.0692],[19.7212,44.10785,903.3524],[19.71826,44.10909,816.3779],[19.71562,44.11074,819.475],[19.70906,44.11617,832.7024],[19.70627,44.11808,836.4612],[19.70436,44.11904,839.0376],[19.70012,44.12051,856.0557],[19.69557,44.12154,953.4366],[19.68948,44.12258,938.4752],[19.68751,44.12273,938.4752],[19.67552,44.12511,887.1451],[19.67294,44.12586,950.7551],[19.67108,44.12676,950.7551],[19.66415,44.13173,934.8307],[19.6593,44.13741,943.9669],[19.65816,44.13818,999.2911],[19.6563,44.13886,960.3159],[19.64813,44.14046,915.3857],[19.63811,44.14387,964.2164],[19.63604,44.14449,953.8356],[19.63356,44.1449,877.4517],[19.63082,44.14501,941.204],[19.62695,44.1448,950.9369],[19.61816,44.14366,893.0529],[19.61878,44.14041,904.5936],[19.61858,44.13782,848.8287],[19.61759,44.13542,824.0797],[19.61268,44.12924,919.9125],[19.60933,44.1233,823.7963],[19.60741,44.12144,925.0449],[19.60498,44.11994,993.6573],[19.60292,44.11909,992.2709],[19.59873,44.11811,976.0162],[19.59584,44.11803,1001.8436],[19.59077,44.11883,988.3371],[19.58664,44.11989,1057.3577],[19.57863,44.12144,1113.2595],[19.57661,44.1217,1108.5333],[19.57382,44.1216,959.2059],[19.57124,44.12098,952.9827],[19.56132,44.11767,850.0309],[19.55925,44.1171,857.5601],[19.55016,44.1154,707.3042],[19.54799,44.11472,700.9529],[19.54602,44.11379,673.6149],[19.54292,44.11131,639.9355],[19.54054,44.10868,605.0246],[19.53217,44.09731,364.37],[19.52954,44.09496,322.585],[19.52706,44.09351,376.8845],[19.52292,44.0924,361.3607],[19.51619,44.09119,308.9845],[19.52204,44.08501,213.9447],[19.5546,44.07126,192.3089],[19.57093,44.0569,322.8151],[19.58023,44.05152,206.1555],[19.58385,44.05431,200.6088],[19.58995,44.06031,299.0198],[19.59894,44.06258,290.3832],[19.61144,44.05452,265.1194],[19.61888,44.03571,216.0115],[19.61041,44.01928,412.0994],[19.59336,44.00558,210.8203],[19.55222,43.98341,292.5264],[19.52855,43.97721,399.0466],[19.50406,43.97566,439.2244],[19.44711,43.9798,685.093],[19.39399,43.97706,453.0801],[19.37911,43.97385,486.6603],[19.36464,43.97329,293.6249],[19.35172,43.97913,305.2498],[19.32588,43.99659,587.0697],[19.30056,44.00951,842.2403],[19.28733,44.01303,1048.9795],[19.27276,44.01241,1212.1647],[19.25209,44.0075,482.1487],[19.24351,44.00202,713.933],[19.23803,43.99251,346.2655],[19.23813,43.98538,351.6506],[19.24289,43.97282,765.3304],[19.24072,43.96574,796.2433],[19.22935,43.95768,603.558],[19.24103,43.95236,421.1713],[19.27544,43.93326,788.3906],[19.30593,43.90474,1546.9829],[19.35947,43.84221,1110.6899],[19.46169,43.76214,493.5655],[19.48174,43.72922,718.5796],[19.50571,43.67364,861.3658],[19.50737,43.64718,899.7992],[19.48174,43.62891,496.4924],[19.4775,43.61698,683.6672],[19.47564,43.60256,374.9032],[19.47688,43.58868,631.4941],[19.48174,43.57812,1067.5211],[19.48897,43.57318,1320.2678],[19.49176,43.56861,1298.4662],[19.48959,43.56445,1151.703],[19.48174,43.56083,1057.5978],[19.44391,43.57186,818.7417],[19.43182,43.57114,605.0687],[19.41931,43.54926,445.6395],[19.41073,43.54075,582.4799],[19.40288,43.54964,548.9526],[19.39461,43.56646,809.2017],[19.38045,43.58558,539.6805],[19.3634,43.60158,502.7995],[19.34655,43.60884,596.3196],[19.3358,43.60651,536.684],[19.31265,43.59315,1051.6776],[19.30087,43.5883,1094.8474],[19.28919,43.58793,1065.2061],[19.26366,43.59096,863.4854],[19.25271,43.58863,642.5878],[19.23886,43.57212,627.4378],[19.22945,43.54975,956.4638],[19.21746,43.5328,1163.5378],[19.19534,43.5328,1124.6519],[19.17519,43.50962,1125.4409],[19.17591,43.48089,1278.1052],[19.19224,43.45453,1025.0791],[19.21839,43.4382,1036.9518],[19.35564,43.39306,1179.884],[19.37228,43.38423,1193.8749],[19.41404,43.33839,1056.3347],[19.47305,43.29328,1191.9802],[19.48515,43.2801,1172.5464],[19.5023,43.25193,1255.99],[19.51243,43.24064,1136.1324],[19.54784,43.21881,1243.8601],[19.54995,43.21752,1286.5297],[19.58085,43.1878,1061.3606],[19.59811,43.1762,959.3444],[19.61868,43.16824,837.3689],[19.66302,43.1585,1017.2745],[19.68462,43.15672,1212.3555],[19.69733,43.16021,1168.9503],[19.70549,43.16618,1108.9967],[19.71356,43.16561,1137.8835],[19.7428,43.12652,750.7113],[19.7612,43.10874,676.316],[19.78177,43.09647,606.6163],[19.80513,43.08995,656.0358],[19.8383,43.08835,932.401],[19.8722,43.09037,1039.4071],[19.88378,43.09569,1161.6888],[19.90714,43.11326,1090.2657],[19.91664,43.11706,1128.8676],[19.92915,43.11391,1153.9335],[19.93659,43.1059,1214.8098],[19.94228,43.09564,1250.5466],[19.94982,43.08592,1229.8286],[19.95974,43.07856,1260.6936],[20.01989,43.04735,1408.6204],[20.05439,43.02222,1382.6625],[20.05839,43.02564,1348.8533],[20.06015,43.02786,1343.9124],[20.06118,43.0304,1345.572],[20.06237,43.03846,1350.9658],[20.0631,43.04107,1367.8506],[20.06914,43.05293,1221.8635],[20.07126,43.05598,1171.8281],[20.07524,43.05975,1213.7834],[20.07638,43.06122,1178.6428],[20.08015,43.0683,1154.0334],[20.08397,43.07342,1155.181],[20.09048,43.08052,1153.1599],[20.0957,43.08564,1159.6676],[20.09793,43.08734,1156.693],[20.10051,43.08879,1157.167],[20.10263,43.08967,1156.14],[20.11105,43.09233,1156.3823],[20.11715,43.09473,1158.6375],[20.1203,43.09572,1159.1592],[20.125,43.09639,1158.1357],[20.12795,43.09628,1158.2546],[20.13389,43.09538,1160.5707],[20.13658,43.09541,1166.7074],[20.13844,43.09582,1166.0883],[20.1403,43.09649,1171.0034],[20.1419,43.09742,1165.9108],[20.14304,43.09866,1173.7456],[20.14381,43.10011,1167.5391],[20.14418,43.10212,1167.8887],[20.14397,43.10424,1166.332],[20.14325,43.10636,1169.7378],[20.13999,43.11086,1167.0831],[20.13885,43.11303,1169.3643],[20.13891,43.11489,1172.9723],[20.13994,43.11677,1177.8066],[20.1417,43.11856,1191.7881],[20.14361,43.12006,1216.5873],[20.15126,43.12465,1180.5291],[20.15301,43.12631,1184.8022],[20.15596,43.12998,1214.5837],[20.15787,43.13189,1209.8004],[20.16562,43.13923,1284.3425],[20.16764,43.14042,1227.7412],[20.16934,43.14083,1200.9161],[20.17131,43.14093,1183.7034],[20.18273,43.13995,1154.3566],[20.19477,43.13964,1068.3702],[20.20686,43.13964,1074.1553],[20.21079,43.13985,1045.6453],[20.21451,43.14031,1086.7327],[20.21895,43.14166,1128.2042],[20.22433,43.1445,1243.6061],[20.22639,43.14538,1266.2909],[20.23611,43.14848,1284.6154],[20.24396,43.15178,1305.6512],[20.24634,43.15246,1291.3903],[20.25208,43.15344,1240.6671],[20.26531,43.15452,1148.5128],[20.2821,43.1569,1118.5802],[20.27864,43.16,1233.0015],[20.27621,43.16261,1313.6418],[20.27399,43.16532,1302.8895],[20.2714,43.16925,1267.3647],[20.26954,43.1714,1230.4647],[20.26717,43.17308,1176.2942],[20.26458,43.17408,1163.5413],[20.25895,43.17571,1182.1858],[20.25606,43.17695,1176.8856],[20.24851,43.18186,1204.5151],[20.24644,43.18271,1217.0686],[20.24417,43.18339,1243.8025],[20.23818,43.1847,1252.7781],[20.23378,43.1861,1265.5841],[20.2312,43.18755,1275.9939],[20.22934,43.18946,1290.4443],[20.22608,43.19545,1234.1504],[20.2236,43.19796,1203.1177],[20.22123,43.19961,1181.0963],[20.21854,43.20101,1150.6146],[20.21637,43.20186,1145.3861],[20.20934,43.20393,1139.2648],[20.20764,43.2047,1132.5132],[20.20588,43.20625,1132.0306],[20.20469,43.20816,1143.0632],[20.20164,43.21648,1161.918],[20.20118,43.2185,1175.238],[20.20128,43.2194,1188.3674],[20.20205,43.22098,1205.9176],[20.20345,43.22243,1196.0375],[20.2051,43.22356,1188.1855],[20.21172,43.22728,1189.8816],[20.21844,43.23062,1184.856],[20.22774,43.2356,1184.4084],[20.23135,43.23783,1185.0127],[20.23285,43.23927,1189.6411],[20.23415,43.24191,1194.0005],[20.23477,43.25165,1163.8817],[20.23539,43.25436,1126.5908],[20.23942,43.26217,1052.8214],[20.2419,43.26832,919.5242],[20.24588,43.27426,912.5612],[20.24898,43.2802,1001.0927],[20.26009,43.29152,1198.2506],[20.26742,43.29855,1070.5815],[20.26691,43.30229,1222.2383],[20.26598,43.30459,1238.1556],[20.26443,43.30666,1173.485],[20.25905,43.31074,1177.0718],[20.25637,43.31322,1248.1411],[20.25409,43.31477,1284.9915],[20.25223,43.31555,1233.0693],[20.24469,43.31751,1272.52],[20.2419,43.31787,1297.3142],[20.24066,43.31782,1356.0164],[20.23797,43.3172,1490.3031],[20.23249,43.31511,1426.6671],[20.22893,43.31431,1387.6251],[20.2173,43.31278,1313.6609],[20.20614,43.30997,1275.7747],[20.20226,43.30945,1352.7817],[20.19818,43.30924,1293.1182],[20.18159,43.30898,1264.1438],[20.17756,43.30867,1222.92],[20.17379,43.308,1221.3505],[20.16598,43.30516,1205.6592],[20.15911,43.30315,1294.0361],[20.15539,43.30258,1284.7891],[20.14371,43.30191,1274.3245],[20.13767,43.30121,1225.2755],[20.13555,43.30064,1205.6676],[20.128,43.29725,1314.4437],[20.12562,43.29653,1262.7463],[20.12361,43.29635,1258.8716],[20.12165,43.29653,1258.8716],[20.11896,43.29741,1311.7944],[20.1173,43.29844,1300.5507],[20.1096,43.30464,1284.0417],[20.10687,43.30609,1214.5801],[20.10041,43.30901,1183.2191],[20.09601,43.31193,1231.1663],[20.09333,43.31444,1195.6355],[20.09193,43.31632,1209.6376],[20.09048,43.31906,1224.9368],[20.09028,43.32097,1188.2096],[20.09048,43.32237,1219.718],[20.09121,43.32366,1214.7522],[20.09297,43.32526,1245.766],[20.0957,43.32723,1349.3633],[20.097,43.32891,1428.8562],[20.09772,43.33084,1440.9213],[20.09782,43.33286,1413.2146],[20.0972,43.33482,1396.9468],[20.09576,43.33684,1341.8296],[20.08733,43.34438,1242.6577],[20.08573,43.3463,1265.12],[20.08346,43.35154,1179.8091],[20.0787,43.35735,1190.8877],[20.07746,43.35929,1169.1887],[20.077,43.36118,1134.6515],[20.07684,43.36387,1161.8978],[20.07633,43.36578,1146.1226],[20.07503,43.36771,1161.7264],[20.06511,43.37735,1248.3491],[20.05731,43.3835,1207.2627],[20.05493,43.38562,1148.0957],[20.05307,43.38787,1187.1401],[20.05204,43.38996,1178.3738],[20.04961,43.39642,1109.5747],[20.04821,43.39833,1147.2769],[20.0433,43.4035,1147.0499],[20.03566,43.41048,1173.9658],[20.02827,43.41937,1259.7335],[20.02904,43.41968,1259.7335],[20.0293,43.42048,1262.5284],[20.02821,43.42185,1263.3441],[20.02393,43.42533,1201.9451],[20.02212,43.42732,1229.6576],[20.01834,43.43228,1219.0073],[20.01183,43.44241,1253.8325],[20.01106,43.445,1257.8701],[20.0108,43.44779,1245.1813],[20.01101,43.45055,1272.9409],[20.01318,43.45817,1254.1431],[20.01313,43.46045,1142.7593],[20.01209,43.46249,1126.7168],[20.01106,43.46365,1126.7168],[20.00703,43.4668,1202.7325],[20.00563,43.46859,1181.5383],[20.00465,43.47063,1073.0342],[20.00289,43.47895,1204.6438],[20.00181,43.48156,1239.7092],[19.99953,43.48401,1304.5868],[19.99721,43.48556,1266.5682],[19.9953,43.48629,1248.2751],[19.98605,43.48843,1259.7487],[19.97845,43.48905,1177.4569],[19.96693,43.48939,1053.5791],[19.96346,43.48977,1122.2361],[19.96145,43.49021,1142.0793],[19.95974,43.49094,1206.241],[19.95804,43.49244,1264.7496],[19.95685,43.4943,1211.1288],[19.9552,43.49835,1152.8291],[19.95406,43.50029,1125.4565],[19.95251,43.50194,1212.5123],[19.95096,43.50282,1257.7854],[19.94202,43.50639,1114.4845],[19.93856,43.50732,1150.083],[19.93468,43.50789,1207.244],[19.92652,43.50851,1205.3086],[19.92248,43.509,1226.1082],[19.91768,43.51026,1144.6268],[19.91478,43.51156,1084.3154],[19.90951,43.51481,1116.0911],[19.90497,43.51853,1187.2477],[19.90321,43.52055,1216.4857],[19.8997,43.52659,1099.2261],[19.89463,43.5328,1205.0773],[19.8937,43.53476,1167.5479],[19.89365,43.53662,1154.0978],[19.89473,43.53858,1133.2367],[19.8967,43.54034,1072.3004],[19.89908,43.54192,1085.0593],[19.90662,43.54509,1223.0513],[19.90843,43.54613,1176.1121],[19.90977,43.54732,1228.1743],[19.91075,43.54866,1228.1743],[19.91132,43.5499,1241.0917],[19.91132,43.5522,1258.9878],[19.91065,43.55414,1257.0432],[19.90745,43.55982,1197.3971],[19.90683,43.56137,1151.0781],[19.90631,43.56375,1107.7958],[19.90646,43.56682,1040.4303],[19.90698,43.56969,1033.2192],[19.90884,43.57584,854.0731],[19.92517,43.5685,1121.5077],[19.93907,43.56049,1277.906],[19.94579,43.55584,1168.4534],[19.94961,43.55419,1198.5996],[19.95365,43.55341,1260.5599],[19.95675,43.55378,1244.1517],[19.9661,43.55662,918.3959],[19.97364,43.55848,929.7836],[19.9753,43.55925,906.5712],[19.977,43.56078,882.6485],[19.98088,43.56742,1075.0979],[19.99664,43.58034,1147.2404],[19.9984,43.5815,1165.6575],[20.00036,43.58246,1153.0931],[20.0077,43.58483,1152.1027],[20.01276,43.58706,1012.7292],[20.0184,43.59052,899.3298],[20.03281,43.6007,1341.6343],[20.03839,43.60408,1098.1249],[20.04119,43.60525,1078.1755],[20.04341,43.60581,1016.7382],[20.04568,43.60602,956.4614],[20.04852,43.60581,976.5485],[20.05111,43.60514,997.3817],[20.05627,43.60323,932.7827],[20.06103,43.60181,956.6183],[20.06304,43.60142,902.2712],[20.06594,43.60132,933.7716],[20.06997,43.60194,980.5912],[20.07519,43.60323,874.1788],[20.07741,43.60406,812.4924],[20.0801,43.60545,726.0257],[20.08247,43.60705,741.7231],[20.08439,43.60886,692.1934],[20.08568,43.61078,632.9135],[20.08599,43.61269,631.8032],[20.0849,43.61692,707.8809],[20.0848,43.61902,689.5569],[20.08568,43.62504,667.775],[20.08578,43.63791,845.9231],[20.0834,43.64033,783.4578],[20.08278,43.64111,727.5663],[20.08253,43.6415,707.4307],[20.08232,43.64235,681.4449],[20.08232,43.64328,681.4449],[20.08232,43.64413,671.6043],[20.08242,43.64452,671.6043],[20.08268,43.6448,713.3945],[20.08309,43.64498,713.3945],[20.08434,43.64506,713.3945],[20.08738,43.64498,846.5913],[20.08852,43.64498,846.5913],[20.08904,43.64493,882.7616],[20.08924,43.64483,882.7616],[20.09245,43.64261,912.0457],[20.09751,43.64173,921.1473],[20.10046,43.64183,936.1964],[20.10749,43.64369,778.3781],[20.11038,43.6438,760.2224],[20.12413,43.64212,498.2359],[20.1294,43.64113,477.4769],[20.13234,43.64039,454.8949],[20.13534,43.63922,416.1237],[20.14516,43.63455,418.9423],[20.15079,43.63248,417.2343],[20.15368,43.63186,416.1584],[20.15586,43.63191,413.7792],[20.15797,43.63238,413.4116],[20.16066,43.63359,415.8152],[20.16304,43.63524,508.2545],[20.16443,43.63656,521.5792],[20.16557,43.63798,504.4828],[20.16666,43.64028,493.5587],[20.16852,43.64579,556.9308],[20.1697,43.64798,591.1744],[20.17105,43.65,607.0266],[20.17296,43.65227,641.5332],[20.17384,43.65351,679.1938],[20.17487,43.6561,644.4567],[20.17503,43.65785,568.7162],[20.17482,43.65961,589.3822],[20.1741,43.66137,618.5981],[20.17296,43.66297,593.5687],[20.16939,43.6656,622.5594],[20.1587,43.67152,576.7859],[20.15637,43.67325,582.3215],[20.15456,43.67503,536.8918],[20.15358,43.6769,557.2278],[20.15348,43.6778,591.3815],[20.1542,43.67981,567.9791],[20.15518,43.681,595.957],[20.15927,43.6847,531.4868],[20.16045,43.68617,491.632],[20.16149,43.68772,533.4906],[20.16433,43.694,504.4138],[20.1681,43.6995,554.7127],[20.16893,43.70147,587.3024],[20.16934,43.70426,623.8757],[20.16898,43.70565,602.1157],[20.16671,43.70955,590.8325],[20.16624,43.71098,583.4601],[20.16573,43.71787,471.6928],[20.16542,43.7193,509.774],[20.16469,43.72056,506.4025],[20.16278,43.72193,474.3707],[20.1494,43.72609,470.8679],[20.14335,43.72862,473.46],[20.13586,43.73281,446.7827],[20.12914,43.73581,486.72],[20.12697,43.73705,479.3691],[20.12526,43.73847,423.2148],[20.12407,43.74002,419.5404],[20.12361,43.74183,419.5688],[20.12382,43.74648,464.2109],[20.1218,43.751,453.4994],[20.12144,43.75299,457.031],[20.12175,43.75666,476.5921],[20.12273,43.76214,523.7227],[20.12263,43.76446,529.6841],[20.1219,43.76694,525.6912],[20.11917,43.77366,463.027],[20.11911,43.77469,423.46],[20.11963,43.77681,377.1886],[20.12077,43.77916,386.5069],[20.12201,43.78074,360.4529],[20.12423,43.78275,397.6654],[20.12759,43.78492,400.6249],[20.12955,43.78668,390.0303],[20.13022,43.78808,369.7588],[20.13048,43.78952,350.7178],[20.13012,43.79157,363.6907],[20.12862,43.79433,362.3099],[20.12593,43.79748,384.0091],[20.12201,43.80032,342.2209],[20.11539,43.80353,313.7612],[20.11343,43.80492,314.2282],[20.10645,43.81216,399.7314],[20.10516,43.81399,392.6904],[20.10485,43.81487,392.6904],[20.10526,43.8181,313.6518],[20.1063,43.82094,311.4786],[20.10671,43.82306,311.3472],[20.10676,43.82523,312.0717],[20.10635,43.8273,316.162],[20.10537,43.82924,317.6915],[20.10377,43.83081,314.4184],[20.10216,43.83161,307.906],[20.09539,43.83384,303.2521],[20.09348,43.83479,303.4153],[20.09038,43.83732,303.0607],[20.08842,43.84001,302.4441],[20.08769,43.84208,302.8145],[20.08759,43.84425,300.6053],[20.0879,43.84642,300.4869],[20.08992,43.85154,323.5388],[20.09193,43.8552,297.9094],[20.09317,43.85665,298.1544],[20.10041,43.8619,296.4831],[20.10222,43.86394,296.5045],[20.1048,43.86787,296.5392],[20.10594,43.86916,299.8066],[20.10955,43.87205,302.8335],[20.11234,43.87324,351.6258],[20.11451,43.8737,352.5021],[20.11679,43.87391,294.3073],[20.12821,43.87321,409.6164],[20.13596,43.87345,382.9601],[20.14371,43.87453,516.5269],[20.1556,43.87704,591.0206],[20.13932,43.88249,567.2976],[20.12826,43.88549,398.5629],[20.11632,43.8905,323.6886],[20.11054,43.89453,411.8236],[20.10123,43.89985,609.3066],[20.09948,43.90104,581.2665],[20.08914,43.91174,612.1044],[20.08775,43.91381,633.5703],[20.08707,43.91582,617.0637],[20.08707,43.91784,591.6347],[20.08744,43.91923,584.8918],[20.08826,43.92052,589.3101],[20.09033,43.92202,612.9478],[20.09669,43.92507,590.7762],[20.09839,43.92629,501.4962],[20.10165,43.92928,527.9774],[20.10315,43.93101,578.7966],[20.10408,43.93282,531.3109],[20.10418,43.93489,527.877],[20.10304,43.93753,681.3628],[20.09948,43.94316,730.6948],[20.09622,43.94988,716.5284],[20.09167,43.95008,722.1245],[20.08723,43.95106,672.6634],[20.07085,43.95866,527.7178],[20.06801,43.96029,557.5723],[20.06589,43.96202,592.744],[20.06454,43.96391,591.4007],[20.06428,43.96579,585.4409],[20.06465,43.96729,614.3022],[20.06542,43.96874,614.3022],[20.06847,43.9723,629.811],[20.06899,43.97354,629.811],[20.06899,43.97476,654.4153],[20.06785,43.97618,635.977],[20.0664,43.97685,635.977],[20.05834,43.97887,625.5598],[20.05643,43.98011,598.7609],[20.05576,43.98119,621.843],[20.05565,43.98238,608.8218],[20.05596,43.98357,631.8473],[20.05938,43.99168,699.2854],[20.06041,43.99328,777.1024],[20.0617,43.99473,810.6006],[20.06894,44.00011,760.4783],[20.071,44.00191,811.9653],[20.0739,44.00574,843.3539],[20.07472,44.0077,802.605],[20.07457,44.00961,789.1814],[20.07343,44.01153,754.502],[20.07162,44.01336,784.8337],[20.06925,44.01519,760.4771],[20.06062,44.02,674.9232],[20.05824,44.02168,599.6738],[20.05648,44.02351,574.786],[20.05555,44.02538,616.7362],[20.05529,44.02672,630.9238],[20.05534,44.02765,618.3227],[20.05627,44.02966,593.3224],[20.05731,44.03088,584.6331],[20.06139,44.03437,581.2887],[20.06253,44.03581,521.7365],[20.06304,44.03736,519.5289],[20.06242,44.0399,517.1934],[20.05963,44.04493,564.3683],[20.05907,44.04703,552.573],[20.05901,44.04917,585.8414],[20.05948,44.05126,596.7332],[20.06237,44.05612,639.1227],[20.06914,44.06294,708.7269],[20.07069,44.06532,716.6509],[20.07105,44.06739,727.0988],[20.07012,44.07108,735.5854],[20.06372,44.08183,721.0983],[20.06201,44.08532,778.8745],[20.04728,44.09178,727.0136],[20.04439,44.09286,743.9771],[20.0387,44.09571,782.0632],[20.03674,44.09646,826.9152],[20.03256,44.09708,850.1575],[20.02119,44.09741,803.908],[20.01896,44.09767,853.3508],[20.01679,44.09819,958.5704],[20.0139,44.09974,1023.8286],[20.01235,44.10106,1011.4487],[20.00951,44.10418,928.7794],[19.99654,44.097,1086.8188],[19.99504,44.09612,1075.6876],[19.9922,44.09426,1023.3307],[19.99142,44.09385,974.1429],[19.98982,44.09317,919.5986],[19.98734,44.09227,884.048],[19.98574,44.09162,852.2214],[19.98501,44.09121,852.2214],[19.98444,44.09072,852.2214],[19.98393,44.09018,834.3596],[19.98305,44.08899,769.602],[19.98186,44.08718,779.2773],[19.98114,44.08594,737.2098],[19.98031,44.0839,779.2246],[19.97778,44.0756,784.1658],[19.9738,44.07638,676.0557],[19.96662,44.07731,582.8734],[19.95396,44.0784,688.119],[19.9508,44.07933,746.149],[19.94899,44.08015,746.149],[19.94434,44.0832,902.0948],[19.94186,44.08439,885.3044],[19.93453,44.08703,713.9841],[19.92791,44.09007,670.0229],[19.92006,44.09209,607.7897],[19.91809,44.09292,589.1815],[19.91639,44.09398,584.1159],[19.91168,44.09741,650.9936],[19.90781,44.10098,740.8755],[19.9061,44.10292,791.191],[19.90497,44.10475,774.7263],[19.90393,44.10728,862.7906],[19.90398,44.10863,862.7906],[19.9045,44.10987,893.1749],[19.9061,44.11142,907.4645],[19.90869,44.11338,880.6395],[19.91003,44.11514,881.865],[19.91055,44.11692,863.0507],[19.91039,44.1187,819.9923],[19.90946,44.12025,749.5706],[19.90822,44.12123,728.3511],[19.9014,44.1247,799.7682],[19.89618,44.12697,719.4462],[19.89375,44.12769,688.0821],[19.88729,44.12878,677.4584],[19.8674,44.13028,727.9091],[19.86466,44.13012,691.838],[19.86269,44.12961,643.7346],[19.86104,44.12878,592.1531],[19.85975,44.12759,485.794],[19.85882,44.12617,527.7303],[19.8566,44.11997,547.2028],[19.85546,44.11803,585.1461],[19.85386,44.11651,647.23],[19.85226,44.11571,647.23],[19.85034,44.11516,662.3508],[19.84481,44.114,600.4009],[19.84099,44.11276,602.1301],[19.83892,44.11136,608.7089],[19.83293,44.10638,795.752],[19.83143,44.1055,849.2811],[19.82895,44.10496,894.5079],[19.82637,44.10532,898.3031],[19.81918,44.10857,742.3315],[19.8121,44.11131,827.4968],[19.80838,44.11364,837.9515],[19.80208,44.1187,839.7173],[19.80027,44.11979,784.2168],[19.7982,44.12069,735.2803],[19.79598,44.12129,757.8749],[19.79293,44.12165,780.2349],[19.78983,44.12165,862.5427],[19.78673,44.12129,914.0646],[19.7826,44.12015,986.6163],[19.77826,44.11847,1102.6182],[19.77572,44.11705,1057.379],[19.77453,44.11599,1057.379],[19.77376,44.11488,1006.4685],[19.77355,44.11364,989.1323],[19.77391,44.1124,1028.1252],[19.775,44.11121,1026.9062],[19.7765,44.11005,1023.4767],[19.78203,44.10653,860.9526],[19.78704,44.104,886.7371],[19.79112,44.10232,899.6832],[19.79386,44.10082,877.9615],[19.79701,44.09819,866.3026],[19.79929,44.0955,842.4144],[19.80637,44.08351,766.0894],[19.81004,44.07385,784.915],[19.81112,44.06845,758.477],[19.81123,44.06289,766.2945],[19.81092,44.0602,713.3071],[19.81014,44.05772,670.9346],[19.80921,44.05623,627.5211],[19.80792,44.05491,704.6808],[19.80626,44.05387,731.9849],[19.8043,44.05307,744.179],[19.80234,44.05258,739.2598],[19.79944,44.05225,728.326],[19.79324,44.05232,729.3031],[19.78503,44.05287,663.2749],[19.7812,44.05351,739.2814],[19.77908,44.05418,744.0845],[19.77722,44.05509,711.2745],[19.77588,44.05628,730.4651],[19.77428,44.05881,772.9562],[19.77407,44.0602,772.9562],[19.77428,44.06155,789.5858],[19.77609,44.06532,802.8672],[19.77614,44.06752,874.5309],[19.77557,44.0694,892.0797],[19.77397,44.07209,902.1045],[19.77081,44.07566,895.7582],[19.76342,44.08129,790.3271],[19.76208,44.08268,799.0543],[19.76017,44.08547,820.4503],[19.75826,44.08976,897.7709],[19.75547,44.09317,912.7325],[19.75252,44.09555,935.1923],[19.74642,44.09961,999.9271],[19.74126,44.10449,1038.6937],[19.73971,44.10563,999.9368],[19.73795,44.10651,984.7849],[19.73428,44.10746,938.514],[19.72565,44.10702,911.0692]]]}
,"properties": {"ISO3166-1-Alpha-3": "SRB","country": "Republic of Serbia","fill": "#0F0","name": "Zlatiborski","area_km2": 6121.214,"hist_schema_id": "Elevation0-9000","hist_area_km2": {"200": 3.932,"225": 11.822,"250": 8.055,"275": 12.433,"300": 29.814,"325": 45.234,"350": 49.408,"375": 50.264,"400": 61.831,"425": 68.928,"450": 86.002,"475": 96.683,"500": 105.01,"525": 114.143,"550": 123.065,"575": 123.484,"600": 126.559,"625": 136.011,"650": 138.21,"675": 149.915,"700": 157.741,"725": 161.489,"750": 162.928,"775": 155.084,"800": 153.015,"825": 150.153,"850": 151.725,"875": 162.93,"900": 150.322,"925": 149.597,"950": 152.133,"975": 162.156,"1000": 173.681,"1025": 178.35,"1050": 174.213,"1075": 185.686,"1100": 198.091,"1125": 215.105,"1150": 216.425,"1175": 203.088,"1200": 193.618,"1225": 190.961,"1250": 164.994,"1275": 138.418,"1300": 113.952,"1325": 94.93,"1350": 69.892,"1375": 50.155,"1400": 36.131,"1425": 26.513,"1450": 20.502,"1475": 16.713,"1500": 13.104,"1525": 11.532,"1550": 8.552,"1575": 4.707,"1600": 4.06,"1625": 3.258,"1650": 2.609,"1675": 1.328,"1700": 0.494,"1725": 0.077}}}