{"type":"Feature","properties":{"GID_1":"SRB.25_1","GID_0":"SRB","country":"Serbia","province":"Zlatiborski","VARNAME_1":"Zlatibor","NL_NAME_1":"Златиборски","TYPE_1":"Okrug","ENGTYPE_1":"District","CC_1":"NA","HASC_1":"RS.ZL","ISO_1":"NA","name":"Zlatiborski.province"},
"geometry":{"type": "MultiPolygon","coordinates": [[[[20.0094,43.0121,1381.5105],[20.0337,42.9851,1518.4689],[20.0436,43.0015,1457.8986],[20.047,43.0152,1402.3375],[20.0602,43.0279,1343.9124],[20.0631,43.0411,1367.8506],[20.0691,43.0529,1221.8635],[20.0764,43.0612,1178.6428],[20.084,43.0734,1155.181],[20.1005,43.0888,1157.167],[20.1203,43.0957,1159.1592],[20.1366,43.0954,1166.7074],[20.1419,43.0974,1165.9108],[20.1438,43.1001,1167.5391],[20.144,43.1043,1166.332],[20.1389,43.113,1169.3643],[20.1399,43.1168,1177.8066],[20.1513,43.1246,1180.5291],[20.1676,43.1404,1250.7932],[20.2145,43.1403,1086.7327],[20.2463,43.1525,1291.3903],[20.2821,43.1569,1118.5802],[20.2672,43.1731,1176.2942],[20.2561,43.177,1176.8856],[20.2464,43.1827,1217.0686],[20.2338,43.1861,1265.5841],[20.2294,43.1895,1290.4443],[20.2236,43.198,1203.1177],[20.2076,43.2047,1132.5132],[20.2047,43.2082,1143.0632],[20.2012,43.2185,1175.238],[20.2051,43.2236,1188.1855],[20.2329,43.2393,1189.6411],[20.2354,43.2544,1126.5908],[20.2419,43.2683,919.5242],[20.249,43.2802,1001.0927],[20.2674,43.2985,1070.5815],[20.2644,43.3067,1173.485],[20.2541,43.3148,1284.9915],[20.2406,43.3178,1356.0164],[20.2061,43.31,1275.7747],[20.1776,43.3087,1222.92],[20.1591,43.3031,1294.0361],[20.1376,43.3012,1225.2755],[20.1256,43.2966,1262.7463],[20.119,43.2974,1311.7944],[20.1096,43.3046,1284.0417],[20.096,43.3119,1231.1663],[20.0919,43.3163,1209.6376],[20.0905,43.3224,1219.718],[20.097,43.3289,1428.8562],[20.0972,43.3349,1396.9468],[20.0858,43.3463,1265.12],[20.0775,43.3593,1169.1887],[20.075,43.3677,1161.7264],[20.0549,43.3856,1148.0957],[20.0482,43.3983,1147.2769],[20.0356,43.4105,1173.9658],[20.028199999999998,43.4193,1259.7335],[20.0293,43.4205,1262.5284],[20.028199999999998,43.4219,1263.3441],[20.0183,43.4323,1219.0073],[20.0111,43.445,1257.8701],[20.0131,43.4605,1142.7593],[20.0056,43.4686,1181.5383],[20.0029,43.479,1204.6438],[19.9996,43.484,1304.5868],[19.986,43.4884,1259.7487],[19.9615,43.4902,1142.0793],[19.958,43.4924,1264.7496],[19.9541,43.5003,1125.4565],[19.9509,43.5028,1257.7854],[19.9386,43.5073,1150.083],[19.9225,43.509,1226.1082],[19.9148,43.5116,1084.3154],[19.905,43.5185,1187.2477],[19.8937,43.5347,1167.5479],[19.8967,43.5403,1072.3004],[19.9084,43.5461,1176.1121],[19.9113,43.5499,1241.0917],[19.9063,43.5637,1107.7958],[19.9089,43.5758,854.0731],[19.9252,43.5685,1121.5077],[19.9496,43.5542,1198.5996],[19.9568,43.5538,1244.1517],[19.9737,43.5585,929.7836],[19.977,43.5608,882.6485],[19.9809,43.5674,1075.0979],[19.9966,43.5803,1147.2404],[20.0128,43.587,1012.7292],[20.0384,43.6041,1098.1249],[20.0485,43.6058,976.5485],[20.0659,43.6013,933.7716],[20.0752,43.6032,874.1788],[20.0825,43.6071,714.1317],[20.086,43.6127,631.8032],[20.0848,43.619,689.5569],[20.0858,43.6379,845.9231],[20.0825,43.6415,707.4307],[20.0827,43.6448,713.3945],[20.089,43.6449,882.7616],[20.0975,43.6417,921.1473],[20.1104,43.6438,760.2224],[20.1241,43.6421,498.2359],[20.1559,43.6319,413.7792],[20.1607,43.6336,415.8152],[20.1656,43.638,504.4828],[20.1749,43.6561,644.4567],[20.1729,43.663,593.5687],[20.1587,43.6715,576.7859],[20.1536,43.6769,557.2278],[20.1542,43.6798,567.9791],[20.1605,43.6861,491.632],[20.169,43.7015,607.41],[20.1654,43.7193,509.774],[20.1628,43.7219,506.4025],[20.1433,43.7286,473.46],[20.127,43.737,479.3691],[20.1241,43.74,419.5404],[20.1238,43.7465,464.2109],[20.1214,43.753,457.031],[20.1226,43.7645,529.6841],[20.1191,43.7747,423.46],[20.122,43.7807,360.4529],[20.1295,43.7867,390.0303],[20.1301,43.7916,363.6907],[20.1259,43.7975,384.0091],[20.1135,43.8049,314.2282],[20.1051,43.814,392.6904],[20.1068,43.8252,312.0717],[20.1054,43.8292,317.6915],[20.0935,43.8348,303.4153],[20.0877,43.8421,301.2371],[20.0879,43.8464,300.4869],[20.0919,43.8552,297.9094],[20.1004,43.8619,296.4831],[20.1096,43.872,302.8335],[20.1168,43.8739,294.3073],[20.136,43.8735,382.9601],[20.1556,43.877,591.0206],[20.1163,43.8905,323.6886],[20.0995,43.9011,581.2665],[20.0892,43.9118,612.1044],[20.0871,43.9158,617.0637],[20.0874,43.9193,584.8918],[20.1017,43.9293,527.9774],[20.1041,43.9328,531.3109],[20.103,43.9375,681.3628],[20.0962,43.9499,716.5284],[20.0872,43.9511,672.6634],[20.0659,43.962,592.744],[20.0643,43.9658,585.4409],[20.069,43.9748,654.4153],[20.0558,43.9812,612.5171],[20.0604,43.9933,777.1024],[20.071,44.0019,811.9653],[20.0747,44.0077,802.605],[20.0716,44.0134,784.8337],[20.0583,44.0217,599.6738],[20.0553,44.0267,630.9238],[20.063,44.0374,519.5289],[20.0591,44.047,552.573],[20.0595,44.0513,596.7332],[20.0691,44.063,708.7269],[20.0711,44.0674,727.0988],[20.062,44.0853,778.8745],[20.0368,44.0965,826.9152],[20.0168,44.0982,958.5704],[20.0095,44.1042,928.7794],[19.9844,44.0907,852.2214],[19.9811,44.0859,737.2098],[19.9778,44.0756,784.1658],[19.9539,44.0784,688.119],[19.9279,44.0901,670.0229],[19.9181,44.0929,589.1815],[19.9117,44.0974,650.9936],[19.9061,44.1029,791.191],[19.904,44.1073,862.7906],[19.9045,44.1098,893.1749],[19.91,44.1151,881.865],[19.9095,44.1203,749.5706],[19.8938,44.1277,688.0821],[19.8627,44.1296,643.7346],[19.8598,44.1276,485.794],[19.8538,44.1165,647.23],[19.841,44.1128,602.1301],[19.829,44.1049,894.5079],[19.8121,44.1113,827.4968],[19.8003,44.1198,784.2168],[19.7898,44.1217,862.5427],[19.7757,44.117,1057.379],[19.7738,44.1149,1006.4685],[19.7739,44.1124,1028.1252],[19.782,44.1065,860.9526],[19.7939,44.1008,877.9615],[19.7993,44.0955,842.4144],[19.8064,44.0835,766.0894],[19.81,44.0738,784.915],[19.8112,44.0629,766.2945],[19.8092,44.0562,627.5211],[19.8043,44.0531,744.179],[19.785,44.0529,663.2749],[19.7759,44.0563,730.4651],[19.7741,44.0602,772.9562],[19.7761,44.0675,874.5309],[19.774,44.0721,902.1045],[19.7621,44.0827,799.0543],[19.7555,44.0932,912.7325],[19.7397,44.1056,999.9368],[19.7343,44.1075,938.514],[19.7212,44.1079,903.3524],[19.7044,44.119,839.0376],[19.673,44.1259,950.7551],[19.6563,44.1389,960.3159],[19.636,44.1445,916.7025],[19.6269,44.1448,950.9369],[19.6182,44.1437,893.0529],[19.6176,44.1354,824.1516],[19.6093,44.1233,823.7963],[19.605,44.1199,993.6573],[19.5958,44.118,1001.8436],[19.5738,44.1216,959.2059],[19.548,44.1147,700.9529],[19.5429,44.1113,639.9355],[19.5296,44.095,322.585],[19.5094,44.0902,206.3424],[19.5377,44.0766,189.375],[19.5615,44.0585,203.4635],[19.5693,44.0543,213.4996],[19.5758,44.056,343.6779],[19.5749,44.0684,400.1583],[19.5789,44.0727,375.2308],[19.5901,44.0736,207.686],[19.599,44.0655,202.9846],[19.6028,44.0589,197.25],[19.6147,44.0551,225.9684],[19.6119,44.0425,391.2719],[19.6139,44.0325,206.6676],[19.6124,44.024,348.7556],[19.595,44.0158,396.4322],[19.5635,44.0052,358.6513],[19.556,43.996,258.8609],[19.5454,43.9878,516.7982],[19.5293,43.9816,514.8849],[19.5174,43.9694,365.7296],[19.5103,43.9646,358.9077],[19.4611,43.965,276.6034],[19.38,43.9723,457.6212],[19.3521,43.9783,294.2442],[19.3392,43.9863,335.4496],[19.3209,43.9917,289.451],[19.3059,44.0002,374.7526],[19.2817,44.0037,705.2792],[19.2624,44.0102,664.8434],[19.2404,44.0135,426.1556],[19.2305,44.0031,615.4865],[19.2382,43.991,328.5093],[19.2488,43.9799,603.5154],[19.2573,43.9562,701.7001],[19.2682,43.946,638.8768],[19.2768,43.933,809.0887],[19.2789,43.9219,1366.1338],[19.2899,43.9083,1547.1213],[19.3076,43.8937,1286.3049],[19.342,43.8751,959.3832],[19.3738,43.8292,1146.7124],[19.3827,43.814,1047.3281],[19.3969,43.8044,1080.8615],[19.4203,43.7964,1100.5222],[19.4316,43.7806,1006.6082],[19.4509,43.7736,838.8052],[19.4788,43.7343,584.3178],[19.5105,43.7199,690.858],[19.5072,43.6966,736.252],[19.5157,43.6712,965.3024],[19.501,43.6481,761.5713],[19.4818,43.6388,467.816],[19.4904,43.6273,399.4717],[19.4888,43.619,452.9007],[19.4821,43.6073,534.2153],[19.4801,43.594,455.8972],[19.5003,43.5768,872.6766],[19.4829,43.5692,1283.1384],[19.4642,43.5811,959.1871],[19.4347,43.5808,908.8099],[19.4352,43.5681,632.5184],[19.4316,43.5597,542.835],[19.4308,43.5493,422.2219],[19.4013,43.5486,624.2972],[19.3934,43.5669,809.2017],[19.3923,43.5797,621.8578],[19.3754,43.5643,1079.3508],[19.3576,43.5699,773.1709],[19.3601,43.6045,649.1566],[19.3516,43.6095,534.2509],[19.3419,43.6027,682.5963],[19.3237,43.5968,901.0963],[19.2997,43.597,1037.3052],[19.2743,43.6002,1014.5067],[19.2563,43.5969,702.7339],[19.2486,43.584,637.9186],[19.2492,43.5529,1056.5593],[19.2471,43.538,1110.7908],[19.2327,43.5202,1233.0645],[19.2132,43.5255,1290.1515],[19.192,43.539,1049.8317],[19.1857,43.5351,1218.928],[19.171,43.4928,1351.7747],[19.1738,43.4801,1241.1077],[19.1795,43.4711,1145.9094],[19.1952,43.4566,1053.4393],[19.215699999999998,43.4468,1074.8037],[19.2361,43.4344,1060.5214],[19.2608,43.4261,1087.8662],[19.2771,43.4223,1051.7869],[19.2854,43.4178,1024.7413],[19.2971,43.4085,1006.3602],[19.3082,43.4028,1009.9413],[19.3396,43.3948,1136.0919],[19.3669,43.3779,1064.162],[19.3956,43.3749,1253.4293],[19.3982,43.3623,1063.5073],[19.412,43.3386,1065.4669],[19.4309,43.3189,1103.918],[19.4405,43.312,1134.4618],[19.475,43.3007,1208.9661],[19.4828,43.2947,1254.6234],[19.4849,43.2874,1171.2637],[19.484,43.2648,1207.2131],[19.4945,43.2465,1227.1223],[19.5157,43.2323,1159.3529],[19.5476,43.2262,1271.8428],[19.5598,43.2224,1205.541],[19.566,43.2188,1296.3042],[19.5872,43.1978,1251.5391],[19.5939,43.1822,1091.1079],[19.5999,43.1765,964.9672],[19.6266,43.1684,872.018],[19.6419,43.1588,1033.1193],[19.6488,43.1566,1158.5686],[19.684,43.1535,1310.2147],[19.7071,43.1483,1196.5461],[19.7437,43.1509,705.7153],[19.7449,43.1359,641.2562],[19.7389,43.1258,897.94],[19.7379,43.1224,933.119],[19.7392,43.1196,946.6024],[19.7487,43.1128,799.7059],[19.7619,43.1065,631.1559],[19.7819,43.103,551.9257],[19.7857,43.1001,642.2032],[19.7937,43.0879,746.2955],[19.7977,43.0862,723.3862],[19.804,43.0873,690.4817],[19.8188,43.0954,792.3209],[19.8258,43.0967,1060.4453],[19.8343,43.0941,1140.4093],[19.8496,43.0835,1009.5496],[19.8669,43.0779,751.853],[19.8766,43.0771,835.1341],[19.9,43.0832,1134.6965],[19.9166,43.0905,1055.89],[19.9256,43.0903,1160.2307],[19.9293,43.086,1139.0743],[19.9337,43.0712,1083.4246],[19.95,43.0437,1138.8785],[19.9633,43.034,1183.7593],[19.9877,43.0241,1201.49],[20.0094,43.0121,1381.5105]]]]}}