{"type":"Feature","properties":{"GID_2":"SRB.18.3_1","GID_0":"SRB","country":"Serbia","GID_1":"SRB.18_1","province":"Severno-Banatski","NL_NAME_1":"Севернобанатски","county":"Kanjiža","VARNAME_2":"Magyarkanizsa","NL_NAME_2":"Кањижа","TYPE_2":"Opštine","ENGTYPE_2":"Town|Municipal","CC_2":"NA","HASC_2":"NA","name":"Kanjiža.county"},
"geometry":{"type": "MultiPolygon","coordinates": [[[[19.8713,46.1542,99.5581],[19.8767,46.1508,99.6626],[19.8799,46.1466,107.6126],[19.8802,46.1423,96.5728],[19.8777,46.1373,96.2587],[19.8751,46.1343,95.7356],[19.8569,46.124,101.451],[19.8516,46.1174,101.0049],[19.8549,46.1029,97.3738],[19.8598,46.0928,103.2756],[19.8565,46.0687,99.2636],[19.8499,46.0602,100.8447],[19.8464,46.049,102.6393],[19.8417,46.0446,102.8866],[19.8279,46.0384,104.6275],[19.8212,46.0324,105.9799],[19.8079,46.0163,106.1747],[19.8066,46.0097,107.0989],[19.8029,46.0039,108.3261],[19.8026,45.9972,107.5205],[19.7992,45.9874,105.7045],[19.8039,45.9649,105.4139],[19.7998,45.9512,106.2115],[19.8003,45.9417,106.2181],[19.8285,45.9457,106.1153],[19.8431,45.9495,106.049],[19.8693,45.9508,103.1707],[19.8911,45.9567,106.052],[19.9379,45.9576,101.7556],[19.9703,45.966,100.3795],[19.9909,45.9772,87.2046],[20.0104,45.9767,81.0716],[20.0179,45.978,82.4057],[20.0378,45.9881,78.3601],[20.0494,45.9976,82.1892],[20.056,46.0096,79.5372],[20.0333,46.0195,71.0],[20.0277,46.0254,75.9502],[20.0253,46.0324,76.6083],[20.0269,46.035,76.1954],[20.0306,46.0365,76.6353],[20.0467,46.0381,76.026],[20.0618,46.0428,76.1119],[20.074,46.052,76.9129],[20.0805,46.0619,74.1012],[20.0804,46.0686,78.0158],[20.0751,46.0769,76.0016],[20.0573,46.0914,77.5862],[20.047,46.0955,80.1296],[20.0449,46.0988,81.2797],[20.0454,46.1091,80.739],[20.0554,46.1165,81.3784],[20.0712,46.1355,78.5549],[20.0723,46.1404,78.2987],[20.0685,46.1455,79.6731],[20.0617,46.1507,77.0358],[20.057,46.1512,77.1588],[20.0424,46.147,78.9263],[20.0361,46.1481,79.0212],[20.0297,46.1538,76.955],[20.0267,46.1626,76.7234],[20.0251,46.1754,79.8467],[20.0199,46.1788,82.7709],[19.9344,46.1773,88.4143],[19.9173,46.167,93.8882],[19.8713,46.1542,99.5581]]]]}}