{"type":"Feature","properties":{"GID_2":"SRB.3.8_1","GID_0":"SRB","country":"Serbia","GID_1":"SRB.3_1","province":"GradBeograd","NL_NAME_1":"Београд","county":"Palilula","VARNAME_2":"NA","NL_NAME_2":"Палилула","TYPE_2":"Opštine","ENGTYPE_2":"Town|Municipal","CC_2":"NA","HASC_2":"NA","name":"Palilula.county"},
"geometry":{"type": "MultiPolygon","coordinates": [[[[20.6101,44.782,84.6945],[20.6013,44.7925,148.0508],[20.5865,44.8056,98.8001],[20.5695,44.8094,153.9036],[20.566,44.8111,198.0296],[20.5634,44.8148,246.0854],[20.5629,44.824,184.3284],[20.5645,44.8279,160.6354],[20.575,44.8367,167.283],[20.5824,44.8461,68.0],[20.5919,44.8607,75.2723],[20.595,44.8719,70.2756],[20.6023,44.8822,69.6555],[20.6,44.8886,70.3276],[20.5866,44.9009,70.6622],[20.5702,44.9116,71.4233],[20.5544,44.9157,70.9049],[20.5213,44.9284,71.2409],[20.5073,44.9386,70.7285],[20.5001,44.9464,70.4496],[20.4979,44.9528,70.6393],[20.4989,44.9607,70.8721],[20.4959,44.9665,71.4465],[20.4906,44.9693,71.0873],[20.4755,44.9706,72.0108],[20.4671,44.9745,71.8817],[20.4498,44.9874,70.589],[20.4426,45.0004,72.602],[20.404,45.0224,71.4585],[20.3994,45.0287,71.49],[20.3966,45.0401,71.5799],[20.3918,45.0502,73.2577],[20.396,45.0611,72.3954],[20.3938,45.0667,71.5894],[20.3726,45.0778,71.8337],[20.3596,45.0817,72.6962],[20.3417,45.0806,73.1982],[20.3287,45.0706,108.1621],[20.3171,45.0668,105.3306],[20.312,45.0683,102.9188],[20.2962,45.0784,104.0297],[20.2777,45.0823,104.4909],[20.2842,45.0673,98.8211],[20.3054,45.0538,98.2692],[20.3121,45.048,97.2486],[20.3153,45.043,99.209],[20.3181,45.0317,95.8996],[20.3231,45.0209,95.88],[20.3222,45.0019,74.2069],[20.318,44.9956,70.0],[20.3039,44.9851,74.9416],[20.2868,44.982,70.0],[20.2776,44.9772,89.4669],[20.2759,44.9658,89.6023],[20.2603,44.9581,85.603],[20.2557,44.9535,83.3295],[20.256,44.9441,83.9706],[20.2589,44.939,88.4812],[20.2809,44.9193,84.5546],[20.3139,44.9029,90.4873],[20.3291,44.8815,86.1011],[20.3401,44.872,87.2187],[20.3485,44.8622,84.8461],[20.3735,44.8405,91.6344],[20.4084,44.8266,75.2269],[20.4433,44.8194,75.2399],[20.4481,44.8159,68.0],[20.4604,44.8,130.0467],[20.4646,44.791,96.9771],[20.4695,44.7897,95.921],[20.4748,44.7837,126.8333],[20.4976,44.7847,126.6922],[20.5169,44.7921,216.203],[20.5272,44.7923,131.9781],[20.5306,44.7901,147.3512],[20.5342,44.7816,198.6531],[20.5389,44.7771,237.4904],[20.5621,44.7689,235.0924],[20.5745,44.7615,157.4211],[20.5805,44.771,229.5831],[20.5846,44.7742,231.0917],[20.6101,44.782,84.6945]]]]}}