{"type": "Feature","bbox": [19.4637,45.2406,19.6571,45.428],"geometry": {"type": "MultiPolygon","coordinates": [[[[19.5335,45.2406,78.7819],[19.5515,45.244,80.3561],[19.5645,45.2513,75.3624],[19.5845,45.2662,77.4419],[19.5865,45.2736,80.1551],[19.5824,45.2816,79.9826],[19.5819,45.2857,80.0985],[19.5859,45.2897,81.156],[19.5989,45.2917,82.2541],[19.6023,45.294,82.4427],[19.6039,45.2987,82.2133],[19.6027,45.3125,83.4924],[19.6054,45.3164,82.4239],[19.6137,45.3187,82.1463],[19.6336,45.3144,82.3388],[19.6444,45.3155,82.5598],[19.6498,45.3195,82.1728],[19.6553,45.3272,82.2714],[19.6571,45.3417,82.1276],[19.6562,45.3475,82.3911],[19.6483,45.3674,81.8161],[19.6312,45.3867,81.4591],[19.6093,45.4067,80.9915],[19.5973,45.4083,82.0607],[19.565,45.4167,83.0559],[19.5415,45.428,81.764],[19.5171,45.4235,80.549],[19.5,45.4161,82.4586],[19.4983,45.4131,81.6051],[19.4983,45.4039,83.4631],[19.4907,45.3894,83.5685],[19.482,45.3785,84.0748],[19.4637,45.3631,84.5709],[19.4667,45.3578,83.7338],[19.4802,45.3523,83.5673],[19.5038,45.33,82.503],[19.5391,45.3277,83.6806],[19.547,45.3246,81.9465],[19.5451,45.3135,82.8111],[19.5306,45.2859,84.1408],[19.5265,45.2663,83.334],[19.5271,45.2551,74.0],[19.5335,45.2406,78.7819]]]]}
,"properties": {"GID_2": "SRB.5.3_1","GID_0": "SRB","country": "Serbia","GID_1": "SRB.5_1","province": "Južno-Bački","NL_NAME_1": "Јужнобачки","county": "BačkiPetrovac","VARNAME_2": "BáčskyPetrovec|Petrőc","NL_NAME_2": "БачкиПетровац","TYPE_2": "Opštine","ENGTYPE_2": "Town|Municipal","CC_2": "NA","HASC_2": "NA","name": "Bački_Petrovac.county","area_km2": 162.7307,"hist_schema_id": "Elevation0-9000","hist_area_km2": {"75": 161.448,"100": 1.223,"125": 0.0597}}}