{"type": "Feature","bbox": [21.4878,44.0655,21.9608,44.3357],"geometry": {"type": "MultiPolygon","coordinates": [[[[21.9554,44.1779,783.2649],[21.9581,44.1952,731.3123],[21.9508,44.2104,715.9932],[21.9514,44.2139,678.468],[21.9568,44.2204,605.2322],[21.9557,44.225,643.6376],[21.9489,44.2279,561.2078],[21.9401,44.2262,625.5707],[21.9224,44.2121,825.0383],[21.916,44.2093,912.3127],[21.9119,44.2106,890.8322],[21.8972,44.2211,879.8359],[21.8956,44.2292,794.5805],[21.8979,44.24,739.8963],[21.8951,44.2505,693.0457],[21.8966,44.2602,742.4767],[21.894,44.2678,566.0847],[21.894,44.2769,559.812],[21.8892,44.2849,643.5126],[21.8762,44.2943,644.0963],[21.8481,44.3033,819.4188],[21.8003,44.2948,693.8759],[21.7844,44.2963,561.01],[21.7644,44.2953,674.7264],[21.7434,44.3031,673.4244],[21.7184,44.319,677.5511],[21.7128,44.3186,681.834],[21.703,44.3147,581.6398],[21.6916,44.3153,678.965],[21.6702,44.3334,804.486],[21.6596,44.3357,735.3783],[21.6283,44.3305,601.3603],[21.6065,44.308,425.5426],[21.5773,44.2976,359.1108],[21.5631,44.296,496.4113],[21.5597,44.2943,520.7578],[21.5565,44.2904,453.3121],[21.5534,44.2794,452.3794],[21.5467,44.2711,307.7479],[21.5471,44.2597,298.4272],[21.545,44.2558,266.2838],[21.5179,44.2453,362.6443],[21.5108,44.2411,397.9518],[21.5089,44.2381,419.4099],[21.5091,44.2341,472.3297],[21.5118,44.2305,480.6738],[21.5248,44.2217,491.587],[21.5397,44.2143,416.1969],[21.5414,44.2095,514.077],[21.5403,44.2054,525.5507],[21.5357,44.2014,577.3597],[21.5277,44.1987,553.9722],[21.5119,44.19,515.4594],[21.4878,44.1817,540.137],[21.4999,44.1706,480.2822],[21.5248,44.155,384.5261],[21.5319,44.1482,378.0491],[21.5439,44.1424,435.664],[21.5465,44.1394,379.3254],[21.5521,44.1237,488.4212],[21.5583,44.1192,429.2258],[21.5868,44.1125,410.2791],[21.6041,44.1156,717.506],[21.6223,44.1123,735.8198],[21.6441,44.1124,900.2633],[21.6537,44.1097,916.6674],[21.668,44.102,947.1865],[21.6759,44.0885,613.1294],[21.6936,44.0826,694.598],[21.7056,44.0834,704.6643],[21.7233,44.0907,814.5532],[21.7363,44.0897,912.7952],[21.7431,44.0879,924.3867],[21.7563,44.0763,733.2992],[21.7683,44.0715,772.3192],[21.778,44.0705,864.8131],[21.7955,44.0751,739.8506],[21.8192,44.0655,978.8538],[21.8334,44.0685,963.8971],[21.8546,44.0688,894.3049],[21.8698,44.0801,1006.3038],[21.8805,44.086,986.4539],[21.903,44.0946,896.4399],[21.9409,44.0959,537.6943],[21.9507,44.099,550.7642],[21.9608,44.1101,627.4781],[21.9589,44.114,665.387],[21.9496,44.1222,1016.9163],[21.9443,44.1411,825.1095],[21.9454,44.1438,802.338],[21.9548,44.1506,869.9934],[21.9578,44.1554,792.8416],[21.9554,44.1779,783.2649]]]]}
,"properties": {"GID_2": "SRB.2.8_1","GID_0": "SRB","country": "Serbia","GID_1": "SRB.2_1","province": "Braničevski","NL_NAME_1": "Браничевски","county": "Žagubica","VARNAME_2": "Jagubiţa","NL_NAME_2": "Жагубица","TYPE_2": "Opštine","ENGTYPE_2": "Town|Municipal","CC_2": "NA","HASC_2": "NA","name": "Žagubica.county","area_km2": 757.6961,"hist_schema_id": "Elevation0-9000","hist_area_km2": {"175": 0.0911,"200": 3.1747,"225": 7.1097,"250": 8.5684,"275": 19.9322,"300": 28.9725,"325": 27.9522,"350": 28.1629,"375": 28.6033,"400": 27.7703,"425": 28.227,"450": 26.5424,"475": 24.143,"500": 24.5382,"525": 24.7207,"550": 25.2671,"575": 29.2946,"600": 28.322,"625": 25.4222,"650": 25.9274,"675": 26.9766,"700": 26.4671,"725": 27.1258,"750": 25.2138,"775": 24.8073,"800": 20.7484,"825": 15.6855,"850": 14.6219,"875": 13.7111,"900": 11.4909,"925": 11.2933,"950": 10.6241,"975": 10.8377,"1000": 10.9595,"1025": 9.4984,"1050": 9.7725,"1075": 9.4526,"1100": 8.2961,"1125": 7.4591,"1150": 5.5566,"1175": 4.2475,"1200": 2.1162,"1225": 1.7051,"1250": 1.6289,"1275": 1.8572,"1300": 2.4356,"1325": 0.3653}}}