{"type": "Feature","bbox": [20.056,45.7918,20.3938,46.0516],"geometry": {"type": "MultiPolygon","coordinates": [[[[20.3458,46.049,78.6913],[20.3317,46.0516,77.7341],[20.298,46.0403,77.6672],[20.2736,46.0264,78.8077],[20.2524,46.0213,79.5611],[20.2448,46.0142,76.8599],[20.2443,46.0024,77.0995],[20.2402,45.9978,76.4133],[20.2363,45.9967,76.9363],[20.2169,45.9968,81.0812],[20.162,46.0023,82.0973],[20.1432,46.0084,81.17],[20.095,46.0168,83.1489],[20.0713,46.0167,82.9571],[20.06,46.0127,79.0135],[20.056,46.0096,79.5372],[20.0765,46.0021,77.2957],[20.0816,45.9975,76.6715],[20.0849,45.9877,76.8075],[20.0835,45.9755,76.5983],[20.0873,45.9653,78.5026],[20.0812,45.9485,76.2741],[20.0891,45.9252,82.8967],[20.1082,45.9145,77.5941],[20.1122,45.9107,82.9113],[20.1128,45.9065,72.1846],[20.1086,45.8876,80.996],[20.1098,45.8837,80.7173],[20.1142,45.8787,79.5275],[20.1116,45.876,76.921],[20.1044,45.8748,81.0484],[20.0801,45.878,81.0176],[20.0698,45.8731,80.757],[20.0618,45.8656,80.6149],[20.1019,45.8504,75.6547],[20.1133,45.8435,75.8012],[20.1299,45.8289,73.3269],[20.1342,45.8166,76.5786],[20.1446,45.8008,79.2674],[20.1483,45.798,82.3468],[20.1648,45.7918,76.1106],[20.2071,45.8031,77.5759],[20.2291,45.8138,75.0455],[20.2342,45.8202,79.7238],[20.2402,45.837,75.5142],[20.2414,45.8452,76.0124],[20.2399,45.8534,76.3567],[20.232,45.869,79.1055],[20.2327,45.8749,76.5],[20.2448,45.8854,76.6042],[20.2732,45.8945,76.8246],[20.2916,45.9031,76.6455],[20.2939,45.9124,77.867],[20.2858,45.9254,79.0292],[20.2839,45.9395,77.3894],[20.2862,45.9437,78.6238],[20.2996,45.9531,77.3724],[20.3009,45.9567,78.4929],[20.2993,45.9641,78.0537],[20.3002,45.9708,78.3314],[20.3137,45.9855,78.1112],[20.3223,45.988,78.4848],[20.3357,45.9854,78.1898],[20.3556,45.974,77.172],[20.3682,45.9695,77.2517],[20.3771,45.9698,77.2072],[20.3938,45.9735,77.2141],[20.3499,46.0,79.8785],[20.3549,46.0,78.915],[20.3537,46.004,78.9461],[20.3594,46.0059,79.3109],[20.3422,46.0366,77.9451],[20.3409,46.0419,77.9345],[20.3447,46.0474,78.7105],[20.3475,46.0478,78.5392],[20.3458,46.049,78.6913]]]]}
,"properties": {"GID_2": "SRB.18.2_1","GID_0": "SRB","country": "Serbia","GID_1": "SRB.18_1","province": "Severno-Banatski","NL_NAME_1": "Севернобанатски","county": "Čoka","VARNAME_2": "Csóka","NL_NAME_2": "Чока","TYPE_2": "Opštine","ENGTYPE_2": "Town|Municipal","CC_2": "NA","HASC_2": "NA","name": "Čoka.county","area_km2": 343.3534,"hist_schema_id": "Elevation0-9000","hist_area_km2": {"75": 343.0141,"100": 0.3393}}}