{"type":"Feature","properties":{"GID_2":"SRB.15.2_1","GID_0":"SRB","country":"Serbia","GID_1":"SRB.15_1","province":"Rasinski","NL_NAME_1":"Расински","county":"Brus","VARNAME_2":"NA","NL_NAME_2":"Брус","TYPE_2":"Opštine","ENGTYPE_2":"Town|Municipal","CC_2":"NA","HASC_2":"NA","name":"Brus.county"},
"geometry":{"type": "MultiPolygon","coordinates": [[[[20.8939,43.1258,951.0901],[20.9115,43.1376,1127.72],[20.9204,43.1499,1468.9347],[20.9326,43.1624,1220.6979],[20.945,43.1671,1120.1418],[20.9549,43.1753,1005.8194],[20.9557,43.1781,1130.8719],[20.9524,43.1852,1081.4142],[20.9484,43.2084,848.608],[20.9483,43.2191,824.7916],[20.9511,43.2246,917.4779],[20.9658,43.2377,1040.7476],[20.9671,43.2418,1021.0331],[20.9655,43.2478,886.9008],[20.968,43.2511,799.6862],[20.9874,43.255,700.1844],[21.0012,43.2499,698.309],[21.0119,43.248,721.765],[21.0361,43.255,626.5094],[21.0514,43.2491,564.9911],[21.0561,43.2425,605.6874],[21.0596,43.2403,603.5286],[21.0689,43.2366,548.2313],[21.0803,43.2356,689.6237],[21.1019,43.2405,845.1179],[21.1318,43.2531,1028.3812],[21.1404,43.263,866.7002],[21.1507,43.269,905.0201],[21.1525,43.2817,1012.8462],[21.1601,43.29,793.3233],[21.1652,43.3014,765.6795],[21.1973,43.3204,659.8972],[21.2004,43.3294,613.4382],[21.1975,43.3369,437.6887],[21.1982,43.3424,399.2836],[21.202,43.3467,538.2059],[21.2128,43.354,630.7816],[21.2039,43.3706,503.357],[21.1826,43.387,421.8665],[21.1643,43.3885,275.0],[21.1299,43.3868,379.5798],[21.1257,43.3836,414.9333],[21.1112,43.3797,385.7737],[21.1016,43.371,390.6521],[21.0911,43.3679,464.6536],[21.0791,43.3675,590.2849],[21.065,43.3702,446.7863],[21.0587,43.3747,532.8198],[21.0517,43.3885,635.4104],[21.0528,43.393,666.5173],[21.0601,43.4009,421.0109],[21.0602,43.4051,374.8115],[21.0567,43.4092,421.4378],[21.0484,43.4126,405.5514],[21.0401,43.4127,440.1784],[21.0267,43.4043,569.8123],[21.0164,43.3925,477.7043],[21.0111,43.3919,433.4327],[20.9985,43.4067,460.4439],[21.0005,43.417,693.433],[20.9982,43.4202,526.0649],[20.9857,43.4275,529.0089],[20.9708,43.4311,619.7294],[20.9438,43.4274,755.8851],[20.9221,43.4323,1066.7014],[20.9149,43.4319,986.2859],[20.8898,43.4203,1074.8828],[20.8774,43.4064,988.776],[20.8641,43.3949,1104.1355],[20.8447,43.3895,1110.3152],[20.8291,43.383,1309.2666],[20.8326,43.3625,1328.6243],[20.8291,43.3527,1185.2327],[20.832,43.3405,1510.0559],[20.8381,43.3319,1620.3563],[20.8331,43.3238,1736.4187],[20.8237,43.3167,1908.7991],[20.8182,43.3083,1774.2795],[20.8087,43.3025,1656.7473],[20.8058,43.2987,1644.8423],[20.8052,43.2933,1710.0441],[20.8093,43.2834,1728.9138],[20.8081,43.2718,1755.9517],[20.8097,43.2598,1464.9402],[20.8061,43.252,1292.6968],[20.7984,43.2441,1128.213],[20.8048,43.2353,1135.6758],[20.8194,43.2244,1059.9224],[20.8298,43.212,752.1826],[20.8402,43.2054,951.1619],[20.8434,43.2006,999.5437],[20.8445,43.194,1145.5889],[20.8438,43.1904,978.7015],[20.8412,43.1878,1085.5929],[20.8246,43.1862,826.6594],[20.8115,43.1827,756.6564],[20.8113,43.1795,835.7496],[20.8187,43.1726,955.9091],[20.8187,43.1689,941.6652],[20.8159,43.1664,888.5005],[20.8007,43.1611,897.1605],[20.7979,43.1553,889.7306],[20.7994,43.153,935.9144],[20.8043,43.151,855.9977],[20.8171,43.1503,612.7971],[20.8314,43.1457,819.2997],[20.8465,43.1452,1039.0901],[20.8747,43.1273,1037.5217],[20.8939,43.1258,951.0901]]]]}}