{"type":"Feature","properties":{"GID_2":"SRB.2.6_1","GID_0":"SRB","country":"Serbia","GID_1":"SRB.2_1","province":"Braničevski","NL_NAME_1":"Браничевски","county":"VelikoGradište","VARNAME_2":"NA","NL_NAME_2":"ВеликоГрадиште","TYPE_2":"Opštine","ENGTYPE_2":"Town|Municipal","CC_2":"NA","HASC_2":"NA","name":"Veliko_Gradište.county"},
"geometry":{"type": "MultiPolygon","coordinates": [[[[21.5879,44.7595,67.5],[21.5616,44.7685,67.5],[21.5385,44.773,67.5],[21.5058,44.7715,67.5],[21.4614,44.7773,67.5],[21.4263,44.7737,67.5],[21.4074,44.7763,67.5],[21.4007,44.7783,67.5],[21.3938,44.7833,67.5],[21.3867,44.8054,67.5],[21.3177,44.7957,68.055],[21.3009,44.7805,72.0013],[21.3255,44.7741,167.8692],[21.3413,44.7592,238.4895],[21.3415,44.755,261.2053],[21.3328,44.7466,250.2759],[21.3314,44.7429,225.1548],[21.3337,44.7359,208.1195],[21.3404,44.7279,177.6213],[21.3402,44.7254,182.217],[21.3076,44.7045,116.7894],[21.2911,44.6989,106.6442],[21.2685,44.6871,96.6338],[21.2674,44.6845,99.0335],[21.27,44.678,101.5724],[21.2697,44.6664,96.5428],[21.2774,44.6571,95.3541],[21.2925,44.6503,99.2807],[21.3288,44.6435,128.2619],[21.3481,44.6364,203.4396],[21.3667,44.6351,201.9211],[21.3879,44.6158,224.0075],[21.4029,44.6105,198.8375],[21.4166,44.5903,226.1022],[21.4168,44.5755,246.9554],[21.4087,44.5644,174.5785],[21.417,44.5508,230.8237],[21.4193,44.5392,184.006],[21.4386,44.5266,183.5932],[21.4653,44.5167,179.8416],[21.4733,44.5437,227.7244],[21.4814,44.5497,264.1908],[21.4934,44.5532,229.0975],[21.4957,44.5551,215.9899],[21.4927,44.5682,167.6413],[21.4963,44.5805,171.9932],[21.503,44.5905,125.7802],[21.4981,44.6036,124.0189],[21.503,44.6191,100.759],[21.4957,44.6338,96.9302],[21.4947,44.6444,95.3301],[21.4998,44.6518,92.7837],[21.5203,44.6679,96.0576],[21.5212,44.6815,87.1412],[21.5229,44.6841,84.058],[21.5392,44.6921,85.9646],[21.5442,44.6919,143.5857],[21.5561,44.6876,188.8932],[21.5705,44.6904,124.1746],[21.5864,44.7006,106.0519],[21.6028,44.7062,82.3725],[21.6166,44.7165,67.5],[21.6067,44.7384,67.5],[21.5931,44.7559,67.5],[21.5879,44.7595,67.5]]]]}}