{"type":"Feature","properties":{"GID_2":"SRB.2.1_1","GID_0":"SRB","country":"Serbia","GID_1":"SRB.2_1","province":"Braničevski","NL_NAME_1":"Браничевски","county":"Golubac","VARNAME_2":"Galambóc|Golumbácz|Güvercinlik","NL_NAME_2":"Голубац","TYPE_2":"Opštine","ENGTYPE_2":"Town|Municipal","CC_2":"NA","HASC_2":"NA","name":"Golubac.county"},
"geometry":{"type": "MultiPolygon","coordinates": [[[[21.8695,44.6506,67.0],[21.8438,44.6547,67.0],[21.8269,44.6509,67.0],[21.8139,44.6514,67.0],[21.8073,44.6551,67.0],[21.7991,44.6628,67.0],[21.7929,44.6644,67.0],[21.7303,44.6539,67.0],[21.7177,44.6548,67.0],[21.6981,44.6641,91.9933],[21.6906,44.6656,67.0],[21.6773,44.6653,67.0],[21.6541,44.6607,67.0],[21.6394,44.6599,67.0],[21.6222,44.6686,67.0],[21.614,44.6839,67.5],[21.6124,44.7,67.5],[21.6166,44.7165,67.5],[21.6028,44.7062,82.3725],[21.5864,44.7006,106.0519],[21.5705,44.6904,124.1746],[21.5561,44.6876,188.8932],[21.5442,44.6919,143.5857],[21.5392,44.6921,85.9646],[21.5229,44.6841,84.058],[21.5212,44.6815,87.1412],[21.5203,44.6679,96.0576],[21.4998,44.6518,92.7837],[21.4947,44.6444,95.3301],[21.4957,44.6338,96.9302],[21.503,44.6191,100.759],[21.4981,44.6036,124.0189],[21.503,44.5905,125.7802],[21.4963,44.5805,171.9932],[21.4927,44.5682,167.6413],[21.4934,44.5619,193.9832],[21.4946,44.5578,194.5743],[21.5256,44.5708,118.8241],[21.5422,44.5746,111.8672],[21.5475,44.5726,112.8936],[21.5497,44.5692,113.8099],[21.5364,44.5585,134.5807],[21.5365,44.5497,193.727],[21.542,44.5455,201.0309],[21.5488,44.5467,138.6949],[21.5568,44.5555,121.8127],[21.5623,44.5591,117.9484],[21.576,44.5632,129.4737],[21.5872,44.561,201.5636],[21.6111,44.5479,254.0182],[21.6289,44.5468,337.11],[21.6505,44.553,317.7736],[21.6667,44.5527,244.8315],[21.6865,44.5563,464.9537],[21.6957,44.5625,435.2309],[21.7072,44.5762,513.6133],[21.7218,44.5823,392.9236],[21.733,44.5904,285.9189],[21.7364,44.5952,305.4713],[21.7493,44.5941,353.7947],[21.7724,44.5877,390.0449],[21.7891,44.5855,465.3275],[21.8019,44.5674,393.1814],[21.807,44.5638,589.862],[21.8217,44.5613,643.8398],[21.8464,44.5534,568.0],[21.8799,44.5486,356.1909],[21.914,44.5182,509.6472],[21.9298,44.5144,458.1237],[21.9383,44.5196,608.4617],[21.9534,44.5226,517.3939],[21.9556,44.5258,450.6659],[21.9561,44.5323,443.9578],[21.9614,44.5385,489.5992],[22.0013,44.5694,460.7469],[22.0264,44.5921,67.0],[22.0216,44.5973,67.0],[22.0059,44.6083,67.0],[22.0011,44.6271,67.0],[21.9987,44.6305,67.0],[21.9932,44.6335,67.0],[21.9826,44.6345,67.0],[21.9729,44.6334,67.0],[21.9523,44.6355,67.0],[21.919,44.6478,67.0],[21.8972,44.6451,67.0],[21.8695,44.6506,67.0]]]]}}