{"type":"Feature","properties":{"GID_2":"SRB.5.12_1","GID_0":"SRB","country":"Serbia","GID_1":"SRB.5_1","province":"Južno-Bački","NL_NAME_1":"Јужнобачки","county":"Žabalj","VARNAME_2":"Zsablya|Józseffalva","NL_NAME_2":"Жабаљ","TYPE_2":"Opštine","ENGTYPE_2":"Town|Municipal","CC_2":"NA","HASC_2":"NA","name":"Žabalj.county"},
"geometry":{"type": "MultiPolygon","coordinates": [[[[19.9586,45.5045,79.2705],[19.9291,45.4917,80.3074],[19.9087,45.47,80.6851],[19.925,45.4685,76.9891],[19.9398,45.4634,78.5077],[19.9581,45.4543,78.3914],[19.962,45.4512,78.1793],[19.964,45.4468,77.6801],[19.9611,45.441,78.1827],[19.9449,45.429,79.9685],[19.9359,45.4135,80.1819],[19.9275,45.4042,81.8049],[19.9255,45.3956,80.868],[19.9261,45.3914,80.8751],[19.9377,45.3781,81.6523],[19.937,45.3731,81.5842],[19.931,45.3667,80.636],[19.9107,45.3523,81.3848],[19.9325,45.3468,80.3318],[19.9471,45.3454,79.5947],[19.9646,45.3386,80.1687],[19.9682,45.3343,80.3466],[19.9687,45.33,80.4448],[19.9602,45.3165,80.5563],[19.9654,45.3102,79.5249],[19.9847,45.3034,80.2212],[19.993,45.3038,80.9279],[20.0109,45.3085,80.1627],[20.0157,45.3082,80.086],[20.0333,45.3015,79.8252],[20.0328,45.298,80.9331],[20.0299,45.2956,80.9726],[20.0489,45.2931,80.1786],[20.0576,45.2936,79.1994],[20.0842,45.2988,73.7234],[20.0965,45.3038,76.0003],[20.1338,45.3107,72.3843],[20.1372,45.3144,73.0332],[20.1383,45.3282,75.2406],[20.1443,45.3354,73.7846],[20.1483,45.3438,74.0766],[20.1516,45.3455,72.8171],[20.167,45.3403,73.2051],[20.1719,45.3357,72.1806],[20.1692,45.3306,72.2889],[20.1549,45.3208,71.9789],[20.15,45.3105,72.486],[20.15,45.3073,74.4311],[20.1524,45.3053,75.5567],[20.1666,45.3052,74.943],[20.1813,45.3022,72.9758],[20.2121,45.3032,72.3476],[20.2181,45.3017,72.3649],[20.2254,45.2961,72.7981],[20.2489,45.2992,73.1457],[20.2535,45.3011,73.9128],[20.2525,45.3047,77.2161],[20.2375,45.3124,77.6416],[20.2385,45.3143,73.2288],[20.2518,45.3187,83.8791],[20.2542,45.3217,84.3025],[20.2519,45.3278,70.0],[20.2418,45.3349,73.328],[20.2354,45.3368,73.4941],[20.2284,45.3363,73.854],[20.217,45.3264,72.6358],[20.2109,45.3238,73.0312],[20.2019,45.3241,72.0939],[20.1958,45.3286,72.5603],[20.1952,45.3329,72.7904],[20.198,45.3381,73.1232],[20.2126,45.3465,71.6808],[20.2001,45.3553,74.6464],[20.2064,45.3651,73.0221],[20.2063,45.3696,77.2711],[20.1935,45.3742,73.295],[20.1898,45.3775,73.4443],[20.1904,45.381,73.3146],[20.195,45.3863,75.0841],[20.2108,45.3949,75.2539],[20.2145,45.3989,77.8151],[20.2057,45.4068,72.516],[20.2072,45.4201,72.7978],[20.2039,45.4271,72.8607],[20.1948,45.4294,72.8976],[20.1851,45.4257,72.9009],[20.1757,45.4174,72.8372],[20.1593,45.4184,72.433],[20.1447,45.4146,73.0545],[20.1053,45.4225,73.775],[20.0974,45.426,73.6945],[20.0945,45.4291,73.2434],[20.0921,45.4364,73.217],[20.0945,45.4419,73.292],[20.1312,45.4537,73.3292],[20.1577,45.4646,73.618],[20.1563,45.4678,73.8273],[20.1468,45.4738,72.8859],[20.1304,45.4941,74.6889],[20.0983,45.515,73.7533],[20.0901,45.5168,74.3734],[20.0804,45.5163,73.6164],[20.0748,45.5136,73.6927],[20.0723,45.5096,73.2923],[20.0762,45.5007,73.3136],[20.0745,45.4955,73.6695],[20.0593,45.4888,74.5794],[20.0501,45.4814,74.3676],[20.0436,45.4791,78.3976],[20.0393,45.4803,79.8177],[20.0369,45.4852,78.8605],[20.0425,45.5025,73.2305],[20.0087,45.5023,80.5331],[19.9943,45.4987,79.6065],[19.9844,45.4979,79.6591],[19.9742,45.499,80.5575],[19.9586,45.5045,79.2705]]]]}}