{"type": "Feature","bbox": [20.7176,43.4929,20.9514,43.6863],"geometry": {"type": "MultiPolygon","coordinates": [[[[20.9452,43.506,823.9109],[20.9301,43.5191,956.6533],[20.9201,43.5324,905.2687],[20.9188,43.5446,871.5272],[20.9159,43.5541,729.7461],[20.9081,43.5643,741.2579],[20.9065,43.5723,541.4178],[20.9082,43.5791,450.3929],[20.9154,43.5885,438.0878],[20.9368,43.5995,295.7312],[20.9504,43.6093,241.3693],[20.9514,43.613,238.6318],[20.9371,43.6237,225.7436],[20.923,43.6276,203.3083],[20.9201,43.6304,200.4234],[20.9178,43.6366,186.5751],[20.9139,43.6396,183.856],[20.8781,43.6445,204.8799],[20.8711,43.6509,191.9839],[20.8539,43.6594,183.9185],[20.8403,43.6581,212.9636],[20.8229,43.6758,189.015],[20.8115,43.6854,181.6161],[20.8068,43.6863,182.1754],[20.8021,43.6841,189.5063],[20.7954,43.6754,232.7493],[20.7848,43.6688,265.7993],[20.7709,43.655,333.2274],[20.7552,43.6482,452.2322],[20.7456,43.6286,724.2469],[20.7316,43.6212,552.4583],[20.7295,43.6185,645.1705],[20.7292,43.6144,676.3645],[20.7312,43.6094,605.2538],[20.7403,43.5938,617.9371],[20.7508,43.583,828.0066],[20.7601,43.5641,892.7743],[20.7648,43.56,1002.4695],[20.774,43.556,1036.3337],[20.7774,43.5513,1118.0815],[20.7903,43.5486,1155.9543],[20.7933,43.5447,1186.9731],[20.7888,43.54,1325.8497],[20.7723,43.5322,1322.8004],[20.7488,43.5379,1199.34],[20.7284,43.5378,1161.064],[20.7201,43.5354,1144.1338],[20.7176,43.5317,1148.9897],[20.7227,43.5175,932.4402],[20.7255,43.514,825.541],[20.7519,43.5086,843.5059],[20.777,43.5126,1160.4991],[20.7887,43.5052,1238.6841],[20.7946,43.5042,1257.9187],[20.8113,43.5058,1083.3572],[20.8246,43.5147,1008.1193],[20.8308,43.5156,890.7983],[20.8443,43.5074,817.9985],[20.8545,43.4981,895.7686],[20.867,43.4938,889.0351],[20.8777,43.4929,863.1934],[20.8962,43.4933,705.936],[20.9187,43.4967,761.5848],[20.9452,43.506,823.9109]]]]}
,"properties": {"GID_2": "SRB.16.5_1","GID_0": "SRB","country": "Serbia","GID_1": "SRB.16_1","province": "Raški","NL_NAME_1": "Рашки","county": "VrnjačkaBanja","VARNAME_2": "NA","NL_NAME_2": "ВрњачкаБања","TYPE_2": "Opštine","ENGTYPE_2": "Town|Municipal","CC_2": "NA","HASC_2": "NA","name": "Vrnjačka_Banja.county","area_km2": 246.2479,"hist_schema_id": "Elevation0-9000","hist_area_km2": {"175": 1.0891,"200": 8.7752,"225": 10.3563,"250": 11.2474,"275": 10.9879,"300": 9.6995,"325": 6.8915,"350": 5.9094,"375": 6.0631,"400": 5.5263,"425": 4.5442,"450": 4.2834,"475": 3.8998,"500": 3.562,"525": 3.1015,"550": 3.3318,"575": 3.3165,"600": 3.3625,"625": 3.5472,"650": 4.1005,"675": 4.5464,"700": 4.7772,"725": 5.4078,"750": 5.8844,"775": 6.5761,"800": 7.2225,"825": 7.0687,"850": 7.5154,"875": 7.1773,"900": 8.2687,"925": 6.9773,"950": 6.9313,"975": 6.8543,"1000": 6.1931,"1025": 6.8384,"1050": 6.5772,"1075": 5.6092,"1100": 3.9807,"1125": 3.1049,"1150": 2.7208,"1175": 2.229,"1200": 1.6449,"1225": 1.399,"1250": 0.8916,"1275": 0.9377,"1300": 0.7994,"1325": 0.8916,"1350": 0.8301,"1375": 0.9377,"1400": 0.4919,"1425": 0.3843,"1450": 0.4304,"1475": 0.2613,"1500": 0.1537,"1525": 0.123,"1550": 0.0154}}}