{"type":"Feature","properties":{"GID_1":"SRB.2_1","GID_0":"SRB","country":"Serbia","province":"Braničevski","VARNAME_1":"Braničevo","NL_NAME_1":"Браничевски","TYPE_1":"Okrug","ENGTYPE_1":"District","CC_1":"NA","HASC_1":"RS.BR","ISO_1":"NA","name":"Braničevski.province"},
"geometry":{"type": "MultiPolygon","coordinates": [[[[21.9577,44.1599,805.6766],[21.9554,44.1779,783.2649],[21.9581,44.1952,731.3123],[21.9508,44.2104,715.9932],[21.9514,44.2139,678.468],[21.9568,44.2204,605.2322],[21.9557,44.225,643.6376],[21.9489,44.2279,561.2078],[21.9401,44.2262,625.5707],[21.9224,44.2121,825.0383],[21.916,44.2093,912.3127],[21.9119,44.2106,890.8322],[21.8972,44.2211,879.8359],[21.8956,44.2292,794.5805],[21.8979,44.24,739.8963],[21.8951,44.2505,693.0457],[21.8966,44.2602,742.4767],[21.894,44.2678,566.0847],[21.894,44.2769,559.812],[21.8892,44.2849,643.5126],[21.8762,44.2943,644.0963],[21.8617,44.2981,579.0836],[21.8511,44.3031,792.7601],[21.8417,44.3029,725.7703],[21.8157,44.2981,745.0505],[21.8071,44.3131,829.2117],[21.8129,44.3233,649.6445],[21.813,44.3274,703.9775],[21.8085,44.3328,635.4797],[21.7964,44.3409,595.7725],[21.7943,44.3505,450.6373],[21.7956,44.3585,526.9929],[21.7997,44.3638,747.5737],[21.8091,44.3679,634.0317],[21.8152,44.3731,568.5996],[21.8177,44.3785,506.0563],[21.8194,44.3921,531.723],[21.8231,44.3962,642.9033],[21.8349,44.3988,603.2958],[21.8492,44.395,509.9954],[21.854,44.3958,527.644],[21.8583,44.3993,563.3725],[21.8642,44.4088,351.5638],[21.8718,44.414,281.6669],[21.882,44.4245,463.6417],[21.8892,44.4267,470.2762],[21.9125,44.4257,597.9365],[21.9163,44.4268,549.2684],[21.9196,44.4301,474.9721],[21.9247,44.4418,656.0158],[21.9176,44.4568,600.1802],[21.9169,44.4635,506.2875],[21.9182,44.4673,535.291],[21.9253,44.4759,617.7933],[21.9286,44.4864,602.0862],[21.9348,44.4948,630.085],[21.935,44.5061,597.7159],[21.9298,44.5144,458.1237],[21.9383,44.5196,608.4617],[21.9534,44.5226,517.3939],[21.9556,44.5258,450.6659],[21.9561,44.5323,443.9578],[21.9614,44.5385,489.5992],[22.0013,44.5694,460.7469],[22.0264,44.5921,67.0],[22.0216,44.5973,67.0],[22.0059,44.6083,67.0],[22.0011,44.6271,67.0],[21.9952,44.6326,67.0],[21.9892,44.6343,67.0],[21.9729,44.6334,67.0],[21.9523,44.6355,67.0],[21.919,44.6478,67.0],[21.8931,44.6454,67.0],[21.8438,44.6547,67.0],[21.8269,44.6509,67.0],[21.8161,44.651,67.0],[21.8097,44.6533,67.0],[21.7991,44.6628,67.0],[21.7929,44.6644,67.0],[21.7303,44.6539,67.0],[21.7177,44.6548,67.0],[21.6981,44.6641,91.9933],[21.6906,44.6656,67.0],[21.6773,44.6653,67.0],[21.6541,44.6607,67.0],[21.6394,44.6599,67.0],[21.6243,44.6667,67.0],[21.6182,44.6749,67.0],[21.6132,44.6866,67.5],[21.6125,44.6962,67.5],[21.6166,44.7165,67.5],[21.6087,44.7355,67.5],[21.5899,44.7584,67.5],[21.5658,44.7673,67.5],[21.5385,44.773,67.5],[21.5058,44.7715,67.5],[21.4614,44.7773,67.5],[21.4263,44.7737,67.5],[21.4074,44.7763,67.5],[21.4007,44.7783,67.5],[21.3938,44.7833,67.5],[21.3867,44.8054,67.5],[21.3177,44.7957,68.055],[21.3009,44.7805,72.0013],[21.288,44.7726,75.373],[21.2614,44.7709,67.114],[21.2414,44.7662,68.3202],[21.2216,44.7641,67.0129],[21.2068,44.7588,67.3552],[21.1806,44.7527,69.278],[21.1527,44.7382,67.5],[21.1486,44.7339,67.5],[21.1461,44.7255,68.6656],[21.1268,44.7093,69.2523],[21.0857,44.7099,70.3803],[21.0781,44.7073,97.5957],[21.0534,44.6925,72.5267],[21.0264,44.6911,69.8086],[21.0227,44.6808,70.6217],[21.0294,44.6695,73.5872],[21.0296,44.6654,72.4314],[21.0207,44.6547,71.3184],[21.0226,44.6511,72.0469],[21.0311,44.6442,72.1383],[21.0294,44.638,72.2305],[21.0302,44.6341,75.8989],[21.0394,44.6236,73.276],[21.0437,44.612,74.2691],[21.0485,44.6069,74.2691],[21.0552,44.6032,75.3158],[21.0671,44.6023,75.9105],[21.0735,44.5986,80.224],[21.0601,44.5887,75.1384],[21.0582,44.584,76.0958],[21.0595,44.5812,75.6549],[21.0881,44.561,78.0903],[21.1252,44.5556,83.3755],[21.1317,44.5511,79.8308],[21.1316,44.5428,76.6525],[21.1243,44.5306,81.3226],[21.1141,44.5212,80.7919],[21.1132,44.5159,80.7222],[21.1174,44.5117,80.8918],[21.13,44.5063,88.6567],[21.1307,44.504,83.9775],[21.1246,44.4948,81.8269],[21.1336,44.482,82.968],[21.1427,44.473,83.7638],[21.1578,44.4506,87.6632],[21.1564,44.4475,83.062],[21.142,44.4415,87.7196],[21.1385,44.4365,86.6341],[21.1414,44.4232,86.7556],[21.1534,44.4124,88.8079],[21.1599,44.4032,87.324],[21.1553,44.4003,87.7887],[21.1503,44.4027,92.544],[21.1442,44.4031,91.7397],[21.134,44.3998,90.7119],[21.1089,44.3702,90.7423],[21.107,44.3623,94.7358],[21.1108,44.3559,90.4928],[21.12,44.3507,91.2631],[21.1318,44.3468,91.9902],[21.15,44.3448,93.2843],[21.157,44.3425,90.6444],[21.1812,44.324,91.5487],[21.1824,44.3192,91.9979],[21.1783,44.3153,92.2062],[21.1636,44.3102,92.6871],[21.1298,44.3023,96.1298],[21.125,44.2988,96.9091],[21.1265,44.2959,95.2383],[21.1474,44.2886,95.2082],[21.1596,44.2873,94.8074],[21.1711,44.2815,94.7208],[21.1896,44.2785,101.3576],[21.2123,44.2671,98.7498],[21.2176,44.2548,134.0055],[21.2275,44.2466,164.2572],[21.2505,44.2428,193.8736],[21.2634,44.2384,205.8982],[21.2683,44.2395,234.3263],[21.2788,44.2488,224.5081],[21.2927,44.2757,157.6522],[21.3305,44.2521,173.1667],[21.3344,44.2461,212.5818],[21.3345,44.2348,244.3406],[21.3445,44.222,283.8299],[21.3503,44.2188,283.9721],[21.3637,44.2169,310.168],[21.3674,44.2142,329.3165],[21.3682,44.2085,298.1791],[21.3616,44.1965,236.5228],[21.354,44.1877,205.9234],[21.3575,44.1825,167.154],[21.3662,44.18,180.6278],[21.3936,44.1808,267.4537],[21.4,44.1879,294.5349],[21.4076,44.1921,285.3038],[21.4339,44.1947,341.2401],[21.4449,44.1916,432.1759],[21.4562,44.1829,480.0269],[21.4653,44.179,406.9556],[21.4755,44.1789,484.0354],[21.4878,44.1817,540.137],[21.4999,44.1706,480.2822],[21.5248,44.155,384.5261],[21.5319,44.1482,378.0491],[21.5439,44.1424,435.664],[21.5465,44.1394,379.3254],[21.5521,44.1237,488.4212],[21.5546,44.1209,474.6056],[21.5868,44.1125,410.2791],[21.6041,44.1156,717.506],[21.6223,44.1123,735.8198],[21.6389,44.1131,884.6296],[21.6491,44.1112,917.6562],[21.668,44.102,947.1865],[21.6759,44.0885,613.1294],[21.6936,44.0826,694.598],[21.7056,44.0834,704.6643],[21.719,44.0896,858.4856],[21.7262,44.0909,757.7787],[21.7431,44.0879,924.3867],[21.7563,44.0763,733.2992],[21.7731,44.0705,788.2111],[21.7955,44.0751,739.8506],[21.8178,44.0656,978.8538],[21.8366,44.0688,990.3017],[21.8546,44.0688,894.3049],[21.8698,44.0801,1006.3038],[21.8981,44.0931,943.127],[21.9088,44.0956,896.7898],[21.9447,44.0964,528.82],[21.9536,44.1015,607.946],[21.9603,44.1089,627.4781],[21.9604,44.1121,646.5336],[21.9496,44.1222,1016.9163],[21.9443,44.1411,825.1095],[21.9454,44.1438,802.338],[21.957,44.1533,890.9977],[21.9577,44.1599,805.6766]]]]}}