{"type":"Feature","properties":{"featurecla":"River","scalerank":7,"rivernum":441,"dissolve":"441River","name":"Morava5","name_alt":null,"note":null,"min_zoom":6.0,"strokeweig":0.25,"name_en":"Morava","min_label":7.0},
"geometry":{"type": "LineString","coordinates": [[21.339013671875023,43.894403387494116,119.0492],[21.35205078125,43.897333074994116,119.5831],[21.351953125000023,43.90509674686912,122.589],[21.34716796875,43.916278387494117,118.2217],[21.346435546875,43.92914459843162,118.217],[21.35107421875,43.93842194218162,117.8794],[21.357421875,43.94306061405662,117.0923],[21.374267578125,43.94965241093162,120.7386],[21.374267578125,43.95648834843162,118.5632],[21.361962890625023,43.955829168744117,115.1718],[21.35498046875,43.95905182499412,115.0523],[21.35400390625,43.96600983280662,111.9267],[21.360107421875,43.976336981244117,118.8724],[21.344628906250023,43.978045965619117,113.8941],[21.336181640625,43.98895905155662,109.2656],[21.33447265625,44.00397369999412,112.3083],[21.339013671875023,44.01788971561912,123.8966],[21.3291015625,44.02387116093162,110.6661],[21.322021484375,44.02118561405662,113.3556],[21.314843750000023,44.016961981244116,110.3466],[21.304931640625,44.01788971561912,110.9528],[21.298095703125,44.02448151249412,111.6439],[21.283837890625023,44.045770574994116,109.7415],[21.277490234375023,44.05206940311912,107.7865],[21.211816406250023,44.06806061405662,108.6221],[21.195068359375,44.07941315311912,105.574],[21.192041015625023,44.088397528119117,105.0393],[21.188867187500023,44.12714264530662,156.252],[21.18359375,44.13996002811912,184.9401],[21.179101562500023,44.146600653119116,172.153],[21.17236328125,44.150262762494116,193.3558],[21.160791015625023,44.15448639530662,155.325],[21.152490234375023,44.15509674686912,100.7917],[21.147119140625023,44.15289948124412,101.1389],[21.143310546875,44.15338776249412,102.4806],[21.140380859375,44.16193268436912,101.8937],[21.138427734375,44.17462799686912,101.4301],[21.139306640625023,44.18549225468162,100.84],[21.144189453125023,44.192987371869116,96.1816],[21.154541015625,44.195428778119116,101.1361],[21.133544921875,44.209735418744117,98.6282],[21.154541015625,44.209735418744117,98.382],[21.15234375,44.21320221561912,100.8416],[21.151269531250023,44.21417877811912,95.2398],[21.150146484375,44.21478912968162,101.8526],[21.147216796875,44.21710846561912,99.8309],[21.15185546875,44.22565338749412,93.6562],[21.1533203125,44.22943756718162,98.9626],[21.151757812500023,44.23200104374412,97.8196],[21.147216796875,44.23700592655662,94.5953],[21.147216796875,44.24384186405662,97.1769],[21.168212890625,44.25067780155662,94.2893],[21.168212890625,44.25812409061912,96.713],[21.15234375,44.26300690311912,95.7783],[21.134033203125,44.28656647343162,95.5107],[21.119873046875,44.292254949994117,96.0531],[21.119873046875,44.29913971561912,93.6962],[21.126708984375,44.29913971561912,96.5246],[21.126708984375,44.305292059369116,97.2502],[21.119873046875,44.305292059369116,94.9192],[21.119873046875,44.312762762494117,93.6525],[21.137451171875,44.31171295780662,95.216],[21.145166015625023,44.31732819218162,94.0949],[21.141845703125,44.325702215619117,92.7254],[21.126708984375,44.33258698124412,97.2941],[21.131591796875,44.345233465619117,91.9875],[21.126953125,44.351190496869116,90.0553],[21.118896484375,44.35492584843162,89.2269],[21.113037109375,44.36054108280662,90.8188],[21.110107421875,44.370965887494116,93.0499],[21.111328125,44.37653229374412,94.6207],[21.114990234375,44.382586981244117,89.6468],[21.119873046875,44.394647528119116,89.6972],[21.124169921875023,44.41107819218162,89.4249],[21.13125,44.42584869999412,86.796],[21.146240234375,44.43524811405662,88.0124],[21.174462890625023,44.43561432499412,89.3817],[21.171289062500023,44.443133856244117,86.5373],[21.165283203125,44.44843170780662,85.4812],[21.1572265625,44.45246002811912,87.4831],[21.147216796875,44.45612213749412,84.392],[21.154541015625,44.47662994999412,83.8128],[21.162255859375023,44.472528387494116,88.5801],[21.165185546875023,44.47272369999412,87.8265],[21.167871093750023,44.474725653119116,85.5869],[21.174462890625023,44.47662994999412,78.75],[21.169189453125,44.478534246869117,78.9847],[21.166015625,44.48065827030662,83.1489],[21.162255859375023,44.482684637494117,84.5201],[21.154541015625,44.48407623905662,82.493],[21.158935546875,44.49982330936912,75.5],[21.160791015625023,44.504510809369116,82.5198],[21.154541015625,44.504510809369116,82.8266],[21.147119140625023,44.500751043744117,89.0266],[21.142480468750023,44.51019928593162,80.9996],[21.13525390625,44.52191803593162,72.3563],[21.119873046875,44.525018621869116,81.4377],[21.119873046875,44.531854559369116,81.1875],[21.1337890625,44.54132721561912,80.5897],[21.140527343750023,44.55145905155662,84.8002],[21.140380859375,44.563739324994117,79.2473],[21.133544921875,44.57965729374412,78.8473],[21.12548828125,44.59259674686912,76.4422],[21.11767578125,44.598749090619116,76.7445],[21.105615234375023,44.60065338749412,73.1123],[21.085205078125,44.60077545780662,75.565],[21.087792968750023,44.619745184369116,77.0977],[21.066162109375,44.64398834843162,75.6038],[21.079003906250023,44.65534088749412,76.5741],[21.07373046875,44.660419012494117,81.1503],[21.05908203125,44.67084381718162,74.4447],[21.050927734375023,44.67523834843162,72.7814],[21.052978515625,44.67987702030662,73.4131],[21.05615234375,44.691766668744116,72.5025],[21.058349609375,44.69635651249412,73.8575],[21.04736328125,44.69745514530662,72.4247],[21.040283203125,44.70258209843162,76.0341],[21.037109375,44.71149323124412,78.2048],[21.037255859375023,44.72174713749412,67.5]]}}