{"type": "Feature","id": "279","bbox": [21.03684,44.06548,22.03617,44.82664],"geometry": {"type": "Polygon","coordinates": [[[21.49722,44.77804,67.5],[21.41216,44.78481,156.3275],[21.39593,44.79024,99.9936],[21.37857,44.81665,67.5],[21.36059,44.82641,67.5],[21.35984,44.82664,67.5],[21.31905,44.82505,67.5],[21.26949,44.81368,84.7164],[21.22247,44.79668,71.5002],[21.18883,44.77823,69.3258],[21.17947,44.76808,67.5],[21.17229,44.75687,67.5],[21.16381,44.74782,67.5],[21.15095,44.7441,67.5],[21.12573,44.74557,70.3668],[21.11229,44.7448,71.2197],[21.10284,44.74069,70.3838],[21.07788,44.72651,69.4534],[21.03684,44.72201,67.5],[21.03684,44.72201,67.5],[21.03709,44.71146,78.2048],[21.04035,44.70259,76.0341],[21.04743,44.69748,72.4247],[21.05844,44.69634,73.8575],[21.05627,44.69179,72.5025],[21.05301,44.67988,73.4131],[21.05099,44.67521,72.7814],[21.05916,44.67087,74.4447],[21.07384,44.6604,76.7587],[21.07895,44.65536,76.5741],[21.06629,44.64399,75.6038],[21.08779,44.61976,77.0977],[21.08515,44.60074,75.565],[21.10562,44.60066,73.1123],[21.11771,44.59878,76.299],[21.12562,44.59258,76.4422],[21.13357,44.57963,78.8473],[21.14039,44.56374,79.2473],[21.14055,44.55144,84.8002],[21.13388,44.54131,80.5897],[21.11988,44.53186,81.1875],[21.11988,44.52503,81.4377],[21.13533,44.52191,72.3563],[21.14257,44.5102,80.9996],[21.14706,44.50075,89.0266],[21.15466,44.50452,82.8222],[21.16086,44.50452,82.1588],[21.15895,44.49982,75.5],[21.15466,44.48406,86.7202],[21.16225,44.48266,84.5201],[21.16613,44.48067,83.1489],[21.16923,44.4785,78.9847],[21.1745,44.47661,78.75],[21.16783,44.47475,85.5869],[21.1652,44.47269,87.8265],[21.16225,44.47253,88.5801],[21.15466,44.47661,84.0479],[21.14722,44.45612,84.392],[21.15719,44.45248,87.4831],[21.16535,44.44845,85.4812],[21.17125,44.44313,86.5373],[21.1745,44.43563,89.3817],[21.14629,44.43522,88.0124],[21.13125,44.42582,86.796],[21.12417,44.41111,89.4249],[21.11988,44.39465,89.6972],[21.11502,44.38256,89.6468],[21.1113,44.37652,94.6207],[21.11022,44.37099,93.0499],[21.11306,44.36055,90.8188],[21.11895,44.35492,89.2269],[21.12701,44.35122,90.0553],[21.13156,44.3452,91.9875],[21.1267,44.33259,97.2941],[21.14195,44.32569,92.7254],[21.1452,44.31735,94.0949],[21.1375,44.31169,95.216],[21.11988,44.31275,93.6525],[21.11988,44.30531,94.9192],[21.1267,44.30531,97.2502],[21.1267,44.29911,96.5246],[21.11988,44.29911,93.6962],[21.11988,44.29226,96.0531],[21.13404,44.2866,95.5107],[21.14737,44.28856,95.2082],[21.15233,44.28856,94.9638],[21.1561,44.28815,94.9625],[21.15957,44.28732,94.8074],[21.16225,44.28598,94.5418],[21.16639,44.28324,94.987799999999993],[21.16835,44.28226,94.6869],[21.17109,44.28148,94.75],[21.17419,44.28102,94.7967],[21.18385,44.28006,94.5853],[21.1869,44.27942,94.291],[21.18964,44.27851,98.1329],[21.1992,44.2742,94.6009],[21.21098,44.26807,95.6541],[21.21233,44.26707,104.9834],[21.21352,44.26536,107.8783],[21.21527,44.25906,120.5726],[21.21615,44.25689,122.7363],[21.21755,44.25479,134.0055],[21.22158,44.25068,176.8013],[21.22566,44.24769,180.5898],[21.22747,44.2466,164.2572],[21.22954,44.24578,159.2479],[21.23181,44.24515,140.6038],[21.23491,44.24466,146.5847],[21.24478,44.24384,222.2272],[21.25052,44.24283,193.8736],[21.25289,44.24211,181.9707],[21.26054,44.23901,195.5493],[21.26344,44.23839,205.8982],[21.26524,44.23836,209.4681],[21.2669,44.23875,229.0818],[21.26824,44.2395,234.3263],[21.27615,44.24583,216.5446],[21.27884,44.24882,224.5081],[21.2808,44.25172,207.3059],[21.28359,44.2597,170.2136],[21.28499,44.26221,197.5331],[21.28824,44.26707,212.4725],[21.29269,44.2757,157.6522],[21.31485,44.26195,225.8281],[21.32586,44.25601,163.5276],[21.32845,44.2542,172.7827],[21.33056,44.25213,173.1667],[21.33289,44.24898,175.7233],[21.33439,44.24611,212.5818],[21.3348,44.24402,209.5707],[21.3347,44.24187,231.677],[21.33403,44.23895,237.9407],[21.33397,44.23684,230.8654],[21.33454,44.23477,244.3406],[21.33583,44.2327,256.765],[21.34111,44.22671,255.9947],[21.34446,44.222,283.8299],[21.34674,44.22035,285.6631],[21.35036,44.21883,283.9721],[21.35325,44.21823,287.8378],[21.36162,44.21738,295.5633],[21.36369,44.21691,310.168],[21.36596,44.21562,317.9222],[21.36741,44.2142,329.3165],[21.36834,44.21255,321.6656],[21.36865,44.21053,301.5549],[21.36824,44.20852,298.1791],[21.36462,44.20286,271.1959],[21.36157,44.19648,236.5228],[21.35981,44.19415,235.2002],[21.3548,44.18934,193.1115],[21.35397,44.18769,205.9234],[21.35434,44.18593,188.1281],[21.35594,44.18358,179.3475],[21.35749,44.18252,167.154],[21.36121,44.18092,176.1723],[21.36317,44.18035,175.2325],[21.36622,44.17999,180.6278],[21.36942,44.18004,226.2246],[21.37764,44.18092,244.5001],[21.38136,44.18102,229.4751],[21.39366,44.18082,267.4537],[21.3948,44.18139,267.4537],[21.39635,44.18304,278.0201],[21.39873,44.18655,279.811],[21.40007,44.1879,294.5349],[21.40245,44.18976,288.5133],[21.40524,44.19126,283.5466],[21.40756,44.19213,285.3038],[21.41004,44.19273,264.8768],[21.41402,44.19327,250.1115],[21.43397,44.19467,341.2401],[21.43681,44.19446,388.1872],[21.43877,44.194,433.2552],[21.44281,44.19255,386.1225],[21.44487,44.19157,432.1759],[21.44735,44.19004,423.3089],[21.45361,44.18454,426.0635],[21.45619,44.18288,480.0269],[21.46332,44.17963,406.9556],[21.46528,44.17901,406.9556],[21.46761,44.17865,469.8658],[21.47004,44.17854,467.9183],[21.47552,44.178959999999996,484.0354],[21.48177,44.17989,522.1185],[21.48782,44.1817,540.137],[21.49298,44.17736,530.4178],[21.49986,44.17059,480.2822],[21.51365,44.16159,397.2614],[21.52115,44.15736,386.8577],[21.52476,44.155029999999996,384.5261],[21.52926,44.15048,397.0956],[21.53195,44.14816,378.0491],[21.53443,44.14661,417.8049],[21.54073,44.14418,442.2239],[21.54388,44.14237,435.664],[21.54574,44.14067,410.1619],[21.54652,44.13937,379.3254],[21.54807,44.13353,439.7075],[21.55107,44.12707,457.4728],[21.5521,44.12366,488.4212],[21.55313,44.12219,488.4212],[21.55463,44.1209,474.6056],[21.5583,44.11919,429.2258],[21.56306,44.11813,527.2285],[21.57091,44.11715,549.7099],[21.5813,44.11366,462.0586],[21.58409,44.11286,436.0738],[21.58683,44.11245,410.2791],[21.58807,44.1125,410.2791],[21.59075,44.11302,414.07],[21.59623,44.11488,517.2138],[21.60006,44.1155,687.0392],[21.60404,44.1156,717.506],[21.60807,44.11519,700.2069],[21.61928,44.11266,703.8408],[21.62228,44.11229,735.8198],[21.62843,44.11245,786.9568],[21.63577,44.11317,858.8524],[21.63892,44.11312,884.6296],[21.64408,44.1124,900.2633],[21.64915,44.11116,917.6562],[21.6537,44.10971,916.6674],[21.65669,44.10842,832.973],[21.66796,44.10199,947.1865],[21.66956,44.10049,939.8527],[21.67075,44.09881,932.9129],[21.67308,44.09142,624.6312],[21.67401,44.09015,603.7313],[21.67592,44.08847,613.1294],[21.67824,44.08708,682.7733],[21.68021,44.0863,721.3677],[21.68811,44.08449,752.0009],[21.69364,44.08263,694.598],[21.69773,44.08227,620.3096],[21.70269,44.08281,750.8848],[21.70558,44.08346,704.6643],[21.71157,44.08573,666.8539],[21.71902,44.08961,858.4856],[21.72108,44.09031,821.663],[21.7233,44.09075,814.5532],[21.7262,44.09085,757.7787],[21.73633,44.08969,912.7952],[21.74124,44.08868,924.3867],[21.74305,44.08796,924.3867],[21.74511,44.08651,934.4245],[21.75033,44.08147,866.4407],[21.75633,44.07628,733.2992],[21.7617,44.07374,657.8331],[21.76832,44.0715,772.3192],[21.77312,44.07049,788.2111],[21.77514,44.07033,859.0102],[21.77798,44.07049,864.8131],[21.78092,44.07116,946.6746],[21.7924,44.07483,745.1719],[21.7955,44.07511,739.8506],[21.79849,44.07457,772.8916],[21.80898,44.06927,872.0493],[21.81777,44.06555,978.8538],[21.81927,44.06548,978.8538],[21.82227,44.06576,995.3745],[21.82433,44.06615,1009.4383],[21.83338,44.06852,963.8971],[21.83658,44.06883,990.3017],[21.83978,44.06868,966.091],[21.84728,44.0679,943.5986],[21.85038,44.06798,919.4862],[21.8526,44.06827,887.991],[21.85461,44.06881,894.3049],[21.8573,44.07013,882.0175],[21.86045,44.0723,917.2572],[21.86733,44.0784,1034.2307],[21.86976,44.0801,1006.3038],[21.8805,44.08597,986.4539],[21.88521,44.08821,987.2701],[21.8913,44.09075,968.1169],[21.89807,44.09312,943.127],[21.90298,44.09457,896.4399],[21.90505,44.09503,902.7426],[21.90877,44.09555,896.7898],[21.9127,44.09576,881.6407],[21.93296,44.09566,533.8575],[21.94091,44.09589,537.6943],[21.94464,44.09638,528.82],[21.94691,44.097,518.5978],[21.94898,44.09785,529.0741],[21.95068,44.09896,550.7642],[21.95358,44.10155,607.946],[21.95879,44.1071,648.0753],[21.96029,44.10894,627.4781],[21.96076,44.11012,627.4781],[21.96034,44.11209,646.5336],[21.9589,44.11395,665.387],[21.95182,44.11909,944.1034],[21.95058,44.12056,1003.3291],[21.94965,44.12219,1016.9163],[21.94882,44.12483,976.3928],[21.94753,44.13312,889.8057],[21.9467,44.1357,851.3732],[21.94479,44.13937,846.5526],[21.94432,44.14108,825.1095],[21.94453,44.14253,816.9707],[21.94536,44.14384,802.338],[21.94743,44.14552,820.9852],[21.95254,44.14873,827.4408],[21.95482,44.15064,869.9934],[21.95699,44.15333,890.9977],[21.95776,44.15544,802.1378],[21.95802,44.15767,790.4489],[21.95776,44.15994,805.6766],[21.95673,44.1632,861.3876],[21.9559,44.16826,844.9745],[21.95544,44.17787,783.2649],[21.95606,44.18265,760.8719],[21.95771,44.18785,728.2593],[21.95817,44.19033,752.4788],[21.95833,44.19281,753.9151],[21.95807,44.19518,731.3123],[21.95673,44.19903,743.048],[21.9529,44.20552,692.0887],[21.95125,44.20898,712.707],[21.95084,44.21038,715.9932],[21.95084,44.21239,703.3425],[21.9514,44.21394,678.468],[21.95239,44.21534,678.468],[21.95611,44.21911,605.2322],[21.95683,44.22038,605.2322],[21.95714,44.22175,630.2516],[21.95699,44.22311,642.1835],[21.95575,44.22495,643.6376],[21.95425,44.22598,608.673],[21.95249,44.22686,562.2367],[21.94887,44.2279,561.2078],[21.94608,44.2279,585.4666],[21.94417,44.22753,597.679],[21.94009,44.22616,625.5707],[21.93797,44.22521,602.8305],[21.93544,44.22363,658.6774],[21.93316,44.2218,727.2387],[21.92624,44.21508,777.0491],[21.92241,44.21213,825.0383],[21.92009,44.21053,910.515],[21.91766,44.2095,912.3127],[21.91601,44.20929,912.3127],[21.91425,44.2095,924.9521],[21.91192,44.21058,890.8322],[21.90924,44.212649999999996,829.4125],[21.90536,44.21622,835.6365],[21.89854,44.22014,872.8594],[21.8972,44.22113,879.8359],[21.89606,44.22283,869.0067],[21.89554,44.22482,895.894],[21.89559,44.22919,794.5805],[21.89714,44.23441,691.0554],[21.89776,44.23722,731.6597],[21.89792,44.24004,739.8963],[21.89771,44.24283,809.8048],[21.89699,44.24541,811.52],[21.89544,44.24893,727.0154],[21.89513,44.25045,693.0457],[21.89539,44.25337,711.1462],[21.89668,44.25823,754.8818],[21.89663,44.26024,742.4767],[21.89399,44.26784,566.0847],[21.89389,44.26986,541.0121],[21.89435,44.27487,539.7274],[21.89399,44.27694,559.812],[21.89162,44.2819,621.6619],[21.88924,44.28495,643.5126],[21.87973,44.29239,644.2148],[21.87622,44.29435,644.0963],[21.87167,44.2958,618.5646],[21.86567,44.29693,541.414],[21.86169,44.29807,579.0836],[21.85648,44.30143,618.3923],[21.85399,44.30241,734.9791],[21.8511,44.30306,792.7601],[21.84805,44.30332,836.2497],[21.8449,44.30329,839.7261],[21.8417,44.30293,725.7703],[21.82728,44.2998,694.9897],[21.81565,44.29812,745.0505],[21.81291,44.30334,785.4189],[21.80785,44.31094,801.6216],[21.80707,44.31311,829.2117],[21.80723,44.31523,838.2021],[21.80836,44.3173,774.3278],[21.81167,44.32127,719.3979],[21.81291,44.32334,649.6445],[21.81338,44.32536,671.3718],[21.81302,44.32737,703.9775],[21.81136,44.33006,682.4897],[21.80852,44.33285,635.4797],[21.79937,44.33825,576.7332],[21.79772,44.33949,659.9742],[21.79643,44.34091,595.7725],[21.7955,44.34251,579.5609],[21.79472,44.34505,562.5125],[21.79426,44.35052,450.6373],[21.79477,44.35595,463.5103],[21.7956,44.35848,526.9929],[21.79736,44.36125,594.9885],[21.79968,44.3638,747.5737],[21.80216,44.3652,747.8699],[21.80909,44.36794,634.0317],[21.81157,44.36944,611.7374],[21.81369,44.37119,576.7159],[21.81519,44.37308,568.5996],[21.81689,44.37592,548.1958],[21.81772,44.37848,506.0563],[21.81865,44.38954,500.4773],[21.81937,44.39207,494.9773],[21.82025,44.39367,531.723],[21.82149,44.39507,609.4094],[21.82314,44.39621,642.9033],[21.82692,44.39788,663.9913],[21.82888,44.39843,649.4363],[21.83183,44.39879,612.3788],[21.83487,44.39876,603.2958],[21.83792,44.39832,561.4577],[21.84743,44.39538,519.8126],[21.84919,44.39504,509.9954],[21.85213,44.39522,485.2652],[21.85405,44.39579,527.644],[21.85575,44.39667,489.016],[21.8571,44.39791,546.4733],[21.85823,44.39931,563.3725],[21.86319,44.40752,386.6408],[21.86423,44.40881,351.5638],[21.86635,44.41042,382.0949],[21.8696,44.4123,351.4639],[21.87187,44.41403,281.6669],[21.87425,44.41651,291.9074],[21.87704,44.42042,429.5474],[21.87823,44.42171,429.5474],[21.882,44.42452,463.6417],[21.88474,44.42576,472.3632],[21.88691,44.42638,523.8298],[21.88924,44.42675,470.2762],[21.89224,44.42672,442.8409],[21.89968,44.42571,520.3209],[21.90298,44.42551,534.0686],[21.90944,44.42545,571.5135],[21.91249,44.42569,597.9365],[21.91456,44.4261,573.7222],[21.91632,44.42677,549.2684],[21.91818,44.42822,495.7985],[21.91957,44.43005,474.9721],[21.92376,44.43762,654.3574],[21.92464,44.43972,669.149],[21.92469,44.44176,656.0158],[21.92381,44.44463,590.282],[21.92205,44.44886,576.9997],[21.91761,44.4568,600.1802],[21.91699,44.45899,566.7662],[21.91673,44.46121,523.5074],[21.91688,44.46349,506.2875],[21.91745,44.46566,545.3948],[21.91823,44.46731,535.291],[21.91931,44.46881,563.0754],[21.92329,44.47274,564.9113],[21.92443,44.47424,607.4982],[21.92531,44.47589,617.7933],[21.92712,44.48261,554.5214],[21.92862,44.48643,602.0862],[21.92975,44.48798,597.8641],[21.93347,44.49181,600.9227],[21.93435,44.49325,640.2661],[21.93482,44.49478,630.085],[21.93492,44.49976,613.5311],[21.93538,44.50287,632.7083],[21.93497,44.50615,597.7159],[21.93378,44.50881,597.8676],[21.93218,44.51134,569.11],[21.9298,44.51441,458.1237],[21.93275,44.51677,608.3323],[21.93559,44.51842,631.1251],[21.93833,44.51961,608.4617],[21.9437,44.52106,550.325],[21.95001,44.52162,571.9678],[21.95182,44.52199,534.5435],[21.95337,44.52261,517.3939],[21.95476,44.524,474.3411],[21.95554,44.52578,450.6659],[21.95569,44.53043,395.6152],[21.95611,44.53235,443.9578],[21.95786,44.53488,538.3984],[21.96143,44.53847,489.5992],[21.97016,44.54617,748.612],[21.97838,44.55167,606.8713],[21.98789,44.55922,455.5674],[22.00138,44.56937,460.7469],[22.01698,44.58116,224.6016],[22.03584,44.58935,242.3814],[22.03617,44.58949,242.3814],[22.03424,44.59617,256.7372],[22.03217,44.60333,421.7924],[22.00427,44.65154,320.2561],[21.99435,44.65857,444.3687],[21.96241,44.66229,504.8837],[21.87198,44.69598,145.6581],[21.85544,44.69846,143.7547],[21.83828,44.69521,113.0236],[21.8017,44.68389,168.2116],[21.75684,44.67727,246.8573],[21.70517,44.67707,275.3678],[21.65628,44.68766,67.0],[21.61969,44.71391,67.5],[21.61029,44.73195,67.5],[21.60429,44.74998,67.5],[21.59561,44.76595,81.6746],[21.57804,44.77768,100.897],[21.5584,44.78166,89.8379],[21.49722,44.77804,67.5]]]}
,"properties": {"ISO3166-1-Alpha-3": "SRB","country": "Republic of Serbia","fill": "#FF0","name": "Branicevski","area_km2": 4186.768,"hist_schema_id": "Elevation0-9000","hist_area_km2": {"0": 0.738,"25": 1.506,"50": 2.561,"75": 574.757,"100": 355.008,"125": 227.207,"150": 218.898,"175": 278.828,"200": 286.536,"225": 238.65,"250": 187.114,"275": 141.159,"300": 114.384,"325": 105.186,"350": 103.216,"375": 99.545,"400": 97.897,"425": 94.82,"450": 89.958,"475": 87.177,"500": 89.45,"525": 90.187,"550": 81.748,"575": 75.591,"600": 63.569,"625": 52.527,"650": 47.497,"675": 43.416,"700": 40.744,"725": 38.677,"750": 34.735,"775": 30.371,"800": 24.296,"825": 17.823,"850": 15.986,"875": 14.59,"900": 12.158,"925": 11.475,"950": 10.7,"975": 10.777,"1000": 10.914,"1025": 9.498,"1050": 9.772,"1075": 9.453,"1100": 8.296,"1125": 7.459,"1150": 5.557,"1175": 4.248,"1200": 2.116,"1225": 1.705,"1250": 1.629,"1275": 1.857,"1300": 2.436,"1325": 0.365}}}