{"type":"Feature","properties":{"GID_1":"SRB.17_1","GID_0":"SRB","country":"Serbia","province":"Severno-Bački","VARNAME_1":"NorthBačka","NL_NAME_1":"Севернобачки","TYPE_1":"Okrug","ENGTYPE_1":"District","CC_1":"NA","HASC_1":"RS.SC","ISO_1":"NA","name":"Severno-Bački.province"},
"geometry":{"type": "MultiPolygon","coordinates": [[[[19.7547,45.7327,101.4092],[19.7498,45.7415,101.8292],[19.7674,45.7494,100.9301],[19.7939,45.7558,94.8214],[19.8236,45.7571,97.3364],[19.8462,45.7634,97.6874],[19.8606,45.7722,94.9633],[19.8556,45.785,89.061],[19.8561,45.7966,96.6649],[19.8452,45.8078,98.6277],[19.8346,45.8279,100.5894],[19.8179,45.827,94.846],[19.8109,45.8292,101.5698],[19.8066,45.8372,102.197],[19.807,45.8516,103.3053],[19.7973,45.8624,102.93],[19.7924,45.8732,100.8888],[19.7649,45.9024,103.0844],[19.7888,45.9119,104.0338],[19.8073,45.9213,107.7392],[19.8075,45.9255,106.3311],[19.8003,45.9417,106.2181],[19.7995,45.9485,106.31],[19.8038,45.9625,106.1556],[19.7992,45.9874,105.7045],[19.8026,45.9972,107.5205],[19.8029,46.0039,108.3261],[19.8066,46.0097,107.0989],[19.8079,46.0163,106.1747],[19.8212,46.0324,105.9799],[19.8279,46.0384,104.6275],[19.8417,46.0446,102.8866],[19.8464,46.049,102.6393],[19.8499,46.0602,100.8447],[19.8565,46.0687,99.2636],[19.8598,46.0928,103.2756],[19.8549,46.1029,97.3738],[19.8516,46.1174,101.0049],[19.8569,46.124,101.451],[19.8751,46.1343,95.7356],[19.8777,46.1373,96.2587],[19.8804,46.1444,102.5383],[19.8751,46.1522,99.2148],[19.8713,46.1542,99.5581],[19.8511,46.152,122.6806],[19.841,46.144,103.5853],[19.8164,46.1303,105.1915],[19.7987,46.1376,104.5801],[19.7932,46.1414,104.6639],[19.7781,46.1462,105.5485],[19.7573,46.1486,108.2508],[19.7394,46.1681,112.3619],[19.7323,46.1717,111.0589],[19.7271,46.1699,111.1867],[19.7198,46.1717,113.1909],[19.7147,46.1743,111.2776],[19.7114,46.1801,111.5662],[19.6968,46.1884,114.5461],[19.6816,46.1799,117.3024],[19.6577,46.1894,126.2915],[19.6294,46.1709,127.2242],[19.5637,46.1808,140.8444],[19.5561,46.1767,135.574],[19.5605,46.1714,143.4571],[19.5262,46.1501,129.0208],[19.5157,46.154,130.3897],[19.5018,46.1441,133.9708],[19.5033,46.136,131.0619],[19.5214,46.1223,126.6873],[19.5147,46.1174,125.2457],[19.4935,46.1106,128.5182],[19.462,46.0971,137.4461],[19.4635,46.0836,132.7596],[19.4485,46.0774,144.5262],[19.4259,46.0618,129.5487],[19.4182,46.0561,129.9164],[19.4119,46.0478,133.3807],[19.3788,46.0377,125.2104],[19.3665,46.0555,123.4861],[19.2973,46.0232,126.7531],[19.312,46.012,122.3198],[19.3246,45.9941,118.2821],[19.3282,45.9922,119.7594],[19.3383,45.9913,122.263],[19.3408,45.9894,120.2071],[19.3391,45.9756,116.9691],[19.3465,45.9596,118.838],[19.344,45.9554,120.7695],[19.3332,45.9466,121.4226],[19.331,45.9391,121.1211],[19.3323,45.9346,121.2239],[19.3394,45.9262,118.3192],[19.3479,45.9087,118.1193],[19.3483,45.8859,112.1934],[19.3511,45.8771,106.9824],[19.3503,45.8675,112.1648],[19.3525,45.8632,111.9234],[19.3746,45.8437,110.8044],[19.3949,45.8342,112.033],[19.4188,45.816,112.9624],[19.4276,45.8068,112.404],[19.4314,45.7999,112.001],[19.4279,45.7929,111.8072],[19.4283,45.7894,111.6903],[19.4373,45.7803,111.0662],[19.4384,45.7714,112.6385],[19.4422,45.7677,113.9247],[19.4806,45.7479,112.6021],[19.4886,45.7453,110.0333],[19.4957,45.747,110.3682],[19.5178,45.7637,105.1383],[19.5313,45.7644,105.1456],[19.5421,45.7588,107.6859],[19.5533,45.7504,104.0454],[19.5776,45.7405,107.8419],[19.557,45.7231,108.5086],[19.5554,45.7188,108.9817],[19.5571,45.7138,108.8257],[19.5628,45.708,110.421],[19.5741,45.7021,108.0621],[19.5913,45.6978,109.5988],[19.599,45.6941,110.1583],[19.612,45.6764,108.2476],[19.6107,45.6715,107.4192],[19.6085,45.6699,106.7059],[19.5865,45.66,105.4882],[19.6084,45.6515,100.565],[19.6301,45.6396,99.8663],[19.6583,45.6321,94.6796],[19.6842,45.618899999999996,89.0687],[19.7073,45.6231,89.2451],[19.7316,45.633,93.3693],[19.737,45.6362,93.1892],[19.7394,45.6414,94.0599],[19.7366,45.6546,95.9067],[19.7372,45.6656,96.9589],[19.7437,45.6781,95.4058],[19.7533,45.6884,97.4475],[19.7556,45.6936,96.4871],[19.7566,45.6998,96.3171],[19.7522,45.7035,97.9119],[19.751,45.7069,98.7001],[19.7587,45.7175,99.1835],[19.7594,45.7238,100.5931],[19.7547,45.7327,101.4092]]]]}}