{"type": "Feature","id": "274","bbox": [19.29831,45.61892,19.88037,46.17388],"geometry": {"type": "Polygon","coordinates": [[[19.71189,46.15871,123.5527],[19.69009,46.1684,124.4616],[19.66932,46.1731,122.9069],[19.64782,46.17388,128.7472],[19.58974,46.16597,134.337],[19.56845,46.16643,132.6816],[19.54995,46.16416,132.792],[19.52525,46.15641,131.2553],[19.50199,46.14561,132.3],[19.48752,46.13424,129.1627],[19.48928,46.12602,131.1259],[19.49672,46.11688,128.7451],[19.49931,46.10861,127.2624],[19.47295,46.09869,135.3643],[19.46592,46.09197,134.0005],[19.46086,46.08447,133.3454],[19.45373,46.07755,136.1775],[19.43688,46.06799,129.7833],[19.4283,46.06551,128.8743],[19.41724,46.06432,130.1119],[19.40474,46.06024,133.1134],[19.39657,46.05156,125.1242],[19.38913,46.04153,121.8828],[19.3789,46.03368,123.6053],[19.36216,46.02965,122.1442],[19.32516,46.02949,126.8707],[19.30697,46.02665,127.2124],[19.29831,46.02212,126.7531],[19.30056,46.01988,127.7734],[19.30299,46.01781,125.2705],[19.30971,46.01368,122.123],[19.31198,46.01197,122.3198],[19.31368,46.01003,122.8554],[19.31606,46.00461,120.8158],[19.31772,46.00228,121.1725],[19.32464,45.99409,118.2821],[19.3265,45.99275,119.2398],[19.32821,45.99223,119.7594],[19.33637,45.99182,122.1711],[19.33828,45.99133,122.263],[19.33978,45.99053,122.265],[19.34081,45.98944,120.2071],[19.34123,45.98812,119.8569],[19.34112,45.98686,120.3377],[19.33895,45.98035,118.0115],[19.33875,45.97802,117.3607],[19.33911,45.97562,116.9691],[19.34614,45.96174,118.766],[19.34655,45.96102,118.766],[19.3465,45.95957,118.838],[19.34609,45.95823,119.3355],[19.34521,45.95678,119.8283],[19.34397,45.95539,120.7695],[19.34159,45.9534,120.3608],[19.33792,45.95125,119.8236],[19.33549,45.9495,121.9859],[19.33322,45.9466,121.4226],[19.33167,45.94366,120.8109],[19.3311,45.94143,121.0831],[19.33105,45.93911,121.1211],[19.33141,45.93683,121.4072],[19.33229,45.93464,121.2239],[19.33384,45.93247,121.0294],[19.33942,45.92614,118.3192],[19.34257,45.9196,119.5982],[19.34629,45.91293,119.2192],[19.34784,45.90872,118.1193],[19.34851,45.90317,116.6966],[19.34903,45.89327,114.6078],[19.34831,45.88593,112.1934],[19.34872,45.88379,112.9569],[19.35058,45.87932,109.469],[19.35105,45.87715,106.9824],[19.3512,45.8749,112.137],[19.35032,45.86966,111.5645],[19.35032,45.86754,112.1648],[19.35099,45.86542,111.3998],[19.35255,45.8632,111.9234],[19.35466,45.86108,111.3381],[19.35947,45.85689,111.2121],[19.36583,45.85079,111.7908],[19.37456,45.84371,110.8044],[19.37838,45.84144,112.0424],[19.3898,45.83684,111.463],[19.39487,45.83418,112.033],[19.39916,45.83105,112.4236],[19.40562,45.82521,112.6853],[19.40877,45.82273,112.5806],[19.41879,45.81596,112.9624],[19.41941,45.81485,112.3186],[19.42138,45.8126,113.0285],[19.42763,45.80682,112.404],[19.4299,45.80436,111.8885],[19.4313,45.80193,111.5418],[19.4314,45.79987,112.001],[19.42789,45.79294,111.8072],[19.42779,45.79095,110.9531],[19.4283,45.7894,111.6903],[19.42934,45.78795,111.7543],[19.4343,45.78382,110.7742],[19.43595,45.78212,111.1687],[19.43729,45.78031,111.0662],[19.43802,45.77824,111.4767],[19.43802,45.77333,112.7393],[19.43843,45.77137,112.6385],[19.43988,45.76935,112.8397],[19.4422,45.7677,113.9247],[19.45657,45.76057,113.1588],[19.4651,45.75581,113.5088],[19.47517,45.75124,114.5657],[19.4806,45.74791,112.6021],[19.48261,45.74695,111.3384],[19.48665,45.74558,110.4841],[19.48856,45.7453,110.0333],[19.49078,45.74537,111.0785],[19.4929,45.74584,110.4092],[19.49569,45.74698,110.3682],[19.50044,45.7501,108.7934],[19.50246,45.75178,109.5016],[19.50799,45.75736,105.2574],[19.51223,45.7607,106.5083],[19.51491,45.76237,97.4396],[19.51775,45.76372,105.1383],[19.52008,45.76444,106.0587],[19.52251,45.76491,105.3248],[19.52566,45.76511,105.3429],[19.52887,45.76491,106.0981],[19.53129,45.76439,105.1456],[19.53362,45.76367,105.821],[19.53662,45.76227,107.0705],[19.54204,45.75881,107.6859],[19.55336,45.75036,104.0454],[19.55791,45.74837,105.6831],[19.56731,45.74532,104.2657],[19.57393,45.74243,107.8529],[19.5776,45.74052,107.8419],[19.57362,45.73649,104.668],[19.56183,45.72742,107.2879],[19.5592,45.72527,107.7576],[19.55703,45.7231,108.5086],[19.55563,45.72088,108.9584],[19.55538,45.71881,108.9817],[19.55569,45.71736,109.2304],[19.55713,45.7138,108.8257],[19.55842,45.71173,110.3571],[19.56039,45.70977,111.0659],[19.56282,45.70801,110.421],[19.57408,45.70207,109.244],[19.57925,45.70016,109.6621],[19.59129,45.69778,109.5988],[19.59522,45.69628,109.3793],[19.59899,45.69411,110.1583],[19.60157,45.69122,109.379],[19.60504,45.68569,109.4872],[19.61062,45.67987,107.8667],[19.61144,45.67848,107.2234],[19.61206,45.67639,108.2476],[19.61196,45.6738,107.975],[19.61072,45.67148,107.4192],[19.6085,45.66987,106.7059],[19.5993,45.66615,106.2716],[19.58654,45.66,105.4882],[19.59997,45.65455,103.3851],[19.60845,45.65145,100.565],[19.61377,45.64869,99.4761],[19.62271,45.64308,97.4009],[19.62555,45.64156,99.8368],[19.6301,45.63964,99.8663],[19.63429,45.6382,98.7612],[19.64364,45.63639,99.2193],[19.65103,45.63455,96.6772],[19.65408,45.63375,95.8145],[19.65826,45.63215,94.6796],[19.66157,45.6307,92.8765],[19.67645,45.62337,90.235],[19.6842,45.61892,89.0687],[19.69909,45.6213,89.3445],[19.70477,45.62244,90.933],[19.7073,45.62316,89.2451],[19.70963,45.62404,91.2885],[19.71542,45.62714,87.6719],[19.71759,45.62807,85.0075],[19.72487,45.63045,92.1765],[19.73164,45.63303,93.3693],[19.73536,45.63499,94.1407],[19.73697,45.63621,93.1892],[19.73815,45.63763,93.5598],[19.73893,45.63923,93.436],[19.73939,45.6414,94.0599],[19.73934,45.64367,94.1942],[19.73888,45.64592,95.9367],[19.73769,45.64905,95.0374],[19.7366,45.65455,95.9067],[19.7364,45.66021,96.1821],[19.7366,45.66295,94.8945],[19.73722,45.66564,96.9589],[19.74043,45.67308,96.7061],[19.74368,45.67809,95.4058],[19.74746,45.68253,97.6211],[19.75335,45.68837,97.6679],[19.75469,45.69085,97.3046],[19.75562,45.69359,96.4871],[19.75655,45.69985,96.3171],[19.75392,45.70184,96.7717],[19.75221,45.70346,97.9119],[19.75113,45.70517,99.1946],[19.75097,45.70693,98.7001],[19.75175,45.70837,98.8608],[19.75541,45.71251,97.1601],[19.75872,45.71752,99.1835],[19.75945,45.72059,99.4251],[19.75945,45.72377,100.5931],[19.75862,45.72687,100.6595],[19.75469,45.73266,101.4092],[19.74983,45.7415,101.8292],[19.7674,45.74935,100.9301],[19.77257,45.7508,100.1547],[19.78223,45.75258,98.3191],[19.79045,45.75524,94.9669],[19.79397,45.75581,94.8214],[19.79758,45.75607,94.5541],[19.81272,45.7562,92.4741],[19.82011,45.75654,96.5986],[19.82363,45.7571,97.3364],[19.83184,45.75979,97.0807],[19.8429,45.76204,96.6351],[19.84616,45.76336,97.6874],[19.85572,45.76982,96.1008],[19.85903,45.77163,94.7601],[19.86063,45.77222,94.9633],[19.85959,45.77571,95.1631],[19.85618,45.78253,88.0283],[19.85562,45.78498,89.061],[19.85556,45.78739,94.4069],[19.8568,45.79281,94.6309],[19.85675,45.79498,96.7687],[19.85613,45.79661,96.6649],[19.85505,45.79814,97.2701],[19.84885,45.80338,99.7597],[19.84518,45.80785,98.6277],[19.83458,45.8279,100.5894],[19.82394,45.82707,92.5664],[19.81784,45.82707,94.846],[19.81536,45.82723,98.2531],[19.81319,45.82775,97.0217],[19.81092,45.82919,101.5698],[19.80978,45.83054,103.0085],[19.80797,45.83343,102.9896],[19.80725,45.83495,104.2739],[19.80663,45.83723,102.197],[19.80637,45.84196,104.8894],[19.80735,45.84955,106.8079],[19.80699,45.85157,103.3053],[19.80559,45.85376,103.5302],[19.79908,45.8601,106.1793],[19.79727,45.86237,102.93],[19.79624,45.86454,107.4884],[19.79376,45.87121,103.1288],[19.79241,45.87317,96.9367],[19.7858,45.88082,99.7706],[19.76492,45.90244,103.0844],[19.77195,45.90487,94.6323],[19.7782,45.90733,104.9052],[19.78456,45.91027,103.426],[19.7888,45.91195,104.0338],[19.7949,45.9157,106.4618],[19.79758,45.91715,105.6193],[19.80316,45.91864,105.9587],[19.80559,45.91957,106.2209],[19.80657,45.92035,106.2209],[19.8073,45.92128,107.7392],[19.80781,45.9233,106.7226],[19.8075,45.92552,106.3311],[19.80616,45.92872,106.3824],[19.80363,45.93601,106.4412],[19.80234,45.93859,106.7822],[19.80032,45.94174,106.2181],[19.79955,45.94846,106.31],[19.79975,45.95125,106.2115],[19.80327,45.96019,105.8514],[19.80378,45.96252,106.1556],[19.80394,45.96495,105.4139],[19.80322,45.96962,106.3731],[19.8013,45.9757,106.6361],[19.79918,45.98743,105.7045],[19.79939,45.98949,105.781],[19.80213,45.99507,107.2665],[19.8026,45.99717,107.5205],[19.80249,46.00205,107.886],[19.80291,46.00394,108.3261],[19.80663,46.00975,107.0989],[19.80756,46.01538,107.9505],[19.80792,46.01631,106.1747],[19.8088,46.01758,104.6789],[19.81422,46.0228,104.1456],[19.81577,46.02461,105.7648],[19.81825,46.02872,105.7932],[19.8212,46.03238,105.9799],[19.82497,46.03611,104.0482],[19.82787,46.03843,104.6275],[19.8305,46.03998,104.8637],[19.83903,46.04318,105.2497],[19.84166,46.04463,102.8866],[19.84399,46.04639,100.3918],[19.84637,46.04902,102.6393],[19.8475,46.05171,101.8556],[19.84885,46.05745,101.2174],[19.84988,46.06021,100.8447],[19.85649,46.06869,99.2636],[19.85748,46.07135,100.3805],[19.85804,46.07698,101.6108],[19.85789,46.08416,101.3427],[19.8582,46.08633,102.3087],[19.8597,46.09068,102.5657],[19.8598,46.09279,103.2756],[19.85934,46.09491,103.1183],[19.85587,46.10073,96.5836],[19.85489,46.10292,97.3738],[19.85174,46.11295,99.9948],[19.85143,46.11517,100.6225],[19.85153,46.11739,101.0049],[19.85231,46.11951,99.9242],[19.85458,46.1222,101.0993],[19.85691,46.12401,101.451],[19.85954,46.12561,101.1062],[19.86895,46.13052,96.9326],[19.8751,46.13432,95.7356],[19.87773,46.13729,96.2587],[19.88016,46.1423,96.5728],[19.88037,46.14442,102.5383],[19.8799,46.14654,107.6126],[19.87913,46.14798,105.5416],[19.8767,46.15083,99.6626],[19.8751,46.15217,99.2148],[19.87365,46.15299,98.9718],[19.79045,46.12907,106.2345],[19.77298,46.13155,113.9483],[19.71189,46.15871,123.5527]]]}
,"properties": {"ISO3166-1-Alpha-3": "SRB","country": "Republic of Serbia","fill": "#F0F","name": "Severno-Backi","area_km2": 1657.381,"hist_schema_id": "Elevation0-9000","hist_area_km2": {"75": 4.889,"100": 1087.887,"125": 557.812,"150": 6.792}}}