{"type":"Feature","properties":{"GID_2":"SRB.5.8_1","GID_0":"SRB","country":"Serbia","GID_1":"SRB.5_1","province":"Južno-Bački","NL_NAME_1":"Јужнобачки","county":"SremskiKarlovci","VARNAME_2":"Karlóca|Karlofça","NL_NAME_2":"СремскиКарловци","TYPE_2":"Opštine","ENGTYPE_2":"Town|Municipal","CC_2":"NA","HASC_2":"NA","name":"Sremski_Karlovci.county"},
"geometry":{"type": "MultiPolygon","coordinates": [[[[19.8681,45.1464,398.3934],[19.898,45.1451,374.4185],[19.9126,45.1426,351.4696],[19.9577,45.1489,256.3324],[19.9734,45.1558,240.7587],[19.9812,45.1608,247.5952],[19.9809,45.1634,247.1018],[19.9724,45.1712,135.5549],[19.9738,45.1747,116.5932],[20.0163,45.1952,80.6943],[19.9985,45.2018,74.2066],[19.9717,45.2037,76.7527],[19.9355,45.2112,75.756],[19.9231,45.2175,84.9532],[19.926,45.2209,81.3919],[19.9211,45.2266,81.1398],[19.9009,45.2125,157.8785],[19.8915,45.2005,152.1352],[19.8914,45.1972,152.4092],[19.8966,45.1905,170.4757],[19.8968,45.1854,187.9892],[19.8909,45.1765,305.6172],[19.8869,45.1632,388.729],[19.8681,45.1464,398.3934]]]]}}