{"type":"Feature","properties":{"GID_2":"SRB.5.11_1","GID_0":"SRB","country":"Serbia","GID_1":"SRB.5_1","province":"Južno-Bački","NL_NAME_1":"Јужнобачки","county":"Vrbas","VARNAME_2":"Verbász","NL_NAME_2":"Врбас","TYPE_2":"Opštine","ENGTYPE_2":"Town|Municipal","CC_2":"NA","HASC_2":"NA","name":"Vrbas.county"},
"geometry":{"type": "MultiPolygon","coordinates": [[[[19.5415,45.428,81.764],[19.565,45.4167,83.0559],[19.5973,45.4083,82.0607],[19.6093,45.4067,80.9915],[19.6214,45.4147,81.3787],[19.6428,45.4248,81.1439],[19.6678,45.431399999999996,81.3964],[19.6776,45.4313,81.6186],[19.6838,45.4295,81.408],[19.7035,45.4152,83.0421],[19.7213,45.4317,80.7395],[19.7426,45.4456,80.47],[19.7437,45.4502,80.231],[19.7387,45.4568,79.8126],[19.7449,45.4678,80.3574],[19.743,45.4828,81.4598],[19.7487,45.4988,80.922],[19.7369,45.5018,81.686],[19.7246,45.5076,82.5993],[19.7095,45.5245,80.9505],[19.7086,45.5336,80.8297],[19.7003,45.5476,80.5686],[19.7088,45.5647,84.9682],[19.7135,45.5701,84.5029],[19.7141,45.5744,86.3953],[19.7109,45.5796,85.3693],[19.6966,45.5936,85.2196],[19.6963,45.6064,85.8827],[19.6842,45.618899999999996,89.0687],[19.6583,45.6321,94.6796],[19.6301,45.6396,99.8663],[19.6084,45.6515,100.565],[19.5865,45.66,105.4882],[19.5775,45.6476,103.4194],[19.5736,45.6389,102.5557],[19.5625,45.6301,104.6939],[19.5568,45.6227,99.5624],[19.5572,45.617,89.7389],[19.564,45.6036,82.6617],[19.5609,45.5845,81.9574],[19.5576,45.582,81.5363],[19.5486,45.5799,81.4589],[19.5315,45.5802,82.6589],[19.5247,45.5782,81.9566],[19.5195,45.5717,83.4092],[19.5165,45.5584,81.5409],[19.5035,45.5435,80.4997],[19.4876,45.5359,81.9717],[19.4778,45.5341,81.8603],[19.4497,45.5474,81.7522],[19.4401,45.5493,81.8252],[19.4321,45.5471,81.6521],[19.421,45.5415,82.4331],[19.3945,45.5357,82.1506],[19.3959,45.5249,82.874],[19.399,45.5195,82.3114],[19.3994,45.5079,81.7781],[19.4165,45.5011,82.4541],[19.4371,45.5033,83.8523],[19.4582,45.5001,81.7433],[19.4627,45.4961,81.5441],[19.4634,45.4869,84.643],[19.465,45.4841,83.3863],[19.4734,45.4784,83.0138],[19.4823,45.4782,83.4788],[19.4968,45.4876,82.86],[19.5143,45.4891,82.2418],[19.5315,45.4873,82.9806],[19.5411,45.4833,81.7064],[19.5488,45.4777,82.5395],[19.5536,45.471,82.7019],[19.5565,45.4494,80.7723],[19.5549,45.4452,80.5],[19.5415,45.428,81.764]]]]}}