{"type": "Feature","bbox": [20.5273,44.2978,20.8388,44.5466],"geometry": {"type": "MultiPolygon","coordinates": [[[[20.6598,44.5466,237.0205],[20.6559,44.5304,262.6159],[20.6451,44.5194,214.0591],[20.6451,44.5111,180.6689],[20.6429,44.5081,208.5524],[20.6296,44.4985,153.3838],[20.6134,44.4922,176.1908],[20.6044,44.486,266.7685],[20.6047,44.4812,305.4086],[20.6137,44.4715,253.697],[20.6143,44.4681,261.6033],[20.6125,44.4654,298.0786],[20.6022,44.4607,339.3683],[20.5826,44.4463,327.3957],[20.5638,44.4433,358.8958],[20.5526,44.4397,292.115],[20.5376,44.4255,200.6576],[20.528,44.4136,198.1353],[20.5273,44.4093,165.5551],[20.5345,44.3981,166.8472],[20.5379,44.3857,173.7378],[20.5321,44.372,234.2296],[20.5327,44.3604,301.6904],[20.5366,44.3565,263.0411],[20.5431,44.3556,306.5257],[20.6036,44.3734,197.6944],[20.6113,44.373,195.653],[20.6165,44.3707,183.8018],[20.6191,44.367,177.638],[20.6229,44.3398,216.4285],[20.6272,44.3367,213.3115],[20.636,44.3338,204.9894],[20.6498,44.3218,206.803],[20.6776,44.3329,173.4053],[20.6905,44.3346,163.4254],[20.7125,44.3247,144.9391],[20.7361,44.3214,179.3993],[20.7428,44.3172,161.0931],[20.7504,44.3096,221.3526],[20.772,44.2978,178.1796],[20.7717,44.3082,197.0312],[20.7658,44.3216,175.7997],[20.7658,44.3272,186.0209],[20.7706,44.334,139.5148],[20.7869,44.3448,124.5889],[20.7874,44.3492,122.6245],[20.7834,44.3523,127.8707],[20.779,44.3533,138.0496],[20.762,44.3506,155.3872],[20.7554,44.3524,157.5908],[20.7422,44.3642,173.0818],[20.7337,44.3743,174.5788],[20.7315,44.3785,162.7504],[20.7315,44.3841,150.2432],[20.7353,44.3883,132.0544],[20.7529,44.4006,125.0752],[20.7557,44.414,177.3371],[20.7584,44.4175,182.7422],[20.7759,44.4228,191.1867],[20.7835,44.4236,177.1734],[20.7935,44.4223,193.7725],[20.8118,44.416,209.8163],[20.8191,44.4159,204.6332],[20.8365,44.4289,136.0772],[20.8388,44.4332,135.3018],[20.8384,44.4399,166.563],[20.819,44.4658,215.5548],[20.8044,44.474,202.236],[20.7877,44.4881,240.8567],[20.7621,44.4975,318.3979],[20.7591,44.5022,295.2317],[20.7585,44.5117,280.5354],[20.7565,44.5157,217.5769],[20.7371,44.533,217.7018],[20.7268,44.5303,181.6862],[20.7143,44.5302,262.8121],[20.6773,44.5431,190.9231],[20.6598,44.5466,237.0205]]]]}
,"properties": {"GID_2": "SRB.3.5_1","GID_0": "SRB","country": "Serbia","GID_1": "SRB.3_1","province": "GradBeograd","NL_NAME_1": "Београд","county": "Mladenovac","VARNAME_2": "NA","NL_NAME_2": "Младеновац","TYPE_2": "Opštine","ENGTYPE_2": "Town|Municipal","CC_2": "NA","HASC_2": "NA","name": "Mladenovac.county","area_km2": 349.0754,"hist_schema_id": "Elevation0-9000","hist_area_km2": {"125": 22.8165,"150": 66.0432,"175": 81.1886,"200": 69.2114,"225": 45.6083,"250": 29.1771,"275": 16.8063,"300": 9.2108,"325": 5.0513,"350": 2.4347,"375": 1.255,"400": 0.2722}}}