{"type": "Feature","bbox": [19.8567,43.5534,20.1751,43.7736],"geometry": {"type": "MultiPolygon","coordinates": [[[[20.173,43.6523,641.5332],[20.1751,43.6579,568.7162],[20.1729,43.663,593.5687],[20.1587,43.6715,576.7859],[20.1536,43.6769,557.2278],[20.1542,43.6798,567.9791],[20.1605,43.6861,491.632],[20.169,43.7015,607.41],[20.1654,43.7193,509.774],[20.1628,43.7219,506.4025],[20.1433,43.7286,473.46],[20.1253,43.7385,423.2148],[20.1214,43.753,457.031],[20.1226,43.7645,529.6841],[20.1192,43.7736,463.027],[20.1035,43.7663,324.1128],[20.0978,43.7665,324.5237],[20.0907,43.7697,442.1487],[20.0865,43.7689,419.479],[20.0799,43.7597,414.8904],[20.076,43.7575,469.2063],[20.0457,43.7576,702.3607],[20.0383,43.7518,504.0071],[20.0296,43.7382,604.3323],[20.0147,43.7281,798.803],[19.9842,43.7208,777.5708],[19.9733,43.7162,847.3104],[19.9512,43.7246,631.2914],[19.9255,43.7508,563.6281],[19.9181,43.7445,534.5347],[19.9148,43.7316,809.653],[19.9098,43.7203,761.5535],[19.9109,43.7171,795.1426],[19.9199,43.7071,632.0994],[19.9212,43.7004,723.2626],[19.9181,43.6967,721.2156],[19.9041,43.6876,898.8896],[19.8919,43.6864,885.0145],[19.8713,43.6782,963.5042],[19.8798,43.67,869.5547],[19.8907,43.664,884.674],[19.8932,43.6598,841.8303],[19.8933,43.6554,858.6697],[19.889,43.6496,822.5165],[19.8797,43.6458,683.2509],[19.8801,43.6352,974.399],[19.8789,43.6327,1021.3735],[19.8753,43.6306,1062.2253],[19.8595,43.6271,1014.9417],[19.8571,43.6251,943.3759],[19.8567,43.6224,937.2833],[19.8596,43.6186,794.5422],[19.8825,43.6091,839.2228],[19.8863,43.6052,878.0707],[19.8831,43.5866,1026.4565],[19.8828,43.5744,1064.7114],[19.9036,43.5809,946.5278],[19.9068,43.5795,924.4597],[19.9089,43.5758,854.0731],[19.9252,43.5685,1121.5077],[19.9458,43.5558,1168.4534],[19.9536,43.5534,1260.5599],[19.9753,43.5593,906.5712],[19.9809,43.5674,1075.0979],[19.9966,43.5803,1147.2404],[20.0128,43.587,1012.7292],[20.0412,43.6052,1078.1755],[20.0485,43.6058,976.5485],[20.0659,43.6013,933.7716],[20.0752,43.6032,874.1788],[20.0825,43.6071,714.1317],[20.086,43.6127,631.8032],[20.0848,43.619,689.5569],[20.0858,43.6379,845.9231],[20.0825,43.6415,707.4307],[20.0827,43.6448,713.3945],[20.089,43.6449,882.7616],[20.0975,43.6417,921.1473],[20.1104,43.6438,760.2224],[20.1241,43.6421,498.2359],[20.1559,43.6319,413.7792],[20.1644,43.6365,521.5792],[20.173,43.6523,641.5332]]]]}
,"properties": {"GID_2": "SRB.25.1_1","GID_0": "SRB","country": "Serbia","GID_1": "SRB.25_1","province": "Zlatiborski","NL_NAME_1": "Златиборски","county": "Arilje","VARNAME_2": "NA","NL_NAME_2": "Ариље)","TYPE_2": "Opštine","ENGTYPE_2": "Town|Municipal","CC_2": "NA","HASC_2": "NA","name": "Arilje.county","area_km2": 350.7092,"hist_schema_id": "Elevation0-9000","hist_area_km2": {"325": 5.0998,"350": 9.0556,"375": 6.1606,"400": 8.9371,"425": 8.1236,"450": 9.518,"475": 9.9783,"500": 10.1474,"525": 9.8414,"550": 10.5314,"575": 10.3634,"600": 10.3637,"625": 10.5026,"650": 10.5182,"675": 11.838,"700": 12.1293,"725": 13.4795,"750": 14.3084,"775": 15.4904,"800": 15.5977,"825": 15.309,"850": 15.4942,"875": 13.3944,"900": 12.9356,"925": 11.9698,"950": 10.2211,"975": 8.4116,"1000": 7.4759,"1025": 6.8626,"1050": 6.3711,"1075": 6.0798,"1100": 4.8056,"1125": 4.8674,"1150": 4.4991,"1175": 3.1171,"1200": 1.9502,"1225": 1.3668,"1250": 1.1825,"1275": 1.0289,"1300": 0.5374,"1325": 0.5067,"1350": 0.2764,"1375": 0.0614}}}