{"type": "Feature","bbox": [20.4478,44.767,20.4749,44.791],"geometry": {"type": "MultiPolygon","coordinates": [[[[20.4646,44.791,96.9771],[20.4612,44.7889,114.3789],[20.4511,44.7879,153.6389],[20.4509,44.7804,138.5601],[20.4478,44.7748,141.1649],[20.4478,44.767,89.4259],[20.4749,44.7693,167.7202],[20.4735,44.7795,147.1785],[20.4748,44.7837,126.8333],[20.4695,44.7897,95.921],[20.4646,44.791,96.9771]]]]}
,"properties": {"GID_2": "SRB.3.15_1","GID_0": "SRB","country": "Serbia","GID_1": "SRB.3_1","province": "GradBeograd","NL_NAME_1": "Београд","county": "Vračar","VARNAME_2": "NA","NL_NAME_2": "Врачар","TYPE_2": "Opštine","ENGTYPE_2": "Town|Municipal","CC_2": "NA","HASC_2": "NA","name": "Vračar.county","area_km2": 4.364542,"hist_schema_id": "Elevation0-9000","hist_area_km2": {"100": 0.376194,"125": 0.767488,"150": 1.1137,"175": 1.38466,"200": 0.707448,"225": 0.015052}}}