{"type": "Feature","bbox": [21.6215,43.0548,21.8149,43.2556],"geometry": {"type": "MultiPolygon","coordinates": [[[[21.7749,43.0956,251.2497],[21.794,43.107,270.202],[21.8149,43.1245,236.5547],[21.8055,43.1378,233.1567],[21.7968,43.1402,247.3704],[21.7925,43.1441,275.536],[21.7941,43.1495,288.4471],[21.8043,43.1553,265.5247],[21.8038,43.1589,287.4547],[21.7892,43.1743,207.0302],[21.7619,43.1989,206.8394],[21.761,43.2029,209.8184],[21.7635,43.2078,222.446],[21.777,43.2155,252.0485],[21.7795,43.2184,263.3666],[21.7786,43.222,270.4354],[21.7719,43.2295,222.4782],[21.7659,43.2466,246.499],[21.7581,43.2443,249.3446],[21.7406,43.2465,263.1556],[21.7289,43.2456,270.0738],[21.7234,43.2477,282.0243],[21.7145,43.2553,311.7747],[21.708,43.2556,324.4543],[21.7025,43.2513,308.6568],[21.7003,43.2448,293.3319],[21.6978,43.2288,262.8857],[21.701,43.2131,273.2576],[21.6934,43.2085,252.7109],[21.6883,43.2097,276.8413],[21.655,43.2282,260.175],[21.6361,43.2314,288.7816],[21.6375,43.2154,229.17],[21.6401,43.2112,277.2123],[21.6471,43.206,253.8338],[21.6486,43.2028,306.2565],[21.6467,43.2001,340.7886],[21.6356,43.195,497.2702],[21.6307,43.1859,517.582],[21.6215,43.175,769.9398],[21.6226,43.1719,823.8928],[21.6261,43.1691,780.665],[21.6436,43.1622,689.5242],[21.6458,43.1588,566.6837],[21.6425,43.1546,696.5531],[21.6334,43.1496,795.0732],[21.632,43.1467,803.8809],[21.6451,43.1375,731.6394],[21.6442,43.1344,701.9514],[21.6348,43.1278,778.5739],[21.6332,43.1227,660.575],[21.633,43.1086,514.1512],[21.6343,43.1005,448.8681],[21.6416,43.0879,420.3791],[21.6438,43.0793,347.5373],[21.6464,43.0757,337.7039],[21.6652,43.0677,300.4553],[21.6834,43.0548,284.7599],[21.6882,43.0604,323.0706],[21.7089,43.0758,367.1154],[21.7234,43.0829,338.366],[21.7417,43.0891,279.6394],[21.7605,43.0916,252.4316],[21.7749,43.0956,251.2497]]]]}
,"properties": {"GID_2": "SRB.22.4_1","GID_0": "SRB","country": "Serbia","GID_1": "SRB.22_1","province": "Toplički","NL_NAME_1": "Топлички","county": "Žitorađa","VARNAME_2": "NA","NL_NAME_2": "Житорађа","TYPE_2": "Opštine","ENGTYPE_2": "Town|Municipal","CC_2": "NA","HASC_2": "NA","name": "Žitorađa.county","area_km2": 212.6903,"hist_schema_id": "Elevation0-9000","hist_area_km2": {"200": 11.408,"225": 25.5977,"250": 33.7057,"275": 36.299,"300": 27.2584,"325": 12.2242,"350": 10.3388,"375": 9.4569,"400": 7.6303,"425": 6.3763,"450": 5.1223,"475": 4.3173,"500": 3.4656,"525": 2.5217,"550": 2.3048,"575": 1.918,"600": 1.7943,"625": 1.6861,"650": 1.5159,"675": 1.5313,"700": 1.191,"725": 1.0363,"750": 0.9589,"775": 0.7115,"800": 0.7888,"825": 0.6187,"850": 0.5259,"875": 0.2629,"900": 0.1237}}}