{"type": "Feature","bbox": [21.2646,44.1789,21.6283,44.4896],"geometry": {"type": "MultiPolygon","coordinates": [[[[21.5007,44.4896,237.9052],[21.4356,44.4815,274.3062],[21.4185,44.4748,251.0852],[21.4088,44.4655,205.5441],[21.4013,44.4609,200.623],[21.3726,44.4528,214.8217],[21.3601,44.4527,173.272],[21.3359,44.4586,105.1788],[21.326,44.4567,102.0053],[21.3122,44.4504,106.1066],[21.3042,44.4354,146.0845],[21.2886,44.4221,129.5645],[21.2867,44.4133,134.6586],[21.2889,44.4087,118.8833],[21.2973,44.4024,157.532],[21.2932,44.3923,133.0185],[21.2931,44.3879,135.022],[21.3007,44.3732,129.9412],[21.2988,44.3685,134.2857],[21.2892,44.3588,226.3164],[21.2862,44.3495,192.2987],[21.2888,44.3443,152.6603],[21.2954,44.3387,232.9097],[21.2964,44.3352,234.228],[21.2929,44.331,206.9034],[21.2753,44.3198,266.9841],[21.2722,44.3121,256.3716],[21.2653,44.3058,211.8536],[21.2646,44.3031,251.0427],[21.2793,44.2922,203.8887],[21.28,44.2896,221.645],[21.2778,44.2821,184.1537],[21.2792,44.2782,155.2647],[21.2835,44.2761,127.129],[21.2927,44.2757,157.6522],[21.3284,44.2542,172.7827],[21.3344,44.2461,212.5818],[21.3345,44.2348,244.3406],[21.3445,44.222,283.8299],[21.3503,44.2188,283.9721],[21.3637,44.2169,310.168],[21.3674,44.2142,329.3165],[21.3682,44.2085,298.1791],[21.3616,44.1965,236.5228],[21.354,44.1877,205.9234],[21.3575,44.1825,167.154],[21.3662,44.18,180.6278],[21.3936,44.1808,267.4537],[21.4,44.1879,294.5349],[21.4076,44.1921,285.3038],[21.4339,44.1947,341.2401],[21.4449,44.1916,432.1759],[21.4536,44.1845,426.0635],[21.4633,44.1796,406.9556],[21.4755,44.1789,484.0354],[21.5119,44.19,515.4594],[21.5277,44.1987,553.9722],[21.5357,44.2014,577.3597],[21.5403,44.2054,525.5507],[21.5406,44.213,383.3127],[21.5118,44.2305,480.6738],[21.5091,44.2341,472.3297],[21.5096,44.2397,367.7595],[21.5271,44.2496,411.1632],[21.545,44.2558,266.2838],[21.5471,44.2597,298.4272],[21.5467,44.2711,307.7479],[21.5534,44.2794,452.3794],[21.5565,44.2904,453.3121],[21.5597,44.2943,520.7578],[21.5631,44.296,496.4113],[21.5773,44.2976,359.1108],[21.6065,44.308,425.5426],[21.6283,44.3305,601.3603],[21.6127,44.3385,622.8488],[21.6022,44.3485,500.7396],[21.6001,44.355,540.7206],[21.6042,44.3649,687.8909],[21.604,44.368899999999996,613.6105],[21.590699999999998,44.3774,483.0278],[21.5777,44.4013,433.9438],[21.5785,44.4135,440.9295],[21.5736,44.4226,391.5046],[21.5725,44.428,437.4081],[21.5737,44.4412,348.0284],[21.5715,44.4487,393.2375],[21.5738,44.4575,387.0823],[21.5653,44.462,380.6616],[21.539,44.4618,328.8824],[21.5128,44.4684,230.3926],[21.5055,44.4762,272.2955],[21.5007,44.4896,237.9052]]]]}
,"properties": {"GID_2": "SRB.2.4_1","GID_0": "SRB","country": "Serbia","GID_1": "SRB.2_1","province": "Braničevski","NL_NAME_1": "Браничевски","county": "Petrovac","VARNAME_2": "PetrovacnaMlavi","NL_NAME_2": "Петровац|ПетровацнаМлави","TYPE_2": "Opštine","ENGTYPE_2": "Town|Municipal","CC_2": "NA","HASC_2": "NA","name": "Petrovac.county","area_km2": 654.2237,"hist_schema_id": "Elevation0-9000","hist_area_km2": {"100": 13.0959,"125": 43.5651,"150": 52.5867,"175": 82.4065,"200": 90.3305,"225": 75.848,"250": 67.8,"275": 46.06,"300": 24.4174,"325": 17.5905,"350": 13.4189,"375": 10.3745,"400": 9.6021,"425": 9.8315,"450": 9.9547,"475": 10.6409,"500": 12.9208,"525": 15.0187,"550": 13.2257,"575": 10.0347,"600": 7.0405,"625": 4.991,"650": 3.7615,"675": 2.7757,"700": 1.8202,"725": 1.5472,"750": 1.4258,"775": 0.7129,"800": 0.5157,"825": 0.3792,"850": 0.2579,"875": 0.2124,"900": 0.0607}}}