{"type":"Feature","properties":{"GID_2":"SRB.15.1_1","GID_0":"SRB","country":"Serbia","GID_1":"SRB.15_1","province":"Rasinski","NL_NAME_1":"Расински","county":"Aleksandrovac","VARNAME_2":"NA","NL_NAME_2":"Александровац","TYPE_2":"Opštine","ENGTYPE_2":"Town|Municipal","CC_2":"NA","HASC_2":"NA","name":"Aleksandrovac.county"},
"geometry":{"type": "MultiPolygon","coordinates": [[[[21.1299,43.3868,379.5798],[21.1375,43.3987,408.3955],[21.1537,43.4057,366.6027],[21.1651,43.4152,320.499],[21.1812,43.4223,300.8597],[21.1862,43.4328,327.9307],[21.1935,43.4374,300.5904],[21.2031,43.4496,312.3279],[21.2027,43.4522,318.7666],[21.194,43.4588,348.7271],[21.1931,43.4617,325.2271],[21.2038,43.4712,339.4547],[21.2045,43.4769,348.698],[21.2024,43.4804,313.7583],[21.1896,43.4901,273.3232],[21.1858,43.4957,295.5908],[21.1946,43.5086,338.1052],[21.1916,43.5202,261.3773],[21.1886,43.5236,204.9886],[21.1812,43.5252,203.5567],[21.1645,43.5248,253.4324],[21.1466,43.5193,275.1837],[21.141,43.5101,298.5602],[21.1322,43.5011,314.1779],[21.13,43.4947,361.3201],[21.1268,43.4909,315.0889],[21.1213,43.4886,351.1056],[21.1095,43.4879,345.9661],[21.0992,43.4842,299.1302],[21.0924,43.486,346.3351],[21.0843,43.4978,385.3809],[21.0778,43.4992,428.3558],[21.0698,43.498,403.3155],[21.0471,43.4886,574.6061],[21.0392,43.4878,468.8176],[21.0292,43.489,461.8926],[21.0114,43.5011,668.4307],[20.9933,43.517,741.2788],[20.983,43.5218,723.5909],[20.9724,43.5196,820.5461],[20.9476,43.5068,870.1082],[20.922,43.4974,786.8912],[20.8962,43.4933,705.936],[20.8704,43.4933,961.1319],[20.8601,43.4958,977.3744],[20.8528,43.499,836.7953],[20.8443,43.5074,817.9985],[20.8308,43.5156,890.7983],[20.8246,43.5147,1008.1193],[20.8133,43.5065,1067.3784],[20.806,43.505,1142.6035],[20.7906,43.5045,1295.2782],[20.7791,43.512,1171.1884],[20.7748,43.5129,1141.6456],[20.7603,43.5092,984.6936],[20.7709,43.4919,1189.2808],[20.7808,43.4811,1399.4058],[20.7806,43.4755,1551.8022],[20.7759,43.4676,1275.3228],[20.7825,43.4578,1374.7511],[20.7768,43.4471,1245.1199],[20.7701,43.4244,923.5447],[20.771,43.4158,915.3168],[20.7611,43.4051,925.5546],[20.7731,43.3887,685.717],[20.7911,43.3821,742.9673],[20.7982,43.3812,786.7409],[20.8147,43.3856,1036.3201],[20.8291,43.383,1309.2666],[20.8447,43.3895,1110.3152],[20.8613,43.3935,1154.0654],[20.8681,43.3977,1173.3871],[20.8898,43.4203,1074.8828],[20.9125,43.431,1057.3568],[20.9202,43.4326,1066.7014],[20.9407,43.4274,690.9673],[20.9708,43.4311,619.7294],[20.9857,43.4275,529.0089],[20.9996,43.4186,616.5969],[21.0005,43.4147,643.4882],[20.9985,43.4067,460.4439],[21.0083,43.3939,461.0222],[21.0126,43.3916,433.4327],[21.0164,43.3925,477.7043],[21.0267,43.4043,569.8123],[21.0373,43.4115,462.5772],[21.0445,43.4133,430.235],[21.0531,43.4111,385.5709],[21.0583,43.408,417.7818],[21.0605,43.403,370.0956],[21.0594,43.3993,491.7571],[21.0517,43.3909,693.6997],[21.0522,43.3865,618.735],[21.0612,43.372,458.8082],[21.073,43.3683,536.1885],[21.0872,43.3674,474.8672],[21.0999,43.3702,391.6918],[21.1112,43.3797,385.7737],[21.1257,43.3836,414.9333],[21.1299,43.3868,379.5798]]]]}}