{"type": "Feature","bbox": [18.9667,45.2753,19.3643,45.5044],"geometry": {"type": "MultiPolygon","coordinates": [[[[19.0011,45.4428,100.3815],[19.006,45.4386,86.5161],[19.0116,45.4286,89.4922],[19.0117,45.4195,84.1327],[18.9981,45.4139,87.5942],[18.9793,45.4113,87.5435],[18.968,45.4022,89.1112],[18.9667,45.3907,88.579],[18.9815,45.377,79.5168],[19.0013,45.3643,81.3568],[19.0164,45.3577,93.9651],[19.0496,45.3541,78.2817],[19.0765,45.3477,79.671],[19.0853,45.3311,75.8498],[19.0877,45.3185,83.0859],[19.0914,45.3093,92.8942],[19.13,45.2923,92.5098],[19.1769,45.2753,78.7559],[19.1769,45.2896,78.2341],[19.1784,45.2951,79.6392],[19.1885,45.306,80.3073],[19.1935,45.3143,81.2753],[19.2103,45.3227,81.7247],[19.2208,45.3327,92.7484],[19.2378,45.3329,94.8344],[19.247,45.3371,81.5879],[19.2496,45.3438,95.1054],[19.2433,45.3538,97.36],[19.2449,45.3586,91.0694],[19.2505,45.3651,96.4479],[19.2878,45.3855,84.6218],[19.3089,45.3925,84.5463],[19.3111,45.3953,84.2577],[19.3112,45.4019,84.6777],[19.305,45.4102,86.1362],[19.3083,45.4147,85.2326],[19.3154,45.4182,84.4975],[19.3508,45.4264,84.007],[19.3643,45.4384,84.3079],[19.3391,45.443,83.7512],[19.327,45.4437,84.2365],[19.3155,45.4431,84.3236],[19.3022,45.4392,83.8186],[19.2974,45.4393,84.2026],[19.2904,45.4422,84.8781],[19.2744,45.4571,84.0723],[19.2681,45.4594,83.863],[19.2611,45.456,83.7825],[19.2583,45.4513,84.7411],[19.2572,45.4453,85.1173],[19.2545,45.4433,84.7485],[19.2367,45.4427,84.6152],[19.2217,45.438,81.6846],[19.1927,45.4343,81.9564],[19.1873,45.4384,82.8505],[19.1859,45.4467,90.0986],[19.1814,45.4521,92.7688],[19.1596,45.4609,81.6964],[19.1522,45.4616,91.6069],[19.1354,45.4572,79.1149],[19.1129,45.4582,79.7622],[19.1053,45.4619,78.7042],[19.0997,45.473,78.4499],[19.0966,45.4751,78.5977],[19.0792,45.4769,84.9665],[19.0565,45.4885,86.5338],[19.0482,45.4879,109.2611],[19.0361,45.4816,99.0151],[19.0322,45.4822,87.8246],[19.0192,45.4909,77.0],[19.0178,45.4966,85.0535],[18.9972,45.5044,101.7835],[18.988,45.494,88.5513],[18.9817,45.4594,86.4444],[19.0011,45.4428,100.3815]]]]}
,"properties": {"GID_2": "SRB.5.1_1","GID_0": "SRB","country": "Serbia","GID_1": "SRB.5_1","province": "Južno-Bački","NL_NAME_1": "Јужнобачки","county": "Bač","VARNAME_2": "Báč|Bács","NL_NAME_2": "Бач","TYPE_2": "Opštine","ENGTYPE_2": "Town|Municipal","CC_2": "NA","HASC_2": "NA","name": "Bač.county","area_km2": 364.5358,"hist_schema_id": "Elevation0-9000","hist_area_km2": {"75": 320.4932,"100": 43.4921,"125": 0.5506}}}