{"type": "Feature","bbox": [21.1159,44.7709,21.5617,45.0192],"geometry": {"type": "MultiPolygon","coordinates": [[[[21.3636,45.0192,84.4816],[21.3619,45.0181,83.8378],[21.3594,45.0114,81.833],[21.3609,45.0063,81.9528],[21.3434,45.0023,81.1817],[21.3388,44.9976,80.5809],[21.3333,44.9876,80.4845],[21.332,44.9802,80.6511],[21.3376,44.9728,82.0694],[21.3374,44.971,82.1036],[21.3295,44.9634,81.1941],[21.3133,44.953,77.2066],[21.3103,44.9486,77.1742],[21.319,44.9335,96.7999],[21.3363,44.926,123.0877],[21.3374,44.9244,122.849],[21.3357,44.9216,120.7872],[21.3293,44.9214,111.7292],[21.3013,44.9331,82.9722],[21.2925,44.9349,79.4374],[21.2879,44.934,75.6375],[21.2766,44.9265,80.8789],[21.2678,44.9234,74.9043],[21.2578,44.9113,83.888],[21.2515,44.9105,81.933],[21.2365,44.914,86.3763],[21.227,44.9191,198.8223],[21.2176,44.9268,206.8958],[21.2003,44.9309,214.2515],[21.1653,44.9476,218.2292],[21.1614,44.9465,226.2418],[21.1574,44.9401,180.2624],[21.1578,44.9304,180.9493],[21.1559,44.9279,169.8675],[21.1291,44.9297,158.1075],[21.1279,44.9351,168.0744],[21.1223,44.937,165.5391],[21.1174,44.9357,159.8412],[21.1159,44.9338,163.2229],[21.128,44.9212,162.9532],[21.1383,44.9139,162.6561],[21.148,44.9096,159.576],[21.1634,44.9057,150.9125],[21.1685,44.9023,162.6812],[21.1697,44.8982,153.4103],[21.168,44.8933,146.8713],[21.1465,44.8829,145.0728],[21.1667,44.8725,135.7509],[21.2069,44.8471,105.481],[21.2097,44.8414,104.0062],[21.2048,44.8316,104.2132],[21.2082,44.8271,102.502],[21.2185,44.8205,95.2881],[21.2229,44.8197,92.6385],[21.2272,44.8212,96.4689],[21.2346,44.8272,88.9599],[21.2409,44.8285,93.7919],[21.25,44.8238,88.2572],[21.263,44.8116,76.1473],[21.2648,44.8072,73.1303],[21.2584,44.7901,67.5],[21.2614,44.7709,67.114],[21.2902,44.7734,75.6995],[21.3009,44.7805,72.0013],[21.3177,44.7957,68.055],[21.3867,44.8054,67.5],[21.378,44.8156,67.5],[21.3598,44.8221,67.5],[21.358,44.8275,67.5],[21.3658,44.8296,72.4162],[21.3644,44.8327,71.8455],[21.3581,44.832,69.571],[21.3572,44.8333,74.9318],[21.3605,44.8344,71.8713],[21.3616,44.8371,73.1513],[21.3585,44.8358,73.7867],[21.3545,44.8406,72.3244],[21.3562,44.842,72.3244],[21.3629,44.8407,71.8351],[21.3634,44.844,73.5794],[21.3595,44.8447,73.4902],[21.359,44.8469,74.929],[21.3613,44.8483,72.8666],[21.3592,44.8505,73.8488],[21.3618,44.8523,75.8336],[21.3675,44.864,75.803],[21.3726,44.867,79.8744],[21.3856,44.8657,78.762],[21.3895,44.8701,78.4109],[21.3973,44.867,91.8311],[21.4016,44.8685,79.2604],[21.4076,44.8668,88.7208],[21.4084,44.8697,80.1821],[21.4145,44.8695,83.5874],[21.4195,44.8737,82.1387],[21.4222,44.8717,85.6907],[21.4284,44.8716,83.2303],[21.4332,44.8686,88.1482],[21.4346,44.8709,84.4595],[21.437,44.8714,84.3733],[21.4406,44.8678,88.5469],[21.4445,44.8668,90.5057],[21.4456,44.8687,89.3979],[21.4427,44.8703,89.6445],[21.4485,44.8744,86.778],[21.4522,44.8705,90.7875],[21.4538,44.8711,94.0113],[21.4536,44.8736,91.787],[21.4557,44.874,88.6407],[21.4648,44.8678,88.925],[21.4726,44.8716,91.1611],[21.4777,44.8688,91.3513],[21.4811,44.8713,91.1433],[21.487,44.8685,98.5958],[21.4892,44.8694,93.518],[21.4901,44.872,95.1643],[21.5006,44.8728,152.9404],[21.5084,44.8766,226.0194],[21.5123,44.8804,178.4023],[21.5342,44.8828,222.0872],[21.5617,44.8894,203.1705],[21.56,44.9026,123.882],[21.5585,44.9043,125.593],[21.5602,44.9052,128.0225],[21.5597,44.907,124.0097],[21.5518,44.9178,155.0683],[21.5522,44.9206,156.3351],[21.5546,44.9217,160.8185],[21.5543,44.9242,180.9273],[21.5487,44.9279,205.4466],[21.5482,44.9309,213.5459],[21.5292,44.9396,170.5846],[21.5213,44.9383,170.7544],[21.4708,44.9588,122.4313],[21.4471,44.9625,124.4631],[21.4397,44.9609,132.0748],[21.4083,44.9789,105.1063],[21.4163,44.9871,108.1166],[21.4066,44.9902,105.3619],[21.4082,44.9928,104.3727],[21.39,44.9984,95.1938],[21.3845,45.0022,85.3361],[21.3884,45.0047,88.5883],[21.3798,45.0086,84.3578],[21.3786,45.0071,83.5747],[21.3636,45.0192,84.4816]]]]}
,"properties": {"GID_2": "SRB.6.2_1","GID_0": "SRB","country": "Serbia","GID_1": "SRB.6_1","province": "Južno-Banatski","NL_NAME_1": "Јужнобанатски","county": "BelaCrkva","VARNAME_2": "BisericaAlbă|Aktabya","NL_NAME_2": "БелаЦрква","TYPE_2": "Opštine","ENGTYPE_2": "Town|Municipal","CC_2": "NA","HASC_2": "NA","name": "Bela_Crkva.county","area_km2": 388.5874,"hist_schema_id": "Elevation0-9000","hist_area_km2": {"75": 143.5612,"100": 87.1608,"125": 70.7426,"150": 42.8267,"175": 28.1986,"200": 10.241,"225": 5.2702,"250": 0.4509,"275": 0.1354}}}