{"type": "Feature","bbox": [22.0391,43.6779,22.4833,44.1686],"geometry": {"type": "MultiPolygon","coordinates": [[[[22.4699,44.0083,224.2365],[22.4648,44.013,291.2525],[22.4665,44.0185,302.5915],[22.4642,44.0242,267.5048],[22.4529,44.0321,295.7062],[22.4534,44.041,260.8591],[22.4486,44.0552,217.2655],[22.4504,44.0591,229.8046],[22.4662,44.0664,208.4507],[22.4793,44.0789,203.8711],[22.4833,44.0849,104.8361],[22.4828,44.09,77.7013],[22.4739,44.104,73.3235],[22.4692,44.1085,103.1921],[22.4257,44.1175,258.0348],[22.4207,44.1209,235.1985],[22.4128,44.1311,282.3109],[22.3918,44.1408,265.718],[22.3623,44.1406,284.8349],[22.3544,44.1379,294.4583],[22.3465,44.1319,300.1779],[22.3382,44.13,305.8365],[22.3174,44.134,279.0263],[22.2755,44.1384,463.3695],[22.2678,44.1419,482.5296],[22.244,44.1575,476.3677],[22.2327,44.1686,496.529],[22.2278,44.1621,505.7242],[22.2212,44.1477,402.1182],[22.2115,44.1365,401.576],[22.2007,44.1292,382.0388],[22.1929,44.1198,451.6868],[22.1914,44.1155,497.7779],[22.1952,44.1102,449.9069],[22.2098,44.1034,408.1558],[22.2154,44.0988,318.2081],[22.2171,44.0904,309.0407],[22.2162,44.0716,360.954],[22.2252,44.063,386.6272],[22.229,44.0528,410.2275],[22.24,44.0419,327.4092],[22.2379,44.03,246.5938],[22.2387,44.0162,309.2283],[22.2334,44.0103,347.8785],[22.2185,44.0074,300.7277],[22.2116,44.0035,352.7183],[22.2078,43.9929,397.8991],[22.1939,43.9801,369.7015],[22.1862,43.9662,421.114],[22.1739,43.954,340.7823],[22.1671,43.942,302.3334],[22.1684,43.9243,190.8582],[22.1606,43.9076,226.8338],[22.1446,43.901,375.2609],[22.1347,43.8989,339.8135],[22.1315,43.8965,384.6371],[22.1232,43.8812,415.0229],[22.1217,43.8756,400.2959],[22.1235,43.8656,347.1084],[22.1216,43.8624,358.6808],[22.1048,43.8559,403.8152],[22.0963,43.8493,370.9248],[22.0771,43.8413,459.1195],[22.0616,43.8287,447.5814],[22.0587,43.8221,431.9633],[22.0607,43.819,413.5036],[22.0868,43.8192,340.6428],[22.1018,43.8141,365.6638],[22.1119,43.8044,305.5674],[22.1136,43.8004,309.0131],[22.1134,43.7961,297.3641],[22.1099,43.7843,402.3923],[22.0998,43.7653,449.5769],[22.0848,43.753,537.0476],[22.0683,43.7497,663.6674],[22.0609,43.7461,670.4014],[22.0577,43.7426,615.1447],[22.0552,43.73,598.0972],[22.0391,43.7138,689.2458],[22.0581,43.7023,782.6389],[22.0824,43.6968,835.6545],[22.1002,43.6996,607.9557],[22.1135,43.6949,574.7935],[22.153,43.7133,982.1199],[22.1637,43.7144,1025.8921],[22.1763,43.7106,979.7319],[22.1855,43.7043,964.8915],[22.1976,43.6993,640.4037],[22.2135,43.687,425.9986],[22.2303,43.6871,369.8177],[22.2482,43.6932,248.7281],[22.2705,43.6932,203.5312],[22.2864,43.6903,177.5141],[22.2991,43.6844,224.8225],[22.3281,43.6779,331.755],[22.3641,43.6824,488.2508],[22.3754,43.6879,662.2061],[22.3908,43.6926,788.3101],[22.3859,43.713,645.9485],[22.3797,43.7191,654.1084],[22.3842,43.7266,702.8591],[22.383,43.7405,559.2071],[22.3872,43.7465,652.5814],[22.3795,43.7466,611.2894],[22.3635,43.7599,528.7039],[22.3523,43.7798,377.5314],[22.3489,43.7824,245.4661],[22.3474,43.7887,325.1505],[22.3443,43.7918,385.0861],[22.3438,43.7951,397.4002],[22.3463,43.7984,416.5934],[22.347,43.8055,460.7732],[22.3556,43.8108,455.5367],[22.3597,43.8203,472.3273],[22.3667,43.8303,567.077],[22.3664,43.8337,642.5095],[22.3762,43.8651,343.6144],[22.3789,43.8861,360.7657],[22.3828,43.894,380.7698],[22.381,43.8993,367.5732],[22.3823,43.9027,360.3634],[22.3787,43.9084,351.6387],[22.3783,43.912,347.7038],[22.3832,43.9169,346.3961],[22.3988,43.9258,296.2696],[22.3973,43.9354,323.0257],[22.4026,43.9418,365.1492],[22.4031,43.9493,359.7601],[22.406,43.9591,355.6112],[22.4044,43.9625,341.7892],[22.4056,43.9678,344.9102],[22.4026,43.9695,339.246],[22.4038,43.9729,343.969],[22.4025,43.9751,343.6122],[22.4107,43.9809,349.1309],[22.405,43.9857,349.4179],[22.4071,43.9877,351.3276],[22.4044,43.9943,350.5574],[22.4186,43.9957,346.9547],[22.4375,44.0006,328.2258],[22.4388,44.0066,315.0142],[22.4462,44.0075,328.4249],[22.462,44.0053,282.0629],[22.4699,44.0083,224.2365]]]]}
,"properties": {"GID_2": "SRB.23.4_1","GID_0": "SRB","country": "Serbia","GID_1": "SRB.23_1","province": "Zaječarski","NL_NAME_1": "Зајечарски","county": "Zaječar","VARNAME_2": "Zăii-cer|Zăiceri|Zăicear.","NL_NAME_2": "Зајечар","TYPE_2": "Opštine","ENGTYPE_2": "Town|Municipal","CC_2": "NA","HASC_2": "NA","name": "Zaječar.county","area_km2": 1009.4282,"hist_schema_id": "Elevation0-9000","hist_area_km2": {"75": 5.6661,"100": 12.1049,"125": 52.5651,"150": 54.8234,"175": 61.712,"200": 66.343,"225": 73.7222,"250": 82.6887,"275": 87.9488,"300": 84.3874,"325": 80.9352,"350": 68.6722,"375": 52.4325,"400": 44.4024,"425": 38.14,"450": 33.676,"475": 20.9779,"500": 12.9611,"525": 10.5635,"550": 7.8436,"575": 7.5073,"600": 7.1245,"625": 5.3628,"650": 4.7346,"675": 3.9534,"700": 3.4324,"725": 2.7277,"750": 2.2527,"775": 2.314,"800": 2.2527,"825": 1.9768,"850": 1.5324,"875": 1.4097,"900": 1.3331,"925": 1.3177,"950": 1.3024,"975": 1.3331,"1000": 1.3483,"1025": 0.95,"1050": 0.6895,"1075": 0.7048,"1100": 0.9959,"1125": 0.2145,"1150": 0.0919}}}