{"type": "Feature","bbox": [21.5124,42.2276,22.5383,42.8215],"geometry": {"type": "MultiPolygon","coordinates": [[[[21.5775,42.2708,821.5702],[21.5939,42.2475,1034.1714],[21.6039,42.2429,907.5264],[21.6188,42.2398,899.3841],[21.633,42.2417,802.4816],[21.6491,42.2411,619.7713],[21.6664,42.2358,445.899],[21.6843,42.2276,399.5363],[21.7007,42.2295,379.5671],[21.7145,42.2351,425.9141],[21.7232,42.2441,482.6057],[21.7354,42.2485,518.3513],[21.7495,42.2473,638.9517],[21.7924,42.2512,528.4515],[21.7959,42.266,618.8023],[21.7955,42.28,529.9301],[21.7972,42.2883,530.3756],[21.8241,42.3077,578.1987],[21.842,42.3086,557.6013],[21.8722,42.2793,511.9328],[21.9424,42.3204,1025.9458],[21.9739,42.3047,1127.8394],[21.9946,42.3042,1021.8699],[22.0201,42.2859,1042.549],[22.0384,42.286,989.1561],[22.0788,42.2962,1277.3954],[22.1569,42.3103,1048.6251],[22.178,42.3275,1284.5273],[22.195,42.3273,1154.7888],[22.2386,42.3347,1352.8859],[22.2532,42.3386,1532.415],[22.2748,42.3379,1084.6027],[22.2928,42.3273,1119.5131],[22.306,42.3154,1079.6733],[22.3196,42.3068,1099.4446],[22.3387,42.2993,1009.379],[22.3457,42.3041,1068.3016],[22.3516,42.3134,1262.2953],[22.3513,42.3164,1363.1975],[22.3554,42.3141,1312.2583],[22.3622,42.3161,1285.021],[22.3719,42.3158,1195.0315],[22.3746,42.3181,1189.3452],[22.3846,42.3192,1197.2402],[22.3886,42.3253,1269.9485],[22.3934,42.3252,1228.0934],[22.3999,42.3222,1213.0605],[22.4036,42.3231,1193.165],[22.4078,42.3269,1103.8748],[22.4165,42.3161,1012.1372],[22.4247,42.3219,957.5482],[22.4365,42.325,1055.6035],[22.4464,42.3385,1145.4329],[22.4443,42.3416,1070.2393],[22.4433,42.3565,1105.0649],[22.4507,42.3643,1145.7565],[22.4521,42.37,1179.568],[22.4578,42.3722,1383.509],[22.4627,42.3762,1244.6603],[22.4642,42.3814,1243.183],[22.4601,42.3886,1056.7756],[22.4652,42.388,1058.5656],[22.4779,42.3909,1228.4119],[22.4927,42.3885,1278.1875],[22.503,42.3903,1188.8822],[22.5055,42.4038,1017.4542],[22.5154,42.4114,870.0408],[22.5171,42.4158,706.5114],[22.5143,42.4223,881.522],[22.5176,42.4278,778.2907],[22.5199,42.4473,865.6478],[22.5383,42.4663,931.3367],[22.5313,42.4733,1005.9653],[22.5311,42.4799,946.1395],[22.5337,42.4854,970.9218],[22.5261,42.493,921.6354],[22.5124,42.4999,941.3032],[22.5022,42.5084,921.2543],[22.4945,42.5108,857.3483],[22.4883,42.518,939.3296],[22.4785,42.5238,920.0258],[22.4682,42.5351,1091.4189],[22.4602,42.5385,1213.5118],[22.4465,42.5522,1457.5618],[22.4292,42.56,1647.3542],[22.4165,42.5606,1560.3679],[22.419,42.5819,1275.5076],[22.4279,42.5867,1270.9041],[22.4271,42.5886,1294.4985],[22.43,42.602,1208.5377],[22.4364,42.6092,1361.4044],[22.4386,42.6143,1443.882],[22.4368,42.6194,1359.9116],[22.4436,42.6192,1439.5762],[22.4467,42.627,1513.4126],[22.4334,42.6344,1356.6359],[22.4396,42.6351,1441.8995],[22.4406,42.6384,1447.5391],[22.4385,42.6418,1373.0979],[22.4463,42.6452,1522.093],[22.4526,42.6519,1559.8406],[22.4562,42.6603,1542.464],[22.4508,42.6661,1580.6088],[22.4412,42.6691,1667.7701],[22.439,42.6747,1647.0731],[22.4488,42.676,1690.5132],[22.4541,42.6803,1652.3928],[22.4524,42.684,1559.7107],[22.4552,42.6876,1669.1641],[22.4567,42.6937,1636.913],[22.4644,42.6981,1582.9031],[22.4684,42.7048,1401.7699],[22.4783,42.7054,1390.328],[22.4777,42.7149,1348.594],[22.4836,42.7215,1283.446],[22.4825,42.7248,1283.448],[22.4789,42.7277,1214.9447],[22.4668,42.7332,1148.515],[22.457,42.7467,955.6259],[22.4578,42.7494,954.6085],[22.4512,42.7527,868.6251],[22.4424,42.7607,902.9624],[22.4425,42.7641,846.1282],[22.4385,42.7741,820.4417],[22.4328,42.7777,870.1062],[22.4313,42.7817,845.5652],[22.4237,42.7856,924.7704],[22.4221,42.8024,968.0924],[22.4242,42.8049,1059.9534],[22.4314,42.8056,1055.2512],[22.4493,42.8137,1098.1049],[22.4527,42.8111,1046.6815],[22.4585,42.8118,988.9822],[22.4715,42.8209,1097.5186],[22.4409,42.8215,1389.4895],[22.4069,42.8088,1122.3018],[22.387,42.8053,1514.0466],[22.361,42.7815,1552.1598],[22.3399,42.7705,1410.9673],[22.3165,42.7656,1232.3834],[22.3021,42.7538,1355.7769],[22.2868,42.7459,1446.3938],[22.2702,42.7487,1581.2981],[22.2563,42.7465,1391.83],[22.2458,42.7513,1443.9435],[22.232,42.7548,1316.4615],[22.2238,42.7596,1266.3068],[22.2166,42.7678,1196.7291],[22.196,42.7746,954.4114],[22.1776,42.7848,922.5425],[22.173,42.79,805.4311],[22.1731,42.7988,947.2123],[22.1696,42.801,899.1814],[22.1597,42.8021,861.3518],[22.1499,42.8012,777.5694],[22.1361,42.7901,837.8926],[22.1127,42.7915,667.266],[22.1096,42.7936,609.993],[22.109,42.7959,508.6213],[22.116,42.8037,519.6041],[22.1174,42.8084,426.2702],[22.1083,42.8193,538.7542],[22.0974,42.821,706.9502],[22.0789,42.8199,685.1334],[22.0547,42.8095,823.4708],[22.0312,42.8032,914.8055],[22.0211,42.8055,773.4389],[22.0057,42.8168,790.4186],[21.9934,42.818,938.2249],[21.9897,42.816,888.3943],[21.9864,42.8115,890.1411],[21.9844,42.8007,978.3545],[21.9819,42.7961,1047.6064],[21.967,42.7891,1197.96],[21.9443,42.7848,1306.1401],[21.9304,42.7853,1146.871],[21.9091,42.7813,1019.4315],[21.8888,42.7826,1129.5204],[21.8716,42.7783,1094.4069],[21.8402,42.7756,867.5203],[21.8178,42.7693,415.6762],[21.8107,42.7629,643.364],[21.8109,42.7595,630.6305],[21.8148,42.7546,486.0276],[21.8146,42.7514,504.5064],[21.8056,42.7477,640.5416],[21.7987,42.7409,673.649],[21.7879,42.7358,712.5246],[21.7853,42.7327,668.0015],[21.7863,42.7073,932.0841],[21.7851,42.7045,1023.5209],[21.7723,42.696,1008.4094],[21.7547,42.6885,878.2087],[21.7505,42.6742,879.4687],[21.7517,42.67,882.8423],[21.7617,42.6635,906.1198],[21.7669,42.6525,1018.6128],[21.7698,42.6499,1078.2144],[21.793,42.6401,1154.785],[21.7721,42.626,1133.5254],[21.7555,42.6234,1050.6873],[21.7494,42.6202,888.6924],[21.7468,42.6155,875.8679],[21.7478,42.6065,1064.6412],[21.7426,42.5968,982.3952],[21.7313,42.5935,970.4518],[21.7267,42.5905,810.6005],[21.7272,42.5846,823.9174],[21.7395,42.5737,642.4896],[21.744,42.5668,679.8809],[21.7403,42.5562,706.3901],[21.7405,42.548,689.6819],[21.7255,42.5399,623.8207],[21.7025,42.5374,504.041],[21.691,42.5316,494.8272],[21.6883,42.5282,545.0428],[21.6882,42.5239,615.09],[21.6897,42.5198,695.3719],[21.6963,42.5119,583.9683],[21.6963,42.5075,605.0982],[21.6853,42.5037,542.6124],[21.6766,42.4931,566.4396],[21.6622,42.4866,564.634],[21.6566,42.4772,527.23],[21.6462,42.4673,623.7977],[21.6116,42.4478,640.1831],[21.6135,42.4377,590.8461],[21.6277,42.4198,674.629],[21.6293,42.405,675.8408],[21.6236,42.388,887.9965],[21.6167,42.376,805.2266],[21.6088,42.3695,723.4498],[21.6016,42.3675,768.2573],[21.5928,42.3697,722.978],[21.5833,42.3745,777.2224],[21.5733,42.3744,662.4158],[21.5651,42.3705,821.0703],[21.5612,42.3611,881.0044],[21.555,42.3595,817.1894],[21.5418,42.3584,871.5325],[21.527,42.3633,857.638],[21.5217,42.3621,794.0117],[21.5198,42.3596,759.3376],[21.5209,42.3461,814.2787],[21.5124,42.3317,581.5067],[21.5132,42.3232,625.5067],[21.5284,42.3034,645.0312],[21.5348,42.3028,612.553],[21.5469,42.3074,917.9395],[21.5523,42.3058,938.147],[21.5593,42.2907,865.331],[21.5775,42.2708,821.5702]]]]}
,"properties": {"GID_1": "SRB.11_1","GID_0": "SRB","country": "Serbia","province": "Pčinjski","VARNAME_1": "Pčinja","NL_NAME_1": "Пчињски","TYPE_1": "Okrug","ENGTYPE_1": "District","CC_1": "NA","HASC_1": "RS.PC","ISO_1": "NA","name": "Pčinjski.province","area_km2": 3496.677,"hist_schema_id": "Elevation0-9000","hist_area_km2": {"300": 2.303,"325": 9.115,"350": 22.08,"375": 48.233,"400": 93.332,"425": 102.643,"450": 107.606,"475": 90.961,"500": 86.256,"525": 85.039,"550": 80.346,"575": 82.161,"600": 85.183,"625": 79.244,"650": 80.114,"675": 79.281,"700": 77.948,"725": 78.708,"750": 76.139,"775": 75.308,"800": 75.679,"825": 75.772,"850": 77.242,"875": 77.791,"900": 78.544,"925": 77.546,"950": 74.403,"975": 69.975,"1000": 70.691,"1025": 70.6,"1050": 69.494,"1075": 67.721,"1100": 67.738,"1125": 68.038,"1150": 68.429,"1175": 70.884,"1200": 83.312,"1225": 76.648,"1250": 75.529,"1275": 72.545,"1300": 65.578,"1325": 61.175,"1350": 57.646,"1375": 52.816,"1400": 49.149,"1425": 44.717,"1450": 40.56,"1475": 34.937,"1500": 34.155,"1525": 29.202,"1550": 25.247,"1575": 23.0,"1600": 18.048,"1625": 15.142,"1650": 10.455,"1675": 7.627,"1700": 6.282,"1725": 3.922,"1750": 2.486,"1775": 1.751,"1800": 1.188,"1825": 0.438,"1850": 0.313,"1875": 0.172,"1900": 0.078}}}