{"type":"Feature","properties":{"ISO3166-1-Alpha-3":"SRB","country":"Republic of Serbia","fill":"#0F0","id":"841","name":"Pcinjski"},
"geometry":{"type": "Polygon","coordinates": [[[22.13269,42.78977,815.6283],[22.12261,42.79005,788.0623],[22.11858,42.79036,756.2595],[22.11486,42.79093,658.4144],[22.11274,42.79155,667.266],[22.11098,42.79238,609.993],[22.10959,42.79362,609.993],[22.10897,42.79506,561.6196],[22.10902,42.79589,508.6213],[22.11005,42.79783,470.8564],[22.11599,42.80372,519.6041],[22.11734,42.80573,469.3951],[22.11765,42.8071,426.2702],[22.11744,42.80845,426.2702],[22.1162,42.81028,355.189],[22.11015,42.81785,503.2803],[22.10824,42.81927,538.7542],[22.10649,42.81994,575.6625],[22.10447,42.82038,658.1359],[22.09734,42.82095,706.9502],[22.08602,42.82082,688.7377],[22.08235,42.82049,672.3173],[22.07889,42.81987,685.1334],[22.07279,42.81767,639.738],[22.06556,42.81359,747.9331],[22.06349,42.81266,747.4329],[22.05465,42.80951,823.4708],[22.04111,42.80506,1079.1742],[22.03114,42.8032,914.8055],[22.02825,42.80323,874.241],[22.02597,42.80359,825.528],[22.0238,42.80421,842.6738],[22.02106,42.8055,773.4389],[22.01636,42.8086,726.298],[22.0083,42.8154,844.8831],[22.00572,42.81682,790.4186],[22.00355,42.81759,899.2523],[22.00127,42.81811,949.5457],[21.99833,42.81842,956.6788],[21.99548,42.81832,935.6689],[21.99342,42.81801,938.2249],[21.99166,42.81739,901.9095],[21.9897,42.81602,888.3943],[21.98722,42.81292,834.5315],[21.98639,42.8115,890.1411],[21.98561,42.80891,884.0984],[21.98443,42.8007,978.3545],[21.9835,42.79819,968.9656],[21.98195,42.79615,1047.6064],[21.97962,42.79447,1052.3672],[21.9729,42.79116,1085.6465],[21.96706,42.78904,1197.96],[21.96391,42.78834,1276.7396],[21.94427,42.78483,1306.1401],[21.94014,42.78535,1271.1633],[21.93668,42.78555,1165.1315],[21.93037,42.78527,1091.3064],[21.91926,42.78349,967.7158],[21.91125,42.78158,995.4288],[21.90908,42.78132,1019.4315],[21.90691,42.78129,1051.3215],[21.90174,42.78163,1158.7627],[21.89162,42.78271,1119.6184],[21.88882,42.78261,1129.5204],[21.8849,42.78183,1000.668],[21.87544,42.7792,1030.6705],[21.87156,42.77835,1094.4069],[21.86877,42.77814,1101.8728],[21.8649,42.77827,1005.7296],[21.86216,42.77809,977.2283],[21.85162,42.77605,1066.0101],[21.84883,42.77592,1051.9208],[21.8449,42.77605,955.1166],[21.84211,42.77589,919.3729],[21.84015,42.77555,867.5203],[21.82278,42.77145,462.6795],[21.82056,42.77067,428.1758],[21.81777,42.76933,415.6762],[21.81327,42.76623,592.9596],[21.81172,42.7646,574.5918],[21.81069,42.76289,643.364],[21.81048,42.76098,668.5039],[21.8109,42.75948,630.6305],[21.81172,42.75806,523.3454],[21.81482,42.7546,486.0276],[21.81539,42.75289,542.6794],[21.81457,42.75134,504.5064],[21.81322,42.75049,504.5064],[21.80723,42.74842,639.197],[21.80557,42.74768,640.5416],[21.80371,42.7462,626.1021],[21.80072,42.74271,591.3269],[21.79865,42.74091,673.649],[21.79607,42.73941,775.7405],[21.7894,42.73667,728.9315],[21.78785,42.73576,712.5246],[21.78661,42.7347,740.1611],[21.78532,42.73274,668.0015],[21.7849,42.73036,735.8113],[21.78501,42.72282,791.1433],[21.78542,42.71496,843.4902],[21.78635,42.70729,932.0841],[21.78594,42.70584,980.8947],[21.78506,42.70447,1023.5209],[21.78201,42.70212,998.0367],[21.77224,42.69602,1008.4094],[21.76899,42.69453,1028.6219],[21.76067,42.69161,895.0216],[21.75762,42.69029,941.2836],[21.75467,42.68845,878.2087],[21.74425,42.67942,1043.7588],[21.76439,42.66962,816.0964],[21.77276,42.6475,1130.1113],[21.76707,42.63872,1057.09],[21.75653,42.63363,923.011],[21.74454,42.62965,915.0628],[21.73472,42.62425,778.4575],[21.73555,42.62128,828.5652],[21.73007,42.60102,1030.6469],[21.72883,42.59831,990.3855],[21.72697,42.59639,901.6794],[21.72015,42.59389,995.4653],[21.71829,42.59102,953.839],[21.71974,42.58668,878.288],[21.72677,42.57794,648.5703],[21.7277,42.57415,605.5219],[21.71767,42.55115,506.766],[21.66786,42.49009,433.4404],[21.62786,42.46038,641.6636],[21.61897,42.44924,652.0311],[21.6169,42.43392,590.9064],[21.62186,42.40217,767.1484],[21.61742,42.38664,781.4732],[21.59665,42.37209,633.3934],[21.53732,42.35863,851.0179],[21.51603,42.34194,700.3298],[21.51489,42.31783,720.7929],[21.55386,42.27398,818.2852],[21.56407,42.24629,1008.5178],[21.57504,42.24202,935.0531],[21.62465,42.24277,776.2794],[21.65969,42.23556,501.8813],[21.67689,42.23494,414.876],[21.67695,42.23494,414.876],[21.69204,42.24202,398.3441],[21.70651,42.25507,431.196],[21.71952,42.26096,496.0855],[21.8172,42.30514,692.7578],[21.83735,42.30856,455.8394],[21.87735,42.30822,472.4557],[21.88438,42.30951,533.4054],[21.91828,42.33134,666.8047],[21.92903,42.33512,702.5103],[21.94153,42.3331,770.9507],[21.99497,42.31261,918.8015],[22.02763,42.303959999999996,953.1806],[22.04541,42.30242,1110.7935],[22.06091,42.30109,1149.7566],[22.09553,42.30582,1022.1257],[22.13811,42.31912,1009.1992],[22.2334,42.34889,1574.8513],[22.25976,42.36909,1351.2551],[22.26885,42.37033,1261.9628],[22.2733,42.36548,1360.9336],[22.27402,42.34848,1178.8563],[22.27691,42.34124,1132.9846],[22.29159,42.3284,1088.5944],[22.30761,42.31933,1142.4454],[22.32528,42.31432,1077.3169],[22.34502,42.31344,1165.5131],[22.36414,42.32098,1205.3953],[22.40579,42.32155,1119.6038],[22.42398,42.32589,978.4734],[22.43845,42.34005,1023.8014],[22.45437,42.37677,1236.1292],[22.46977,42.3917,1036.2115],[22.48507,42.39715,1111.2018],[22.49757,42.3992,1081.4646],[22.50884,42.40493,1026.9204],[22.51948,42.42093,753.4551],[22.53313,42.45759,974.8382],[22.53654,42.47839,943.0336],[22.53251,42.4934,987.522],[22.53251,42.49356,987.522],[22.52486,42.50766,1038.4849],[22.51214,42.51919,903.6059],[22.48145,42.53562,1031.2946],[22.42967,42.57141,1464.5387],[22.42533,42.57285,1370.3436],[22.42884,42.59278,1360.8893],[22.44132,42.63289,1380.0718],[22.44455,42.64329,1477.0322],[22.4492,42.66797,1620.4871],[22.44207,42.68169,1559.5908],[22.46812,42.71832,1300.0376],[22.48145,42.72768,1233.2247],[22.48259,42.73067,1150.0674],[22.4829,42.73378,1088.6903],[22.48259,42.73682,1092.1208],[22.48145,42.73982,1082.8257],[22.46657,42.74853,1033.0535],[22.45313,42.76359,924.9987],[22.42936,42.80612,1072.3467],[22.42585,42.80984,1120.4465],[22.4274,42.81362,1197.0796],[22.43045,42.81708,1277.7949],[22.42946,42.81682,1280.6796],[22.41933,42.81416,1129.4434],[22.41711,42.81328,1110.7192],[22.41138,42.81036,1052.4402],[22.40693,42.80876,1122.3018],[22.3999,42.807,1345.8213],[22.3889,42.80576,1482.3781],[22.38704,42.80527,1514.0466],[22.38492,42.804,1548.7322],[22.38068,42.79974,1555.402],[22.37531,42.79545,1680.6144],[22.37148,42.79173,1707.0663],[22.36611,42.78545,1641.2109],[22.36342,42.78313,1555.7996],[22.36104,42.78155,1552.1598],[22.3503,42.77682,1537.4928],[22.34539,42.77305,1433.9263],[22.34285,42.77165,1408.386],[22.33991,42.77054,1410.9673],[22.33665,42.76974,1385.1456],[22.33355,42.76925,1404.1215],[22.32404,42.76814,1319.7808],[22.31939,42.7669,1226.1238],[22.31655,42.76561,1232.3834],[22.31391,42.76411,1276.1548],[22.30864,42.76026,1280.157],[22.30213,42.75382,1355.7769],[22.29144,42.74737,1364.4738],[22.28973,42.74662,1437.9043],[22.28678,42.74592,1446.3938],[22.28348,42.74584,1453.4005],[22.28069,42.74612,1453.7928],[22.278,42.74667,1508.3916],[22.27335,42.74809,1558.2305],[22.2702,42.74866,1581.2981],[22.26761,42.74866,1588.9338],[22.26586,42.74835,1588.9338],[22.25976,42.74644,1431.3066],[22.25805,42.74631,1415.9763],[22.25635,42.74654,1391.83],[22.25392,42.74752,1431.9561],[22.24984,42.74974,1436.8867],[22.24586,42.75129,1443.9435],[22.23459,42.75385,1324.4196],[22.23201,42.75483,1316.4615],[22.22725,42.75726,1296.4813],[22.22379,42.75956,1266.3068],[22.2224,42.76093,1265.3975],[22.21852,42.76618,1221.6228],[22.21661,42.76775,1196.7291],[22.21485,42.7686,1156.7831],[22.21278,42.76922,1140.6802],[22.20493,42.77114,1014.5488],[22.19599,42.77457,954.4114],[22.17759,42.78478,922.5425],[22.17449,42.78721,834.3776],[22.17351,42.78853,834.3776],[22.17299,42.79,805.4311],[22.17284,42.79155,836.4514],[22.17356,42.79697,970.1537],[22.1731,42.79883,947.2123],[22.17139,42.80026,947.2123],[22.16958,42.80101,899.1814],[22.16746,42.80152,876.9055],[22.16369,42.80199,763.7726],[22.15971,42.80212,861.3518],[22.15573,42.80201,917.0779],[22.15191,42.80163,850.3315],[22.14984,42.80116,777.5694],[22.14803,42.80049,796.1986],[22.14602,42.79907,839.5443],[22.13997,42.79219,913.0561],[22.1379,42.79072,871.4814],[22.1361,42.79015,837.8926],[22.13269,42.78977,815.6283]]]}}