{"type":"Feature","properties":{"GID_2":"SRB.22.3_1","GID_0":"SRB","country":"Serbia","GID_1":"SRB.22_1","province":"Toplički","NL_NAME_1":"Топлички","county":"Prokuplje","VARNAME_2":"NA","NL_NAME_2":"Прокупље","TYPE_2":"Opštine","ENGTYPE_2":"Town|Municipal","CC_2":"NA","HASC_2":"NA","name":"Prokuplje.county"},
"geometry":{"type": "MultiPolygon","coordinates": [[[[21.6834,43.0548,284.7599],[21.6652,43.0677,300.4553],[21.6464,43.0757,337.7039],[21.6438,43.0793,347.5373],[21.6416,43.0879,420.3791],[21.6343,43.1005,448.8681],[21.633,43.1086,514.1512],[21.6337,43.1253,707.1653],[21.6365,43.1298,734.6166],[21.6442,43.1344,701.9514],[21.6451,43.1375,731.6394],[21.6422,43.1406,846.1311],[21.6343,43.144,778.6531],[21.6321,43.1479,762.1165],[21.6439,43.1556,670.4108],[21.6458,43.1588,566.6837],[21.6436,43.1622,689.5242],[21.6261,43.1691,780.665],[21.6226,43.1719,823.8928],[21.6215,43.175,769.9398],[21.6307,43.1859,517.582],[21.6356,43.195,497.2702],[21.6467,43.2001,340.7886],[21.6484,43.2041,269.9785],[21.6383,43.2134,263.5283],[21.6361,43.2314,288.7816],[21.6291,43.2319,272.9224],[21.6183,43.2367,298.9415],[21.611,43.2459,302.6182],[21.6121,43.2538,332.8902],[21.6253,43.2649,418.9298],[21.6249,43.2693,386.5352],[21.6196,43.2726,390.8391],[21.6074,43.2746,422.3894],[21.6015,43.2773,443.2811],[21.5881,43.2936,409.9687],[21.5846,43.3035,434.0594],[21.5787,43.3102,461.6439],[21.5787,43.3153,485.5732],[21.5862,43.3235,511.0366],[21.5923,43.3335,472.9174],[21.5939,43.3492,569.4545],[21.5703,43.343,518.5118],[21.5591,43.3421,595.8804],[21.5407,43.3427,658.6964],[21.513,43.349,809.09],[21.4901,43.3474,856.4346],[21.4851,43.3499,894.6609],[21.4694,43.3678,982.8098],[21.4601,43.3663,875.2601],[21.4472,43.3668,853.424],[21.4308,43.3722,1088.2896],[21.4251,43.38,958.2549],[21.4205,43.3833,1007.7678],[21.4126,43.3848,1115.3904],[21.4043,43.3829,1131.0341],[21.4041,43.3808,1092.9012],[21.3975,43.3733,1128.6003],[21.383,43.361,861.3654],[21.381,43.3503,635.9324],[21.3785,43.3467,610.4076],[21.3669,43.3381,475.6463],[21.365,43.335,466.2669],[21.3711,43.324,442.5577],[21.3675,43.305,422.8974],[21.368,43.3009,424.1634],[21.3744,43.293,388.1308],[21.389,43.2654,388.8445],[21.3884,43.2619,377.4193],[21.381,43.2507,304.9159],[21.3775,43.2356,328.207],[21.3661,43.2225,317.7873],[21.3545,43.221,309.3278],[21.3443,43.2147,360.1778],[21.3377,43.2151,445.9994],[21.3235,43.2199,487.2475],[21.3016,43.2191,388.1808],[21.3063,43.2096,466.4783],[21.3147,43.1994,531.3939],[21.3139,43.1838,435.5176],[21.3322,43.1721,435.8198],[21.3391,43.1704,389.7751],[21.3488,43.1742,316.2521],[21.3555,43.1826,335.6437],[21.356,43.1854,362.8862],[21.3527,43.1898,353.2911],[21.3528,43.192,357.1955],[21.3547,43.1925,347.9838],[21.3746,43.188,390.0198],[21.3846,43.1803,421.8942],[21.3919,43.1711,478.056],[21.3918,43.1643,535.9777],[21.3947,43.1548,479.497],[21.3925,43.1501,621.1029],[21.3859,43.1438,597.3627],[21.385,43.1399,563.0228],[21.3912,43.1325,539.8739],[21.3942,43.1203,595.6248],[21.4027,43.114,598.5873],[21.4039,43.1111,633.7057],[21.391,43.0991,647.3546],[21.3901,43.0952,708.8989],[21.3948,43.0847,893.5116],[21.388,43.0719,917.5027],[21.3808,43.065,923.644],[21.3796,43.0599,896.5226],[21.3808,43.0546,832.2759],[21.3911,43.0442,545.4818],[21.3913,43.0351,606.0278],[21.3935,43.031,655.4203],[21.4154,43.0252,775.424],[21.4225,43.014,964.347],[21.4277,43.009,1093.3069],[21.4343,43.0063,1028.8674],[21.4465,43.0043,988.1616],[21.4564,42.9923,1186.5273],[21.4755,42.9831,993.6083],[21.5071,42.9985,1358.8009],[21.5226,43.013,1175.6995],[21.5426,43.0233,831.9179],[21.5545,43.0254,719.9481],[21.5984,43.0264,456.1225],[21.6247,43.0403,333.8475],[21.633,43.0513,337.1],[21.6381,43.0538,358.3459],[21.6444,43.0539,387.3652],[21.6582,43.0483,355.9918],[21.6834,43.0548,284.7599]]]]}}