{"type": "Feature","bbox": [19.8346,45.7171,20.1648,45.8656],"geometry": {"type": "MultiPolygon","coordinates": [[[[20.1203,45.7171,74.6305],[20.1502,45.7314,74.8454],[20.1551,45.7353,75.2085],[20.1566,45.7414,75.4572],[20.1549,45.7475,75.9701],[20.1503,45.7531,76.5338],[20.1376,45.7626,80.8396],[20.1341,45.7708,79.7846],[20.1377,45.7745,75.8519],[20.1648,45.7918,76.1106],[20.1483,45.798,82.3468],[20.1446,45.8008,79.2674],[20.1342,45.8166,76.5786],[20.1299,45.8289,73.3269],[20.1211,45.8373,76.0556],[20.1019,45.8504,75.6547],[20.0803,45.8594,80.3665],[20.0618,45.8656,80.6149],[20.0479,45.8557,80.548],[20.0385,45.8531,81.1285],[19.962,45.8533,95.9113],[19.9384,45.8559,100.0297],[19.9232,45.8556,99.802],[19.9012,45.8476,103.1899],[19.8854,45.8455,102.2298],[19.8659,45.8403,102.1829],[19.8346,45.8279,100.5894],[19.8452,45.8078,98.6277],[19.8561,45.7966,96.6649],[19.8556,45.785,89.061],[19.8606,45.7722,94.9633],[19.8932,45.7752,99.3652],[19.9124,45.7747,95.1949],[19.9311,45.7705,92.5886],[19.9503,45.769,89.5915],[19.9712,45.7642,88.615],[19.9923,45.7556,88.2246],[20.0525,45.7544,80.7312],[20.0709,45.7518,79.7425],[20.0853,45.7461,79.5803],[20.0989,45.7346,79.815],[20.1111,45.7276,74.7823],[20.1203,45.7171,74.6305]]]]}
,"properties": {"GID_2": "SRB.18.1_1","GID_0": "SRB","country": "Serbia","GID_1": "SRB.18_1","province": "Severno-Banatski","NL_NAME_1": "Севернобанатски","county": "Ada","VARNAME_2": "NA","NL_NAME_2": "Ада","TYPE_2": "Opštine","ENGTYPE_2": "Town|Municipal","CC_2": "NA","HASC_2": "NA","name": "Ada.county","area_km2": 238.6677,"hist_schema_id": "Elevation0-9000","hist_area_km2": {"75": 122.1694,"100": 116.4983}}}