{"type": "Feature","bbox": [21.5547,42.7034,21.8891,42.9801],"geometry": {"type": "MultiPolygon","coordinates": [[[[21.5547,42.9456,799.969],[21.5629,42.9387,703.9495],[21.5638,42.928,766.3052],[21.5659,42.9255,766.1588],[21.5925,42.9261,553.0362],[21.6106,42.9189,503.0583],[21.6228,42.9159,561.4383],[21.6265,42.9117,564.544],[21.6267,42.9036,479.9836],[21.6294,42.8999,468.7378],[21.6399,42.8968,399.7143],[21.6626,42.8963,371.8613],[21.6683,42.8866,537.4201],[21.6776,42.8774,652.9379],[21.6836,42.8594,593.4501],[21.674,42.847,671.9518],[21.6727,42.834,753.5085],[21.6757,42.8285,731.2863],[21.6874,42.8198,613.5536],[21.6887,42.8146,623.481],[21.6863,42.8111,612.1095],[21.6794,42.8066,642.8301],[21.6546,42.7967,850.478],[21.6515,42.792,924.8928],[21.6745,42.769,876.5802],[21.6818,42.7575,851.4305],[21.6942,42.7444,849.2457],[21.6988,42.7303,895.7987],[21.6957,42.7179,896.2446],[21.6971,42.7034,971.2126],[21.7172,42.7198,843.7018],[21.7333,42.7391,706.046],[21.749,42.7493,756.5118],[21.756,42.7585,728.7161],[21.7576,42.7633,673.2928],[21.7538,42.7775,677.101],[21.7551,42.7822,607.0179],[21.7617,42.789,439.7854],[21.7741,42.7947,621.7232],[21.7781,42.8007,651.4976],[21.778199999999998,42.805,625.7534],[21.7731,42.8191,509.5568],[21.7809,42.8403,515.248],[21.775,42.856,527.4307],[21.7776,42.858,535.2104],[21.7889,42.8604,434.9371],[21.8013,42.8707,354.8823],[21.8035,42.8752,339.74],[21.8004,42.8848,374.0623],[21.8011,42.8884,385.6906],[21.8041,42.8903,381.1237],[21.8198,42.8914,312.9833],[21.8352,42.9023,295.2838],[21.852,42.9016,337.4417],[21.867,42.9077,306.7662],[21.8815,42.909,310.0154],[21.8877,42.9128,296.7084],[21.8891,42.918,299.1279],[21.8869,42.9247,303.0539],[21.8751,42.9324,294.3626],[21.8708,42.9421,334.9595],[21.8612,42.9508,244.7079],[21.846,42.97,248.9225],[21.829,42.9801,270.0595],[21.797,42.9779,299.8217],[21.7698,42.9796,325.9716],[21.7465,42.9754,340.9432],[21.7414,42.9726,353.6135],[21.7362,42.9613,330.2622],[21.7258,42.9555,357.6803],[21.6997,42.9604,347.5999],[21.6823,42.9658,390.8942],[21.6614,42.9487,381.9952],[21.6462,42.9452,383.8983],[21.6349,42.9463,454.2831],[21.6147,42.9585,496.9211],[21.5868,42.9628,599.7839],[21.5547,42.9456,799.969]]]]}
,"properties": {"GID_2": "SRB.4.3_1","GID_0": "SRB","country": "Serbia","GID_1": "SRB.4_1","province": "Jablanički","NL_NAME_1": "Јабланички","county": "Lebane","VARNAME_2": "NA","NL_NAME_2": "Лебане","TYPE_2": "Opštine","ENGTYPE_2": "Town|Municipal","CC_2": "NA","HASC_2": "NA","name": "Lebane.county","area_km2": 321.5183,"hist_schema_id": "Elevation0-9000","hist_area_km2": {"250": 21.7901,"275": 22.9717,"300": 17.7293,"325": 24.608,"350": 26.3475,"375": 21.2256,"400": 14.4276,"425": 11.8055,"450": 12.3491,"475": 12.971,"500": 12.1175,"525": 11.7923,"550": 10.4738,"575": 10.7697,"600": 10.5848,"625": 9.7004,"650": 9.7642,"675": 8.9728,"700": 8.5074,"725": 6.9525,"750": 5.8964,"775": 4.4664,"800": 4.4206,"825": 4.6236,"850": 4.6855,"875": 3.9382,"900": 3.082,"925": 2.4438,"950": 1.0895,"975": 0.5914,"1000": 0.2335,"1025": 0.1868}}}