{"type":"Feature","properties":{"GID_2":"SRB.3.12_1","GID_0":"SRB","country":"Serbia","GID_1":"SRB.3_1","province":"GradBeograd","NL_NAME_1":"Београд","county":"StariGrad","VARNAME_2":"NA","NL_NAME_2":"СтариГрад","TYPE_2":"Opštine","ENGTYPE_2":"Town|Municipal","CC_2":"NA","HASC_2":"NA","name":"Stari_Grad.county"},
"geometry":{"type": "MultiPolygon","coordinates": [[[[20.4307,44.7864,85.3394],[20.4342,44.7828,79.588],[20.4511,44.7839,175.6909],[20.4514,44.7883,153.6389],[20.4612,44.7889,114.3789],[20.4646,44.791,96.9771],[20.4604,44.8,130.0467],[20.4495,44.8144,78.8908],[20.4403,44.8207,76.9325],[20.4351,44.8169,78.8844],[20.4267,44.8045,75.729],[20.4265,44.8006,72.6089],[20.4307,44.7864,85.3394]]]]}}