{"type": "Feature","bbox": [21.2545,43.9268,21.8178,44.1947],"geometry": {"type": "MultiPolygon","coordinates": [[[[21.8178,44.0656,978.8538],[21.7955,44.0751,739.8506],[21.778,44.0705,864.8131],[21.7683,44.0715,772.3192],[21.7563,44.0763,733.2992],[21.7431,44.0879,924.3867],[21.7363,44.0897,912.7952],[21.7233,44.0907,814.5532],[21.7056,44.0834,704.6643],[21.6936,44.0826,694.598],[21.6759,44.0885,613.1294],[21.668,44.102,947.1865],[21.6537,44.1097,916.6674],[21.6441,44.1124,900.2633],[21.6223,44.1123,735.8198],[21.6041,44.1156,717.506],[21.5868,44.1125,410.2791],[21.5583,44.1192,429.2258],[21.5521,44.1237,488.4212],[21.5465,44.1394,379.3254],[21.5439,44.1424,435.664],[21.5319,44.1482,378.0491],[21.5248,44.155,384.5261],[21.4999,44.1706,480.2822],[21.4878,44.1817,540.137],[21.4755,44.1789,484.0354],[21.4653,44.179,406.9556],[21.4562,44.1829,480.0269],[21.4449,44.1916,432.1759],[21.4339,44.1947,341.2401],[21.41,44.1927,264.8768],[21.4024,44.1898,288.5133],[21.3988,44.1866,279.811],[21.3816,44.1663,221.3689],[21.3814,44.1362,159.531],[21.38,44.1331,157.864],[21.3721,44.1259,166.7958],[21.3657,44.1274,163.731],[21.3485,44.1447,152.8517],[21.3433,44.1456,154.8742],[21.332,44.1426,168.6286],[21.3231,44.1426,182.6003],[21.3156,44.1453,186.4254],[21.3067,44.1512,164.2942],[21.3009,44.1512,178.551],[21.2918,44.1456,212.7212],[21.2809,44.1323,238.6088],[21.2712,44.1234,259.3771],[21.2698,44.1202,273.161],[21.2699,44.1131,253.6062],[21.2566,44.1055,168.0993],[21.2545,44.1024,177.6754],[21.2564,44.0976,191.5215],[21.2742,44.0981,224.6132],[21.2808,44.0959,177.0212],[21.2932,44.0841,189.3974],[21.2922,44.0736,196.1088],[21.294,44.0694,176.1487],[21.3134,44.055,139.4304],[21.3204,44.0552,149.7909],[21.3327,44.059,180.9878],[21.3387,44.0583,218.6881],[21.3501,44.0537,176.7845],[21.3593,44.0412,254.3486],[21.3863,44.0506,227.4414],[21.3982,44.0514,231.5834],[21.4204,44.0413,215.6485],[21.4331,44.0271,294.6133],[21.4513,44.0197,227.9616],[21.4757,44.0224,304.9758],[21.4957,44.0179,338.6435],[21.5293,44.0056,505.5686],[21.5576,44.0031,558.9378],[21.5673,43.9879,540.9923],[21.5675,43.9847,559.0814],[21.5634,43.9805,518.9494],[21.5538,43.9764,502.0005],[21.5519,43.9741,491.242],[21.552,43.9704,460.4492],[21.5751,43.9626,503.5245],[21.5912,43.9508,379.8041],[21.5983,43.9477,393.0103],[21.6061,43.9467,450.9817],[21.6158,43.9507,627.5134],[21.6234,43.9517,718.0789],[21.6517,43.9461,812.1398],[21.6727,43.9511,819.6875],[21.6887,43.953,912.1803],[21.6941,43.951,892.0027],[21.726,43.9268,908.9688],[21.7414,43.9395,914.9205],[21.7463,43.9519,894.7856],[21.775,43.9709,931.5164],[21.7765,43.9778,971.7352],[21.7699,43.9893,986.7491],[21.7725,43.9919,1023.844],[21.7746,44.0098,1081.4216],[21.7854,44.0187,1040.4437],[21.7883,44.0347,1131.459],[21.8011,44.039,1132.1953],[21.8085,44.0436,1029.849],[21.8118,44.0543,1000.3303],[21.8178,44.0656,978.8538]]]]}
,"properties": {"GID_2": "SRB.14.2_1","GID_0": "SRB","country": "Serbia","GID_1": "SRB.14_1","province": "Pomoravski","NL_NAME_1": "Поморавски","county": "Despotovac","VARNAME_2": "NA","NL_NAME_2": "Деспотовац","TYPE_2": "Opštine","ENGTYPE_2": "Town|Municipal","CC_2": "NA","HASC_2": "NA","name": "Despotovac.county","area_km2": 611.6353,"hist_schema_id": "Elevation0-9000","hist_area_km2": {"125": 0.3808,"150": 5.8154,"175": 32.3924,"200": 35.5174,"225": 35.1714,"250": 35.0384,"275": 23.8197,"300": 20.6063,"325": 20.787,"350": 19.9021,"375": 19.4751,"400": 18.4082,"425": 18.0284,"450": 19.2314,"475": 16.8276,"500": 14.9281,"525": 13.9254,"550": 12.6792,"575": 11.7517,"600": 11.0362,"625": 12.2859,"650": 12.6972,"675": 12.4538,"700": 12.3633,"725": 12.196,"750": 12.5923,"775": 13.874,"800": 15.7354,"825": 15.0645,"850": 16.1806,"875": 15.6767,"900": 13.3431,"925": 13.7251,"950": 12.3228,"975": 10.08,"1000": 7.7006,"1025": 5.2296,"1050": 3.6735,"1075": 2.6521,"1100": 2.332,"1125": 1.6309,"1150": 1.0822,"1175": 0.8689,"1200": 0.1524}}}