{"type":"Feature","properties":{"GID_2":"SRB.2.5_1","GID_0":"SRB","country":"Serbia","GID_1":"SRB.2_1","province":"Braničevski","NL_NAME_1":"Браничевски","county":"Požarevac","VARNAME_2":"Pojarevaţ|Pasarofça|Passarowitz","NL_NAME_2":"Пожаревац","TYPE_2":"Opštine","ENGTYPE_2":"Town|Municipal","CC_2":"NA","HASC_2":"NA","name":"Požarevac.county"},
"geometry":{"type": "MultiPolygon","coordinates": [[[[21.3879,44.6158,224.0075],[21.3667,44.6351,201.9211],[21.3481,44.6364,203.4396],[21.3288,44.6435,128.2619],[21.2925,44.6503,99.2807],[21.2774,44.6571,95.3541],[21.2704,44.665,95.4046],[21.27,44.678,101.5724],[21.2674,44.6845,99.0335],[21.2685,44.6871,96.6338],[21.2911,44.6989,106.6442],[21.3076,44.7045,116.7894],[21.3217,44.7146,133.6085],[21.3364,44.7221,162.1398],[21.3406,44.7267,182.0237],[21.3337,44.7359,208.1195],[21.3314,44.7429,225.1548],[21.3328,44.7466,250.2759],[21.3415,44.755,261.2053],[21.3413,44.7592,238.4895],[21.3255,44.7741,167.8692],[21.3009,44.7805,72.0013],[21.288,44.7726,75.373],[21.2614,44.7709,67.114],[21.2414,44.7662,68.3202],[21.2216,44.7641,67.0129],[21.2068,44.7588,67.3552],[21.1806,44.7527,69.278],[21.1527,44.7382,67.5],[21.1486,44.7339,67.5],[21.1461,44.7255,68.6656],[21.1268,44.7093,69.2523],[21.0931,44.7105,68.5265],[21.0809,44.7086,75.0456],[21.0558,44.6932,71.1759],[21.0467,44.6914,71.7333],[21.0264,44.6911,69.8086],[21.0227,44.6808,70.6217],[21.0298,44.6675,74.0584],[21.0289,44.6634,77.1314],[21.0223,44.6576,73.0585],[21.0209,44.6534,72.7163],[21.0311,44.6442,72.1383],[21.0295,44.6359,72.4415],[21.0394,44.6236,73.276],[21.0437,44.612,74.2691],[21.0512,44.605,74.4044],[21.0582,44.6025,71.0],[21.0671,44.6023,75.9105],[21.0735,44.5986,80.224],[21.0601,44.5887,75.1384],[21.0582,44.584,76.0958],[21.0595,44.5812,75.6549],[21.0881,44.561,78.0903],[21.1252,44.5556,83.3755],[21.1317,44.5511,79.8308],[21.1316,44.5428,76.6525],[21.1243,44.5306,81.3226],[21.1141,44.5212,80.7919],[21.1132,44.5159,80.7222],[21.1174,44.5117,80.8918],[21.13,44.5063,88.6567],[21.1307,44.504,83.9775],[21.1246,44.4948,81.8269],[21.1336,44.482,82.968],[21.1427,44.473,83.7638],[21.1911,44.4836,83.5404],[21.2064,44.482,84.0358],[21.2233,44.4825,185.2112],[21.214,44.4961,106.0219],[21.2039,44.5037,82.3551],[21.2014,44.5115,81.8072],[21.2042,44.5179,82.8921],[21.2124,44.5251,137.5573],[21.2131,44.535,205.8891],[21.2185,44.538,195.894],[21.2283,44.5401,210.3757],[21.2308,44.5424,178.1943],[21.2228,44.5585,191.2118],[21.2265,44.5639,179.1206],[21.2443,44.5706,190.6875],[21.2647,44.5733,85.2329],[21.2794,44.5779,88.4637],[21.2843,44.5845,94.8486],[21.2838,44.596,101.4206],[21.2875,44.599,104.1745],[21.3146,44.5985,109.4005],[21.3307,44.5963,118.3102],[21.3483,44.5978,148.3808],[21.3638,44.6062,191.5072],[21.3879,44.6158,224.0075]]]]}}