{"type": "Feature","bbox": [20.2012,42.9458,20.6572,43.2985],"geometry": {"type": "MultiPolygon","coordinates": [[[[20.5731,43.1855,633.2382],[20.5724,43.1898,560.2303],[20.5615,43.2004,536.6687],[20.5259,43.2255,567.5034],[20.4945,43.2367,717.2534],[20.4683,43.2513,968.5537],[20.4593,43.2593,885.6921],[20.4364,43.2732,984.459],[20.3688,43.2729,1426.0892],[20.3262,43.26,1270.4404],[20.321,43.26,1167.1121],[20.3004,43.2684,1027.2764],[20.287,43.2769,1456.2136],[20.2778,43.289,1289.2102],[20.2674,43.2985,1070.5815],[20.249,43.2802,1001.0927],[20.2419,43.2683,919.5242],[20.2354,43.2544,1126.5908],[20.2329,43.2393,1189.6411],[20.2051,43.2236,1188.1855],[20.2012,43.2185,1175.238],[20.2059,43.2062,1132.0306],[20.2236,43.198,1203.1177],[20.2312,43.1876,1275.9939],[20.2485,43.1818,1204.5151],[20.2561,43.177,1176.8856],[20.2695,43.1714,1230.4647],[20.2896,43.1468,1052.3613],[20.294,43.1362,1033.3229],[20.3187,43.1155,955.4706],[20.329,43.109,949.2246],[20.3307,43.1062,952.2748],[20.3312,43.0974,952.2545],[20.3415,43.0866,947.2834],[20.3593,43.0756,850.6133],[20.3714,43.0644,984.1732],[20.3948,43.0607,755.7134],[20.3986,43.0586,893.7364],[20.4054,43.0495,953.7129],[20.4056,43.0431,877.6624],[20.392,43.0303,1020.2833],[20.3911,43.0277,1048.0663],[20.3938,43.0239,1063.8712],[20.4282,42.9962,1004.6843],[20.4343,42.9938,826.9548],[20.4496,42.9937,870.3948],[20.4846,43.0023,983.6212],[20.4904,43.0007,927.475],[20.4913,42.9984,887.5347],[20.4884,42.9903,914.1428],[20.4934,42.9811,812.8082],[20.4942,42.9729,754.8129],[20.4929,42.9643,981.3607],[20.4894,42.9558,980.0897],[20.5077,42.9458,962.3441],[20.5115,42.9464,813.7559],[20.5154,42.9499,844.9304],[20.522,42.9624,774.3763],[20.5319,42.9742,684.5],[20.5502,42.9902,1027.9177],[20.5582,42.9922,1003.5009],[20.5782,42.9848,958.8174],[20.5909,42.9863,860.3016],[20.5999,42.991,954.2238],[20.6066,43.0024,1162.3011],[20.6336,43.016,1276.1748],[20.633,43.0213,1313.335],[20.628,43.0296,1324.1553],[20.6334,43.0403,1251.011],[20.6207,43.0485,1089.6038],[20.6194,43.0532,1040.2628],[20.6243,43.0565,1113.3794],[20.6395,43.0604,1191.8362],[20.6512,43.0663,1196.1332],[20.6539,43.0703,1254.5974],[20.6572,43.0821,1081.7571],[20.6561,43.0909,1130.0366],[20.6501,43.0982,1133.0592],[20.6407,43.1069,1035.7371],[20.626,43.1141,1015.0887],[20.6222,43.1177,1010.2149],[20.6227,43.1289,994.8411],[20.617,43.136,936.0023],[20.6004,43.1435,915.6987],[20.5802,43.1464,644.7231],[20.5702,43.15,720.376],[20.5694,43.1536,604.4963],[20.5746,43.1601,760.0638],[20.5744,43.1655,821.5798],[20.5696,43.1713,794.3385],[20.5571,43.1788,632.5815],[20.5555,43.181399999999996,666.1929],[20.5572,43.1849,666.5506],[20.5621,43.1877,645.6469],[20.5665,43.1856,698.6296],[20.5731,43.1855,633.2382]]]]}
,"properties": {"GID_2": "SRB.16.2_1","GID_0": "SRB","country": "Serbia","GID_1": "SRB.16_1","province": "Raški","NL_NAME_1": "Рашки","county": "NoviPazar","VARNAME_2": "YeniPazar|PazariRi|TregiRi","NL_NAME_2": "НовиПазар","TYPE_2": "Opštine","ENGTYPE_2": "Town|Municipal","CC_2": "NA","HASC_2": "NA","name": "Novi_Pazar.county","area_km2": 718.2686,"hist_schema_id": "Elevation0-9000","hist_area_km2": {"450": 0.5409,"475": 3.8811,"500": 7.0069,"525": 10.0236,"550": 12.8858,"575": 14.1382,"600": 16.2883,"625": 18.2834,"650": 21.3003,"675": 25.0949,"700": 25.788,"725": 27.0747,"750": 27.709,"775": 26.9061,"800": 27.666,"825": 26.6156,"850": 28.644,"875": 27.8858,"900": 28.3063,"925": 29.1116,"950": 32.2077,"975": 32.6721,"1000": 31.4627,"1025": 29.3718,"1050": 27.1133,"1075": 24.6822,"1100": 23.148,"1125": 18.9079,"1150": 20.7452,"1175": 19.1622,"1200": 14.5076,"1225": 9.8222,"1250": 7.719,"1275": 5.7223,"1300": 4.9174,"1325": 3.2628,"1350": 2.0715,"1375": 1.5137,"1400": 1.0659,"1425": 0.8031,"1450": 0.6799,"1475": 0.5714,"1500": 0.2625,"1525": 0.3088,"1550": 0.247,"1575": 0.1544,"1600": 0.0154}}}