{"type": "Feature","bbox": [21.646,43.6933,22.1237,43.993],"geometry": {"type": "MultiPolygon","coordinates": [[[[21.7725,43.9919,1023.844],[21.7699,43.9893,986.7491],[21.7765,43.9778,971.7352],[21.7762,43.9728,922.2866],[21.7732,43.9691,941.9727],[21.7463,43.9519,894.7856],[21.7414,43.9395,914.9205],[21.7253,43.9264,908.9688],[21.724,43.9222,841.4661],[21.7305,43.9134,876.8703],[21.7289,43.9078,867.1527],[21.72,43.901,944.1584],[21.7027,43.8987,902.8647],[21.6804,43.8911,741.7372],[21.6728,43.8855,755.8959],[21.6688,43.8775,757.4553],[21.6698,43.8668,623.3611],[21.6884,43.8515,685.7062],[21.6895,43.8477,632.6667],[21.6779,43.8374,603.8635],[21.6753,43.8279,608.7991],[21.662,43.8158,707.4526],[21.6502,43.8085,762.0558],[21.646,43.8029,667.2089],[21.6643,43.7841,393.7585],[21.6839,43.7747,575.7662],[21.7039,43.7563,514.4415],[21.7448,43.7537,678.8722],[21.7889,43.743,578.515],[21.8218,43.7484,643.9326],[21.8465,43.7557,774.3741],[21.8617,43.7554,871.454],[21.8767,43.7599,868.3679],[21.8821,43.76,887.4885],[21.9039,43.7521,1015.9643],[21.923,43.7407,907.8594],[21.9255,43.737,886.9502],[21.9279,43.7262,729.2456],[21.9406,43.7091,722.319],[21.9606,43.6951,574.6407],[21.9664,43.6933,507.075],[21.9803,43.6942,494.5089],[21.9928,43.697,656.9564],[22.0099,43.6966,751.6127],[22.0199,43.7015,832.8679],[22.0296,43.7076,772.8464],[22.0321,43.713,668.4376],[22.0391,43.7138,689.2458],[22.0529,43.7273,623.3815],[22.0562,43.7321,573.9993],[22.0577,43.7426,615.1447],[22.0609,43.7461,670.4014],[22.0683,43.7497,663.6674],[22.0848,43.753,537.0476],[22.0998,43.7653,449.5769],[22.1099,43.7843,402.3923],[22.1138,43.7983,289.7573],[22.1119,43.8044,305.5674],[22.1018,43.8141,365.6638],[22.0927,43.8181,368.2062],[22.0789,43.8194,351.1589],[22.0623,43.8184,430.6979],[22.0593,43.8203,417.4207],[22.0589,43.824,407.8776],[22.0636,43.8308,467.0193],[22.0771,43.8413,459.1195],[22.0963,43.8493,370.9248],[22.1048,43.8559,403.8152],[22.1216,43.8624,358.6808],[22.1237,43.868,377.1454],[22.1217,43.8756,400.2959],[22.1036,43.8866,303.21],[22.072,43.8962,300.4677],[22.0612,43.9015,268.752],[22.056,43.9158,187.4257],[22.0508,43.9226,191.8658],[22.0495,43.9308,205.6008],[22.04,43.9414,286.7919],[22.0345,43.9513,336.4599],[22.028,43.9528,284.6959],[22.018,43.9522,222.6601],[22.0051,43.9384,272.5508],[21.9979,43.9366,321.3075],[21.9739,43.9448,372.2304],[21.9556,43.9471,368.2776],[21.9422,43.9532,559.9015],[21.9263,43.9664,783.0845],[21.9117,43.9722,812.1479],[21.9056,43.9805,858.6574],[21.8957,43.9881,837.4048],[21.8736,43.9925,736.9381],[21.8419,43.9869,813.5831],[21.8314,43.988,768.6669],[21.8165,43.993,821.4352],[21.8105,43.9929,797.2982],[21.7956,43.9886,910.9871],[21.7725,43.9919,1023.844]]]]}
,"properties": {"GID_2": "SRB.23.1_1","GID_0": "SRB","country": "Serbia","GID_1": "SRB.23_1","province": "Zaječarski","NL_NAME_1": "Зајечарски","county": "Boljevac","VARNAME_2": "NA","NL_NAME_2": "Бољевац","TYPE_2": "Opštine","ENGTYPE_2": "Town|Municipal","CC_2": "NA","HASC_2": "NA","name": "Boljevac.county","area_km2": 807.5159,"hist_schema_id": "Elevation0-9000","hist_area_km2": {"175": 0.0153,"200": 15.1523,"225": 13.3062,"250": 17.1432,"275": 23.4107,"300": 29.7144,"325": 37.5511,"350": 43.4952,"375": 42.9795,"400": 39.4761,"425": 36.4484,"450": 30.3766,"475": 27.5654,"500": 24.4622,"525": 25.2584,"550": 27.4149,"575": 29.3741,"600": 30.1397,"625": 30.1414,"650": 29.7428,"675": 27.2144,"700": 26.307,"725": 25.0333,"750": 24.5388,"775": 24.9165,"800": 23.1054,"825": 19.9392,"850": 17.2455,"875": 13.7326,"900": 13.3201,"925": 10.9984,"950": 7.8831,"975": 4.7679,"1000": 4.0211,"1025": 2.8449,"1050": 1.713,"1075": 0.8268,"1100": 0.5359,"1125": 0.6124,"1150": 0.5205,"1175": 0.5971,"1200": 0.4134,"1225": 0.444,"1250": 0.4746,"1275": 0.4134,"1300": 0.398,"1325": 0.3368,"1350": 0.398,"1375": 0.2603,"1400": 0.1837,"1425": 0.0612,"1450": 0.1531,"1475": 0.0306,"1500": 0.0459,"1525": 0.0612}}}