{"type":"Feature","properties":{"GID_2":"SRB.4.4_1","GID_0":"SRB","country":"Serbia","GID_1":"SRB.4_1","province":"Jablanički","NL_NAME_1":"Јабланички","county":"Leskovac","VARNAME_2":"Dubočica","NL_NAME_2":"Лесковац","TYPE_2":"Opštine","ENGTYPE_2":"Town|Municipal","CC_2":"NA","HASC_2":"NA","name":"Leskovac.county"},
"geometry":{"type": "MultiPolygon","coordinates": [[[[21.7547,42.6885,878.2087],[21.7723,42.696,1008.4094],[21.7851,42.7045,1023.5209],[21.7863,42.7073,932.0841],[21.7853,42.7327,668.0015],[21.7879,42.7358,712.5246],[21.7987,42.7409,673.649],[21.8056,42.7477,640.5416],[21.8146,42.7514,504.5064],[21.8148,42.7546,486.0276],[21.8109,42.7595,630.6305],[21.8107,42.7629,643.364],[21.8178,42.7693,415.6762],[21.8402,42.7756,867.5203],[21.8716,42.7783,1094.4069],[21.8888,42.7826,1129.5204],[21.9091,42.7813,1019.4315],[21.9304,42.7853,1146.871],[21.9443,42.7848,1306.1401],[21.967,42.7891,1197.96],[21.9819,42.7961,1047.6064],[21.9844,42.8007,978.3545],[21.9864,42.8115,890.1411],[21.9897,42.816,888.3943],[21.9934,42.818,938.2249],[22.0057,42.8168,790.4186],[22.0211,42.8055,773.4389],[22.0312,42.8032,914.8055],[22.0547,42.8095,823.4708],[22.0789,42.8199,685.1334],[22.1045,42.8204,658.1359],[22.1102,42.8179,503.2803],[22.1174,42.8084,426.2702],[22.116,42.8037,519.6041],[22.109,42.7959,508.6213],[22.1096,42.7936,609.993],[22.1127,42.7915,667.266],[22.1361,42.7901,837.8926],[22.1499,42.8012,777.5694],[22.1675,42.8015,876.9055],[22.1731,42.7988,947.2123],[22.173,42.79,805.4311],[22.1776,42.7848,922.5425],[22.196,42.7746,954.4114],[22.202,42.7793,1053.6371],[22.2055,42.7855,1181.7986],[22.2017,42.7961,955.7535],[22.2026,42.7986,1000.0393],[22.2078,42.8018,1096.4031],[22.2209,42.8055,1258.5758],[22.2225,42.8081,1276.0214],[22.2122,42.8182,1172.6299],[22.2103,42.8296,1041.8059],[22.1962,42.8315,799.7771],[22.193,42.835,738.0461],[22.1951,42.8387,841.2749],[22.2107,42.8534,928.8389],[22.2205,42.8685,1208.5414],[22.2211,42.8748,1364.115],[22.2021,42.8776,1006.2229],[22.1888,42.8778,909.3752],[22.1692,42.8839,630.9973],[22.159,42.8919,696.9637],[22.145,42.8984,855.0895],[22.1335,42.9104,609.6339],[22.1323,42.9207,411.644],[22.1283,42.9231,459.3472],[22.1036,42.9213,567.2373],[22.0757,42.9244,426.7655],[22.0615,42.9181,421.6834],[22.0547,42.9196,411.9814],[22.0459,42.9271,336.6971],[22.0455,42.9361,335.8393],[22.0411,42.947,239.4327],[22.0505,42.9644,248.8222],[22.0535,42.9771,235.1975],[22.0601,42.9863,253.7946],[22.0655,42.9898,289.2679],[22.0849,42.9938,402.9401],[22.0898,42.9972,354.578],[22.0905,43.0002,355.2448],[22.0892,43.0028,379.9151],[22.0817,43.0108,399.5089],[22.0822,43.0155,442.0956],[22.106,43.0321,568.0225],[22.1303,43.041,616.5384],[22.1552,43.0587,634.4125],[22.138,43.0741,688.7582],[22.1271,43.0813,650.5643],[22.109,43.0867,648.8129],[22.0776,43.1022,782.6398],[22.0505,43.1258,947.8869],[22.034,43.1345,899.7665],[22.0292,43.1426,892.4966],[22.0267,43.1442,878.2985],[22.0107,43.1404,725.5981],[22.0017,43.1444,676.6487],[21.9936,43.1514,591.4114],[21.987,43.1522,593.5269],[21.9798,43.1499,567.0845],[21.9633,43.1408,383.7102],[21.9419,43.1373,319.628],[21.9181,43.1264,204.7982],[21.915,43.128,203.8312],[21.8974,43.1555,198.7182],[21.8563,43.1401,204.0672],[21.8055,43.1378,233.1567],[21.814,43.1275,241.9285],[21.8139,43.1225,235.7103],[21.794,43.107,270.202],[21.7749,43.0956,251.2497],[21.8026,43.0876,282.2842],[21.8085,43.0846,278.8467],[21.8276,43.0631,385.8572],[21.8352,43.0456,369.1882],[21.831,43.0322,336.2913],[21.8072,43.0116,324.6201],[21.8075,43.0016,317.9478],[21.8006,42.9908,346.4206],[21.797,42.9779,299.8217],[21.8256,42.9801,272.3242],[21.8336,42.9785,263.7956],[21.846,42.97,248.9225],[21.8612,42.9508,244.7079],[21.8708,42.9421,334.9595],[21.8751,42.9324,294.3626],[21.8869,42.9247,303.0539],[21.8891,42.918,299.1279],[21.8877,42.9128,296.7084],[21.8815,42.909,310.0154],[21.867,42.9077,306.7662],[21.852,42.9016,337.4417],[21.8352,42.9023,295.2838],[21.8198,42.8914,312.9833],[21.8041,42.8903,381.1237],[21.8011,42.8884,385.6906],[21.8004,42.8848,374.0623],[21.8035,42.8752,339.74],[21.8013,42.8707,354.8823],[21.7889,42.8604,434.9371],[21.7776,42.858,535.2104],[21.775,42.856,527.4307],[21.7809,42.8403,515.248],[21.7731,42.8191,509.5568],[21.778199999999998,42.805,625.7534],[21.7781,42.8007,651.4976],[21.7741,42.7947,621.7232],[21.7617,42.789,439.7854],[21.7551,42.7822,607.0179],[21.7538,42.7775,677.101],[21.7576,42.7633,673.2928],[21.756,42.7585,728.7161],[21.749,42.7493,756.5118],[21.7333,42.7391,706.046],[21.7172,42.7198,843.7018],[21.6944,42.7001,992.9494],[21.6883,42.6966,1141.0972],[21.6807,42.6962,952.8771],[21.6787,42.6937,910.1564],[21.6792,42.6892,1022.6927],[21.6851,42.6806,1001.2518],[21.7016,42.6771,961.0934],[21.7315,42.6803,971.4339],[21.7547,42.6885,878.2087]]]]}}