{"type":"Feature","properties":{"GID_2":"SRB.11.5_1","GID_0":"SRB","country":"Serbia","GID_1":"SRB.11_1","province":"Pčinjski","NL_NAME_1":"Пчињски","county":"Trgovište","VARNAME_2":"NA","NL_NAME_2":"Трговиште","TYPE_2":"Opštine","ENGTYPE_2":"Town|Municipal","CC_2":"NA","HASC_2":"NA","name":"Trgovište.county"},
"geometry":{"type": "MultiPolygon","coordinates": [[[[22.2734,42.3379,1143.792],[22.3204,42.3787,1662.5321],[22.3238,42.3886,1503.3939],[22.3265,42.4158,1548.76],[22.3148,42.428,1429.9873],[22.3011,42.4355,1421.6653],[22.2963,42.4434,1516.2457],[22.2917,42.4476,1559.1711],[22.2702,42.4567,1494.0472],[22.2422,42.4657,1545.8552],[22.233,42.4703,1545.7246],[22.2178,42.4913,1479.3091],[22.2085,42.4781,1501.2383],[22.2089,42.4683,1306.7444],[22.207,42.4645,1366.9592],[22.2,42.4596,1487.9614],[22.1823,42.4521,1282.3431],[22.1735,42.4432,1429.1877],[22.1656,42.4422,1344.0914],[22.1492,42.4447,1316.5591],[22.1248,42.4549,1429.541],[22.1157,42.4545,1413.3074],[22.1131,42.4511,1317.2974],[22.1122,42.4409,1461.0491],[22.113,42.4331,1369.6042],[22.1166,42.4251,1376.1281],[22.1132,42.4207,1530.6895],[22.1062,42.4198,1529.1086],[22.087,42.4239,1301.6426],[22.0512,42.4112,918.5086],[22.0407,42.4146,695.7039],[22.0319,42.4209,928.6066],[22.0233,42.4223,859.5095],[21.9912,42.407,794.7516],[21.9676,42.4019,755.7657],[21.9537,42.391,735.6954],[21.9349,42.386,660.7666],[21.9348,42.3826,674.9479],[21.9438,42.375,646.601],[21.9414,42.3635,671.4464],[21.9393,42.3604,605.3714],[21.9242,42.3557,714.8679],[21.9218,42.352,597.4827],[21.9238,42.3484,502.7529],[21.9293,42.3453,551.0066],[21.9352,42.3371,812.6928],[21.942,42.3202,1025.9458],[21.9739,42.3047,1127.8394],[21.9946,42.3042,1021.8699],[22.0201,42.2859,1042.549],[22.0384,42.286,989.1561],[22.0788,42.2962,1277.3954],[22.1569,42.3103,1048.6251],[22.178,42.3275,1284.5273],[22.195,42.3273,1154.7888],[22.2386,42.3347,1352.8859],[22.2532,42.3386,1532.415],[22.2734,42.3379,1143.792]]]]}}