{"type":"Feature","properties":{"GID_2":"SRB.16.4_1","GID_0":"SRB","country":"Serbia","GID_1":"SRB.16_1","province":"Raški","NL_NAME_1":"Рашки","county":"Tutin","VARNAME_2":"NA","NL_NAME_2":"Тутин","TYPE_2":"Opštine","ENGTYPE_2":"Town|Municipal","CC_2":"NA","HASC_2":"NA","name":"Tutin.county"},
"geometry":{"type": "MultiPolygon","coordinates": [[[[20.4894,42.9558,980.0897],[20.4929,42.9643,981.3607],[20.4942,42.9729,754.8129],[20.4934,42.9811,812.8082],[20.4884,42.9903,914.1428],[20.4913,42.9984,887.5347],[20.4904,43.0007,927.475],[20.4846,43.0023,983.6212],[20.4496,42.9937,870.3948],[20.4343,42.9938,826.9548],[20.4282,42.9962,1004.6843],[20.3938,43.0239,1063.8712],[20.3911,43.0277,1048.0663],[20.392,43.0303,1020.2833],[20.4056,43.0431,877.6624],[20.4054,43.0495,953.7129],[20.3986,43.0586,893.7364],[20.3948,43.0607,755.7134],[20.3714,43.0644,984.1732],[20.3593,43.0756,850.6133],[20.3415,43.0866,947.2834],[20.3312,43.0974,952.2545],[20.3307,43.1062,952.2748],[20.329,43.109,949.2246],[20.3187,43.1155,955.4706],[20.294,43.1362,1033.3229],[20.2896,43.1468,1052.3613],[20.2821,43.1569,1118.5802],[20.2463,43.1525,1291.3903],[20.2145,43.1403,1086.7327],[20.1713,43.1409,1183.7034],[20.1656,43.1392,1284.3425],[20.1513,43.1246,1180.5291],[20.1399,43.1168,1177.8066],[20.1389,43.113,1169.3643],[20.144,43.1043,1166.332],[20.1438,43.1001,1167.5391],[20.1419,43.0974,1165.9108],[20.1366,43.0954,1166.7074],[20.1203,43.0957,1159.1592],[20.1005,43.0888,1157.167],[20.084,43.0734,1155.181],[20.0764,43.0612,1178.6428],[20.0691,43.0529,1221.8635],[20.0631,43.0411,1367.8506],[20.0602,43.0279,1343.9124],[20.047,43.0152,1402.3375],[20.0436,43.0015,1457.8986],[20.0337,42.9851,1518.4689],[20.0611,42.9678,1500.2581],[20.0712,42.9574,1420.4524],[20.0774,42.9534,1538.3044],[20.0877,42.9536,1625.4427],[20.1031,42.9662,1549.8748],[20.1094,42.9678,1583.8806],[20.123,42.9591,1660.2831],[20.186,42.9311,1123.7892],[20.2294,42.9149,1221.2667],[20.2764,42.9036,1073.2319],[20.3108,42.8912,892.1752],[20.3164,42.8854,1025.2549],[20.3176,42.8781,1163.7068],[20.3168,42.8703,1311.6962],[20.3109,42.8521,1535.8628],[20.3137,42.8262,1922.7914],[20.3443,42.8281,1931.703],[20.3648,42.8319,2104.335],[20.3722,42.8301,1985.0138],[20.3888,42.821,1582.2952],[20.3984,42.8188,1773.8518],[20.4038,42.8199,1902.036],[20.4122,42.8245,1811.6233],[20.4242,42.8357,1692.9968],[20.4482,42.8508,1629.7651],[20.4769,42.8567,1652.9712],[20.4914,42.8641,1538.7628],[20.5087,42.8682,1658.0673],[20.4865,42.878,1497.7473],[20.4745,42.8853,1385.1804],[20.4661,42.8986,1399.0852],[20.4577,42.9042,1311.0558],[20.4505,42.9129,1177.2134],[20.461,42.9367,1349.5415],[20.4894,42.9558,980.0897]]]]}}