{"type":"Feature","properties":{"GID_1":"SRB.16_1","GID_0":"SRB","country":"Serbia","province":"Raški","VARNAME_1":"Raška","NL_NAME_1":"Рашки","TYPE_1":"Okrug","ENGTYPE_1":"District","CC_1":"NA","HASC_1":"RS.RS","ISO_1":"NA","name":"Raški.province"},
"geometry":{"type": "MultiPolygon","coordinates": [[[[20.4749,42.9471,1090.4208],[20.4894,42.9558,980.0897],[20.5039,42.9468,1034.8811],[20.5115,42.9464,813.7559],[20.5154,42.9499,844.9304],[20.522,42.9624,774.3763],[20.5319,42.9742,684.5],[20.553,42.9915,998.804],[20.5604,42.992,1062.4022],[20.5812,42.9845,894.2468],[20.5981,42.9894,891.4955],[20.6066,43.0024,1162.3011],[20.6336,43.016,1276.1748],[20.633,43.0213,1313.335],[20.628,43.0296,1324.1553],[20.6334,43.0403,1251.011],[20.6207,43.0485,1089.6038],[20.6194,43.0532,1040.2628],[20.6243,43.0565,1113.3794],[20.6368,43.0595,1176.2988],[20.6488,43.0646,1134.3953],[20.6539,43.0703,1254.5974],[20.6572,43.0821,1081.7571],[20.6569,43.0888,1104.9862],[20.6548,43.0928,1176.0388],[20.6407,43.1069,1035.7371],[20.6237,43.1157,974.0721],[20.6217,43.1196,1016.0349],[20.6227,43.1289,994.8411],[20.617,43.136,936.0023],[20.6004,43.1435,915.6987],[20.5802,43.1464,644.7231],[20.5702,43.15,720.376],[20.5694,43.1536,604.4963],[20.5746,43.1601,760.0638],[20.575,43.1641,805.0991],[20.5696,43.1713,794.3385],[20.5559,43.18,632.5815],[20.5572,43.1849,666.5506],[20.5631,43.1879,645.6469],[20.5665,43.1856,698.6296],[20.5731,43.1855,633.2382],[20.6028,43.1863,740.0764],[20.6203,43.1893,859.2777],[20.6336,43.1882,820.728],[20.6417,43.1891,818.6102],[20.6505,43.1931,690.444],[20.6802,43.2156,603.0728],[20.6881,43.227,465.8425],[20.6918,43.2289,421.153],[20.6994,43.2287,439.5138],[20.718,43.2231,594.3203],[20.7372,43.2239,733.4578],[20.7556,43.2213,791.8892],[20.7596,43.2251,875.3911],[20.7597,43.2316,796.1689],[20.7576,43.238,846.3237],[20.7602,43.2428,1084.7156],[20.7672,43.2455,1170.4808],[20.7752,43.2461,1036.5979],[20.7984,43.2441,1128.213],[20.8041,43.2493,1273.553],[20.8091,43.2575,1422.4893],[20.8098,43.2644,1628.2458],[20.8081,43.274,1767.0878],[20.8093,43.2834,1728.9138],[20.8052,43.2933,1710.0441],[20.8052,43.2973,1644.8423],[20.8087,43.3025,1656.7473],[20.8169,43.307,1741.9924],[20.8237,43.3167,1908.7991],[20.8331,43.3238,1736.4187],[20.8381,43.3319,1620.3563],[20.832,43.3405,1510.0559],[20.8291,43.3527,1185.2327],[20.8326,43.3625,1328.6243],[20.8291,43.383,1309.2666],[20.8147,43.3856,1036.3201],[20.7982,43.3812,786.7409],[20.7911,43.3821,742.9673],[20.7731,43.3887,685.717],[20.7615,43.404,925.5546],[20.7617,43.4069,1030.8645],[20.771,43.4158,915.3168],[20.7701,43.4244,923.5447],[20.7768,43.4471,1245.1199],[20.7825,43.4578,1374.7511],[20.7759,43.4676,1275.3228],[20.7806,43.4755,1551.8022],[20.7808,43.4811,1399.4058],[20.7709,43.4919,1189.2808],[20.7603,43.5092,984.6936],[20.7748,43.5129,1141.6456],[20.7791,43.512,1171.1884],[20.7906,43.5045,1295.2782],[20.806,43.505,1142.6035],[20.8133,43.5065,1067.3784],[20.8246,43.5147,1008.1193],[20.8308,43.5156,890.7983],[20.8443,43.5074,817.9985],[20.8545,43.4981,895.7686],[20.867,43.4938,889.0351],[20.8777,43.4929,863.1934],[20.8962,43.4933,705.936],[20.9187,43.4967,761.5848],[20.9452,43.506,823.9109],[20.9301,43.5191,956.6533],[20.9201,43.5324,905.2687],[20.9188,43.5446,871.5272],[20.9159,43.5541,729.7461],[20.9081,43.5643,741.2579],[20.9065,43.5723,541.4178],[20.9082,43.5791,450.3929],[20.9154,43.5885,438.0878],[20.9368,43.5995,295.7312],[20.9504,43.6093,241.3693],[20.9514,43.613,238.6318],[20.9371,43.6237,225.7436],[20.923,43.6276,203.3083],[20.9201,43.6304,200.4234],[20.9178,43.6366,186.5751],[20.9139,43.6396,183.856],[20.8781,43.6445,204.8799],[20.8895,43.6579,181.2198],[20.9172,43.6753,261.9973],[20.9137,43.6849,426.8757],[20.9128,43.6954,428.5835],[20.9143,43.7032,624.0369],[20.9214,43.7144,605.4998],[20.9203,43.719,584.653],[20.9163,43.7236,507.804],[20.9164,43.7269,506.9426],[20.9227,43.727,642.7588],[20.9262,43.7247,649.5982],[20.9345,43.7239,631.9608],[20.9404,43.7277,509.8853],[20.957,43.7282,691.7715],[20.9358,43.7478,732.6537],[20.9247,43.7552,481.9154],[20.9214,43.7742,532.5166],[20.9138,43.7843,542.1924],[20.9094,43.797,516.5095],[20.9084,43.8073,596.5878],[20.9045,43.8122,468.4764],[20.8999,43.8149,511.2587],[20.8981,43.8215,573.1337],[20.8941,43.8266,632.9095],[20.8739,43.8303,439.5782],[20.8655,43.8381,601.6797],[20.8585,43.8402,689.7153],[20.8499,43.838,599.1493],[20.8369,43.8284,441.4394],[20.7953,43.8318,253.4287],[20.7652,43.8239,268.0556],[20.7606,43.8217,306.2541],[20.7588,43.818,328.4158],[20.7607,43.8141,326.3305],[20.768,43.8091,300.1382],[20.7701,43.8059,313.2453],[20.7702,43.7892,308.5927],[20.7404,43.7762,467.3089],[20.7215,43.7753,392.6233],[20.7129,43.777,354.6311],[20.6901,43.7884,486.9041],[20.672,43.8106,448.5593],[20.6625,43.8194,378.9454],[20.662,43.8277,462.0333],[20.6593,43.8323,429.0766],[20.6364,43.845,349.9957],[20.6208,43.8592,336.5728],[20.5938,43.8452,232.521],[20.5691,43.8255,210.8873],[20.5591,43.8198,211.1562],[20.5578,43.8143,208.0975],[20.5639,43.8063,202.3987],[20.5638,43.8008,209.3761],[20.5462,43.7878,214.1572],[20.5331,43.7828,228.6691],[20.5234,43.7699,247.7968],[20.5236,43.7644,258.7003],[20.5306,43.7521,249.2436],[20.5294,43.7484,247.0671],[20.5259,43.7452,265.3107],[20.5095,43.7379,308.4272],[20.4873,43.7387,333.2624],[20.4739,43.7327,428.4311],[20.459,43.7304,404.2568],[20.4462,43.7253,661.0462],[20.4367,43.7094,531.4745],[20.4544,43.7025,489.6315],[20.4602,43.6978,575.9797],[20.4596,43.6798,402.3319],[20.4663,43.6636,1018.2448],[20.4651,43.6555,892.0018],[20.4616,43.6484,782.7029],[20.4554,43.6445,825.9374],[20.4482,43.6447,852.3183],[20.4346,43.6531,657.3248],[20.4302,43.654,819.7404],[20.4204,43.6474,966.9833],[20.4134,43.6449,974.9389],[20.3951,43.6477,1001.3344],[20.39,43.6471,985.7084],[20.3584,43.6314,926.3746],[20.3578,43.6276,999.6141],[20.3734,43.6084,1078.7903],[20.3724,43.605,1125.9291],[20.3692,43.6029,1102.127],[20.3667,43.5943,1155.9972],[20.3672,43.5781,1163.5603],[20.3542,43.5592,1151.1393],[20.3488,43.5541,1112.8247],[20.3095,43.5371,1103.5297],[20.3053,43.5332,892.1951],[20.3188,43.52,1174.7113],[20.3403,43.5057,905.8864],[20.3536,43.5004,794.5821],[20.36,43.4928,922.2813],[20.3702,43.4859,910.5385],[20.3835,43.474,759.0337],[20.3886,43.4648,1123.9309],[20.4019,43.4541,1460.3555],[20.4034,43.4487,1231.3887],[20.4027,43.4432,1096.4424],[20.3997,43.4318,1046.6318],[20.3947,43.4217,892.1738],[20.398,43.4102,1014.6369],[20.404,43.4043,1142.4574],[20.4057,43.4003,1116.8259],[20.4039,43.3962,1223.4772],[20.3978,43.3901,1072.947],[20.3964,43.3861,910.6972],[20.4016,43.38,957.1562],[20.4124,43.3767,997.4088],[20.4089,43.3633,1166.5594],[20.4106,43.3596,1312.0933],[20.4207,43.3513,1379.2947],[20.4209,43.3478,1446.8213],[20.4147,43.3421,1452.4644],[20.4137,43.3354,1414.9165],[20.4116,43.3325,1342.5796],[20.4058,43.3303,1448.366],[20.395,43.3302,1548.3427],[20.388,43.3271,1498.468],[20.3827,43.3222,1571.2458],[20.3787,43.3148,1582.115],[20.3662,43.3003,1500.5131],[20.3358,43.2844,1701.4468],[20.3283,43.2607,1389.7319],[20.3262,43.26,1270.4404],[20.3189,43.2605,1158.0771],[20.3025,43.2674,1054.9312],[20.287,43.2769,1456.2136],[20.2778,43.289,1289.2102],[20.2674,43.2985,1070.5815],[20.249,43.2802,1001.0927],[20.2419,43.2683,919.5242],[20.2354,43.2544,1126.5908],[20.2329,43.2393,1189.6411],[20.2051,43.2236,1188.1855],[20.2012,43.2185,1175.238],[20.2047,43.2082,1143.0632],[20.2076,43.2047,1132.5132],[20.2236,43.198,1203.1177],[20.2294,43.1895,1290.4443],[20.2338,43.1861,1265.5841],[20.2464,43.1827,1217.0686],[20.2561,43.177,1176.8856],[20.2672,43.1731,1176.2942],[20.2821,43.1569,1118.5802],[20.2463,43.1525,1291.3903],[20.2145,43.1403,1086.7327],[20.1713,43.1409,1183.7034],[20.1656,43.1392,1284.3425],[20.1513,43.1246,1180.5291],[20.1399,43.1168,1177.8066],[20.1389,43.113,1169.3643],[20.144,43.1043,1166.332],[20.1438,43.1001,1167.5391],[20.1419,43.0974,1165.9108],[20.1366,43.0954,1166.7074],[20.1203,43.0957,1159.1592],[20.1005,43.0888,1157.167],[20.084,43.0734,1155.181],[20.0764,43.0612,1178.6428],[20.0691,43.0529,1221.8635],[20.0631,43.0411,1367.8506],[20.0602,43.0279,1343.9124],[20.047,43.0152,1402.3375],[20.0436,43.0015,1457.8986],[20.0337,42.9851,1518.4689],[20.0611,42.9678,1500.2581],[20.0712,42.9574,1420.4524],[20.0774,42.9534,1538.3044],[20.0877,42.9536,1625.4427],[20.1031,42.9662,1549.8748],[20.1094,42.9678,1583.8806],[20.123,42.9591,1660.2831],[20.186,42.9311,1123.7892],[20.2294,42.9149,1221.2667],[20.2764,42.9036,1073.2319],[20.3108,42.8912,892.1752],[20.3164,42.8854,1025.2549],[20.3176,42.8781,1163.7068],[20.3168,42.8703,1311.6962],[20.3109,42.8521,1535.8628],[20.3137,42.8262,1922.7914],[20.3443,42.8281,1931.703],[20.3648,42.8319,2104.335],[20.3722,42.8301,1985.0138],[20.3888,42.821,1582.2952],[20.3955,42.819,1718.3094],[20.4038,42.8199,1902.036],[20.4122,42.8245,1811.6233],[20.4242,42.8357,1692.9968],[20.4482,42.8508,1629.7651],[20.4769,42.8567,1652.9712],[20.4914,42.8641,1538.7628],[20.5087,42.8682,1658.0673],[20.4865,42.878,1497.7473],[20.4745,42.8853,1385.1804],[20.4661,42.8986,1399.0852],[20.4577,42.9042,1311.0558],[20.4512,42.9111,1283.8972],[20.4505,42.9147,1111.3636],[20.4565,42.9247,1161.0497],[20.4592,42.9344,1343.5145],[20.4749,42.9471,1090.4208]]]]}}