{"type":"Feature","properties":{"ISO3166-1-Alpha-3":"SRB","country":"Republic of Serbia","fill":"#000","id":"834","name":"Raški"},
"geometry":{"type": "Polygon","coordinates": [[[20.72533,43.77511,374.4488],[20.72145,43.77531,392.6233],[20.71773,43.77578,357.3609],[20.71293,43.77699,354.6311],[20.70993,43.77831,359.5118],[20.70461,43.78157,359.8046],[20.70166,43.78301,458.138],[20.69448,43.78575,491.9438],[20.69215,43.78699,504.9374],[20.69014,43.78841,486.9041],[20.68838,43.79004,525.3708],[20.68559,43.79376,589.4719],[20.67619,43.80487,447.4396],[20.67205,43.81061,448.5593],[20.66854,43.81397,413.6824],[20.66352,43.81795,394.9393],[20.66249,43.81934,378.9454],[20.66187,43.82089,388.4875],[20.66172,43.82286,413.0283],[20.66208,43.8257,435.3935],[20.66203,43.82771,462.0333],[20.66141,43.82973,463.9553],[20.65934,43.83231,429.0766],[20.65712,43.83407,434.0742],[20.65453,43.83562,465.3792],[20.64187,43.84159,339.7603],[20.63639,43.84497,349.9957],[20.63324,43.84761,372.193],[20.62647,43.85438,375.3644],[20.62079,43.85918,336.5728],[20.5966,43.84686,231.8161],[20.59381,43.84518,232.521],[20.58544,43.83784,218.3023],[20.5811,43.83484,219.4877],[20.57547,43.83164,212.1718],[20.57345,43.82993,210.7677],[20.57113,43.82733,212.8791],[20.56906,43.82549,210.8873],[20.56048,43.82074,211.0458],[20.55909,43.81975,211.1562],[20.55785,43.8181,209.2717],[20.55743,43.81624,208.3161],[20.55785,43.81433,208.0975],[20.55909,43.81231,207.8464],[20.56255,43.80839,204.4771],[20.56394,43.80634,202.3987],[20.56451,43.8043,205.1665],[20.56441,43.80229,204.8746],[20.56379,43.80076,209.3761],[20.5627,43.79934,207.3733],[20.56126,43.7981,205.8708],[20.54617,43.78777,214.1572],[20.54193,43.78614,215.2744],[20.5364,43.78449,219.2574],[20.53309,43.78283,228.6691],[20.53108,43.7812,232.0149],[20.53025,43.77996,231.4552],[20.5288,43.77598,232.9365],[20.52803,43.77472,236.8169],[20.52389,43.77069,246.9476],[20.52333,43.76986,247.7968],[20.52276,43.76772,248.784],[20.52364,43.76441,258.7003],[20.52844,43.75686,249.1153],[20.53015,43.75345,249.2436],[20.53056,43.75211,249.2436],[20.53035,43.75017,249.6024],[20.52937,43.74844,247.0671],[20.52591,43.74521,265.3107],[20.52343,43.74353,288.1027],[20.51857,43.74105,304.2572],[20.51439,43.7394,340.5063],[20.50953,43.73795,308.4272],[20.50555,43.7372,336.5842],[20.50271,43.73723,347.0958],[20.49397,43.73886,368.3926],[20.49201,43.73909,300.4796],[20.48922,43.73904,321.3693],[20.48736,43.73867,333.2624],[20.48338,43.73733,381.5516],[20.47599,43.73356,407.6365],[20.47387,43.73273,428.4311],[20.4685,43.73165,501.2687],[20.45899,43.73041,404.2568],[20.45196,43.72847,482.3746],[20.44979,43.72762,519.6394],[20.44783,43.72658,597.7379],[20.44617,43.72532,661.0462],[20.44349,43.7224,730.5946],[20.44245,43.72085,753.145],[20.43863,43.71222,581.8517],[20.43672,43.70937,531.4745],[20.45439,43.70253,489.6315],[20.45687,43.70116,504.0309],[20.45883,43.69958,554.615],[20.46018,43.69785,575.9797],[20.46085,43.69583,614.8555],[20.4608,43.69372,552.8503],[20.45956,43.68803,500.4031],[20.45935,43.6825,464.3139],[20.45961,43.67976,402.3319],[20.461,43.6756,619.0776],[20.46586,43.66566,948.5566],[20.46628,43.66359,1018.2448],[20.46607,43.65989,1011.2433],[20.46514,43.65548,892.0018],[20.46157,43.64845,782.7029],[20.46007,43.64685,696.9207],[20.45821,43.64555,681.6592],[20.45542,43.64455,825.9374],[20.45186,43.64421,914.212],[20.44819,43.64465,852.3183],[20.44623,43.64524,799.098],[20.44323,43.64659,755.287],[20.44152,43.64765,686.1123],[20.43687,43.6515,566.9036],[20.43455,43.65305,657.3248],[20.43196,43.65392,711.9849],[20.43021,43.65403,819.7404],[20.42855,43.65372,853.5201],[20.42638,43.65253,906.9055],[20.42209,43.64842,965.2634],[20.42044,43.64736,966.9833],[20.41723,43.64602,1118.3116],[20.41346,43.64493,974.9389],[20.40985,43.64467,967.7706],[20.40633,43.64504,897.3773],[20.39786,43.64736,963.5096],[20.39507,43.64767,1001.3344],[20.39222,43.64752,973.2976],[20.39005,43.6471,985.7084],[20.38799,43.64635,1052.251],[20.3854,43.64483,1091.1412],[20.38127,43.64201,1116.5066],[20.37719,43.63974,1098.1404],[20.36649,43.63558,830.6724],[20.36055,43.63294,842.1139],[20.35843,43.63145,926.3746],[20.35739,43.62964,970.2522],[20.35734,43.62881,970.2522],[20.35776,43.62757,999.6141],[20.36354,43.61909,1033.5762],[20.36633,43.61579,990.0058],[20.36809,43.61403,985.0109],[20.37109,43.61189,1073.9771],[20.37284,43.6101,1102.9575],[20.37341,43.60845,1078.7903],[20.37326,43.60664,1081.1766],[20.37238,43.60499,1125.9291],[20.37062,43.60346,1102.127],[20.36923,43.60292,1102.127],[20.36804,43.59977,1084.0332],[20.36664,43.59426,1155.9972],[20.36644,43.59122,1136.2002],[20.36654,43.5883,1204.6133],[20.36773,43.5824,1145.4922],[20.36778,43.58023,1102.8715],[20.36726,43.57812,1163.5603],[20.36613,43.57628,1188.2749],[20.35734,43.56535,1173.3059],[20.35419,43.55915,1151.1393],[20.35269,43.55739,1144.0458],[20.34887,43.55414,1112.8247],[20.3436,43.55099,1034.0769],[20.32494,43.54298,1120.6029],[20.31528,43.53946,1222.7675],[20.30949,43.53706,1059.7853],[20.30773,43.53615,989.2936],[20.30587,43.53476,938.3912],[20.3053,43.53321,892.1951],[20.30577,43.5322,892.1951],[20.30742,43.53068,936.7989],[20.3128,43.52659,1033.1055],[20.31693,43.52166,1164.4386],[20.31879,43.51998,1174.7113],[20.32665,43.51523,1020.4515],[20.33781,43.50727,933.8196],[20.34029,43.50569,905.8864],[20.34308,43.50458,877.6558],[20.34814,43.50344,839.1305],[20.34995,43.50282,839.1305],[20.35228,43.50143,834.5292],[20.35362,43.50034,794.5821],[20.35481,43.49915,825.2867],[20.35755,43.49538,871.5795],[20.36003,43.4928,922.2813],[20.3623,43.49094,899.3547],[20.37026,43.4859,910.5385],[20.38349,43.47399,759.0337],[20.38561,43.47091,895.6893],[20.38747,43.46675,1131.9255],[20.38866,43.46476,1123.9309],[20.39041,43.46288,1210.1244],[20.39269,43.46117,1321.016],[20.39858,43.4574,1430.3583],[20.40044,43.4558,1414.0587],[20.40189,43.45404,1460.3555],[20.40297,43.45148,1416.7291],[20.40339,43.44872,1231.3887],[20.40328,43.44593,1159.7628],[20.40271,43.44316,1096.4424],[20.4009,43.43735,972.0162],[20.39972,43.43177,1046.6318],[20.39868,43.42913,1054.8296],[20.39569,43.42469,1001.8898],[20.39476,43.42257,987.5205],[20.39465,43.42167,892.1738],[20.39507,43.41999,829.2045],[20.39656,43.41658,1028.1763],[20.39729,43.41239,1024.7031],[20.39796,43.41019,1014.6369],[20.40003,43.40784,1063.2965],[20.40401,43.40433,1142.4574],[20.4054,43.40218,1108.071],[20.40571,43.40025,1116.8259],[20.4053,43.39833,1152.5212],[20.4039,43.39621,1223.4772],[20.39786,43.39012,1072.947],[20.39656,43.38802,959.0251],[20.39641,43.38609,910.6972],[20.39775,43.3834,913.3469],[20.39941,43.38154,964.5208],[20.40163,43.37999,957.1562],[20.40375,43.37916,1013.61],[20.41088,43.3774,985.6696],[20.41207,43.37699,997.4088],[20.41243,43.37668,997.4088],[20.41238,43.37544,997.4088],[20.41155,43.37293,1120.4509],[20.40902,43.36689,1245.5776],[20.40891,43.36332,1166.5594],[20.40964,43.3611,1240.0951],[20.41057,43.35963,1312.0933],[20.41398,43.35629,1261.4048],[20.41884,43.35296,1333.0089],[20.4207,43.35131,1379.2947],[20.42142,43.35007,1425.9418],[20.42142,43.34883,1425.9418],[20.42096,43.34779,1446.8213],[20.42003,43.34684,1472.6862],[20.41739,43.34495,1509.8894],[20.41465,43.34211,1452.4644],[20.41398,43.34087,1377.4167],[20.41357,43.33909,1293.3489],[20.41372,43.33539,1414.9165],[20.41274,43.33348,1403.1407],[20.4116,43.3325,1342.5796],[20.40933,43.33128,1373.2761],[20.40762,43.33069,1406.3926],[20.40581,43.3303,1448.366],[20.39724,43.33038,1493.8029],[20.39507,43.33017,1548.3427],[20.39253,43.32945,1542.2439],[20.39021,43.32842,1505.5398],[20.38799,43.32712,1498.468],[20.38411,43.324,1567.7554],[20.38266,43.32224,1571.2458],[20.37868,43.31482,1582.115],[20.37336,43.30929,1534.0404],[20.36902,43.30291,1469.0405],[20.36618,43.3003,1500.5131],[20.36117,43.29656,1591.3074],[20.35936,43.29565,1671.3138],[20.35031,43.29237,1736.1428],[20.34504,43.2894,1712.9497],[20.33853,43.2864,1701.4291],[20.33703,43.28547,1689.7838],[20.33579,43.28439,1701.4468],[20.3345,43.28237,1684.2593],[20.33357,43.2754,1653.496],[20.3283,43.26072,1389.7319],[20.32623,43.26005,1270.4404],[20.32334,43.25984,1220.7268],[20.32106,43.26002,1167.1121],[20.31889,43.26051,1158.0771],[20.31631,43.26186,1140.1453],[20.31321,43.26392,1186.4983],[20.31063,43.26506,1279.7527],[20.30246,43.26744,1054.9312],[20.30039,43.26839,1027.2764],[20.29791,43.27007,996.7733],[20.29321,43.27369,1117.288],[20.28706,43.27695,1456.2136],[20.2851,43.27875,1382.2012],[20.28169,43.28413,1418.1423],[20.27781,43.28904,1289.2102],[20.26742,43.29855,1070.5815],[20.26009,43.29152,1198.2506],[20.24898,43.2802,1001.0927],[20.24588,43.27426,912.5612],[20.2419,43.26832,919.5242],[20.23942,43.26217,1052.8214],[20.23539,43.25436,1126.5908],[20.23477,43.25165,1163.8817],[20.23415,43.24191,1194.0005],[20.23285,43.23927,1189.6411],[20.23135,43.23783,1185.0127],[20.22774,43.2356,1184.4084],[20.21844,43.23062,1184.856],[20.21172,43.22728,1189.8816],[20.2051,43.22356,1188.1855],[20.20345,43.22243,1196.0375],[20.20205,43.22098,1205.9176],[20.20128,43.2194,1188.3674],[20.20118,43.2185,1175.238],[20.20164,43.21648,1161.918],[20.20469,43.20816,1143.0632],[20.20588,43.20625,1132.0306],[20.20764,43.2047,1132.5132],[20.20934,43.20393,1139.2648],[20.21637,43.20186,1145.3861],[20.21854,43.20101,1150.6146],[20.22123,43.19961,1181.0963],[20.2236,43.19796,1203.1177],[20.22608,43.19545,1234.1504],[20.22934,43.18946,1290.4443],[20.2312,43.18755,1275.9939],[20.23378,43.1861,1265.5841],[20.23818,43.1847,1252.7781],[20.24417,43.18339,1243.8025],[20.24644,43.18271,1217.0686],[20.24851,43.18186,1204.5151],[20.25606,43.17695,1176.8856],[20.25895,43.17571,1182.1858],[20.26458,43.17408,1163.5413],[20.26717,43.17308,1176.2942],[20.26954,43.1714,1230.4647],[20.2714,43.16925,1267.3647],[20.27399,43.16532,1302.8895],[20.27621,43.16261,1313.6418],[20.27864,43.16,1233.0015],[20.2821,43.1569,1118.5802],[20.26531,43.15452,1148.5128],[20.25208,43.15344,1240.6671],[20.24634,43.15246,1291.3903],[20.24396,43.15178,1305.6512],[20.23611,43.14848,1284.6154],[20.22639,43.14538,1266.2909],[20.22433,43.1445,1243.6061],[20.21895,43.14166,1128.2042],[20.21451,43.14031,1086.7327],[20.21079,43.13985,1045.6453],[20.20686,43.13964,1074.1553],[20.19477,43.13964,1068.3702],[20.18273,43.13995,1154.3566],[20.17131,43.14093,1183.7034],[20.16934,43.14083,1200.9161],[20.16764,43.14042,1227.7412],[20.16562,43.13923,1284.3425],[20.15787,43.13189,1209.8004],[20.15596,43.12998,1214.5837],[20.15301,43.12631,1184.8022],[20.15126,43.12465,1180.5291],[20.14361,43.12006,1216.5873],[20.1417,43.11856,1191.7881],[20.13994,43.11677,1177.8066],[20.13891,43.11489,1172.9723],[20.13885,43.11303,1169.3643],[20.13999,43.11086,1167.0831],[20.14325,43.10636,1169.7378],[20.14397,43.10424,1166.332],[20.14418,43.10212,1167.8887],[20.14381,43.10011,1167.5391],[20.14304,43.09866,1173.7456],[20.1419,43.09742,1165.9108],[20.1403,43.09649,1171.0034],[20.13844,43.09582,1166.0883],[20.13658,43.09541,1166.7074],[20.13389,43.09538,1160.5707],[20.12795,43.09628,1158.2546],[20.125,43.09639,1158.1357],[20.1203,43.09572,1159.1592],[20.11715,43.09473,1158.6375],[20.11105,43.09233,1156.3823],[20.10263,43.08967,1156.14],[20.10051,43.08879,1157.167],[20.09793,43.08734,1156.693],[20.0957,43.08564,1159.6676],[20.09048,43.08052,1153.1599],[20.08397,43.07342,1155.181],[20.08015,43.0683,1154.0334],[20.07638,43.06122,1178.6428],[20.07524,43.05975,1213.7834],[20.07126,43.05598,1171.8281],[20.06914,43.05293,1221.8635],[20.0631,43.04107,1367.8506],[20.06237,43.03846,1350.9658],[20.06118,43.0304,1345.572],[20.06015,43.02786,1343.9124],[20.05839,43.02564,1348.8533],[20.05439,43.02222,1382.6625],[20.05634,43.0208,1358.7985],[20.11694,42.97665,1539.7565],[20.12946,42.9736,1593.0837],[20.14092,42.97081,1476.4783],[20.19456,42.96684,1160.8339],[20.22319,42.95766,1203.0948],[20.27559,42.92989,1096.6442],[20.33708,42.90697,883.8751],[20.35362,42.89097,1118.5219],[20.35517,42.86617,1459.5181],[20.34535,42.82744,1931.703],[20.42803,42.84064,1686.3865],[20.4763,42.85552,1652.9712],[20.49883,42.87787,1581.6462],[20.49437,42.88747,1490.7683],[20.48891,42.89919,1371.8181],[20.46669,42.9095,1306.0735],[20.45098,42.92203,1151.8152],[20.45945,42.95002,1074.1233],[20.4764,42.96637,866.8685],[20.49346,42.97019,886.878],[20.51113,42.97019,750.5082],[20.53046,42.97516,684.5],[20.53842,42.98066,870.593],[20.54389,42.98725,1081.4208],[20.5534,43.0026,954.7641],[20.56239,43.00949,1182.9586],[20.57283,43.00934,1318.0276],[20.5843,43.00691,1295.36],[20.5964,43.00709,997.8281],[20.61727,43.02213,1168.3118],[20.64384,43.05226,1198.5662],[20.66492,43.08541,956.0321],[20.66916,43.1098,973.9211],[20.66182,43.11595,1041.4221],[20.65169,43.11631,962.6223],[20.64094,43.11528,997.2978],[20.63205,43.11727,1082.8513],[20.62606,43.12373,1081.7762],[20.62058,43.13334,982.5256],[20.61211,43.15494,927.9274],[20.60012,43.17383,895.671],[20.59753,43.18496,730.5072],[20.60404,43.19796,769.4974],[20.61231,43.20227,824.1334],[20.64487,43.20331,781.3247],[20.66699,43.20966,766.3306],[20.74533,43.25286,816.8372],[20.76951,43.26085,1135.1818],[20.79442,43.26307,1451.2554],[20.80972,43.25961,1464.9402],[20.80972,43.25974,1464.9402],[20.80972,43.25976,1464.9402],[20.80982,43.26439,1628.2458],[20.80812,43.2718,1755.9517],[20.80812,43.274,1767.0878],[20.80946,43.28129,1757.1179],[20.8093,43.28346,1728.9138],[20.80879,43.28558,1711.0201],[20.80517,43.29333,1710.0441],[20.80486,43.29534,1677.3514],[20.80517,43.29736,1644.8423],[20.80579,43.2987,1644.8423],[20.8075,43.30128,1661.1783],[20.80868,43.30247,1656.7473],[20.81096,43.30392,1679.8285],[20.81447,43.30552,1719.0731],[20.81685,43.30702,1741.9924],[20.81819,43.30831,1774.2795],[20.81923,43.30976,1803.9418],[20.8214,43.31376,1868.209],[20.82377,43.31668,1908.7991],[20.83106,43.32183,1756.3782],[20.83307,43.32376,1736.4187],[20.83649,43.32816,1645.4283],[20.83814,43.33188,1620.3563],[20.83793,43.33358,1606.3743],[20.83721,43.33472,1574.6643],[20.83359,43.33829,1576.1106],[20.83194,43.34051,1510.0559],[20.8309,43.34309,1461.8726],[20.82904,43.3527,1185.2327],[20.82889,43.35405,1233.9711],[20.82925,43.35591,1288.2263],[20.83163,43.35968,1313.49],[20.83251,43.36159,1317.9351],[20.83256,43.36252,1328.6243],[20.83044,43.37125,1199.0103],[20.8291,43.38304,1309.2666],[20.82041,43.38505,1141.3367],[20.81809,43.38547,1155.9526],[20.81473,43.38559,1036.3201],[20.81215,43.38531,1130.6283],[20.80961,43.38474,1087.2939],[20.80145,43.3819,942.7186],[20.79814,43.38123,786.7409],[20.79597,43.38118,755.8184],[20.7938,43.38138,744.2996],[20.79111,43.38211,742.9673],[20.78274,43.38531,783.1644],[20.77484,43.38787,715.166],[20.77313,43.38872,685.717],[20.77143,43.39032,641.3153],[20.77013,43.39224,741.179],[20.76729,43.39789,944.0566],[20.7661,43.39937,930.2438],[20.76233,43.40291,917.7705],[20.7615,43.40402,925.5546],[20.76114,43.40513,925.5546],[20.76171,43.40689,1030.8645],[20.76336,43.40857,1091.9067],[20.76925,43.41296,1003.8455],[20.77034,43.41433,914.5511],[20.77096,43.41583,915.3168],[20.77117,43.41782,894.1711],[20.77013,43.42216,889.3209],[20.77013,43.42438,923.5447],[20.77148,43.42924,893.9811],[20.77458,43.43792,924.285],[20.77675,43.44706,1206.9745],[20.77768,43.44944,1293.5862],[20.78212,43.45595,1406.7299],[20.78243,43.45776,1374.7511],[20.78192,43.45957,1313.2664],[20.77659,43.46577,1267.9485],[20.77587,43.46758,1275.3228],[20.77592,43.469,1351.9448],[20.77654,43.47037,1398.1393],[20.77974,43.47409,1473.3142],[20.78062,43.47554,1551.8022],[20.78119,43.47709,1505.5806],[20.7813,43.4791,1449.0542],[20.78078,43.48114,1399.4058],[20.77933,43.48334,1345.1494],[20.77282,43.48965,1220.5111],[20.77091,43.49195,1189.2808],[20.766,43.50163,952.93],[20.76254,43.50649,898.0325],[20.76031,43.50918,984.6936],[20.76838,43.51176,1080.3899],[20.77267,43.51267,1138.2733],[20.77478,43.51285,1141.6456],[20.77706,43.51264,1160.4991],[20.77907,43.51197,1171.1884],[20.78088,43.51096,1175.0748],[20.78698,43.50623,1228.4509],[20.78868,43.5052,1238.6841],[20.7906,43.50453,1295.2782],[20.79266,43.50422,1291.8789],[20.79463,43.50424,1257.9187],[20.806,43.50505,1142.6035],[20.81132,43.50585,1083.3572],[20.81333,43.50649,1067.3784],[20.81592,43.50794,1000.3422],[20.82248,43.51344,936.3366],[20.8246,43.51471,1008.1193],[20.82687,43.51554,930.665],[20.82884,43.51577,910.2893],[20.83085,43.51564,890.7983],[20.83364,43.51476,857.254],[20.83618,43.51326,868.7529],[20.84434,43.50737,817.9985],[20.84672,43.50556,818.5679],[20.8508,43.50076,756.248],[20.85282,43.49902,836.7953],[20.85452,43.49812,895.7686],[20.8601,43.49585,977.3744],[20.86697,43.49383,889.0351],[20.87044,43.49331,961.1319],[20.87772,43.49293,863.1934],[20.88889,43.49293,787.1781],[20.89617,43.49331,705.936],[20.89963,43.49378,642.8767],[20.91069,43.49626,765.1804],[20.9187,43.4967,761.5848],[20.92201,43.4974,786.8912],[20.93235,43.50153,778.274],[20.94521,43.50603,823.9109],[20.93012,43.51915,956.6533],[20.92821,43.52148,1005.6848],[20.92496,43.52719,912.1192],[20.9201,43.53243,905.2687],[20.91932,43.53388,907.905],[20.91896,43.53538,907.905],[20.91932,43.54024,828.4219],[20.91881,43.54455,871.5272],[20.91591,43.55411,729.7461],[20.91493,43.5562,726.051],[20.91338,43.55827,649.7032],[20.90961,43.56225,718.0968],[20.90811,43.56434,741.2579],[20.90708,43.5669,716.9524],[20.90661,43.56959,628.5306],[20.90651,43.57233,541.4178],[20.90677,43.57507,506.4112],[20.90749,43.57768,465.9389],[20.90821,43.57915,450.3929],[20.91131,43.58395,411.7329],[20.91534,43.58845,438.0878],[20.91932,43.59134,510.7371],[20.92201,43.59279,492.5425],[20.93415,43.59796,351.9412],[20.93679,43.59951,295.7312],[20.94325,43.60437,252.4573],[20.94831,43.60762,257.4264],[20.95038,43.6093,241.3693],[20.95147,43.61121,231.1839],[20.95136,43.613,238.6318],[20.95017,43.61486,254.8384],[20.94821,43.61656,294.9713],[20.93974,43.62232,213.7438],[20.9371,43.62375,222.5413],[20.93508,43.62442,220.5717],[20.92702,43.62602,191.4065],[20.92485,43.62669,194.846],[20.92299,43.62757,203.3083],[20.92134,43.62889,200.4234],[20.92015,43.63044,200.0406],[20.91875,43.63465,183.7856],[20.91782,43.63656,186.5751],[20.91617,43.63827,184.0401],[20.91395,43.63961,183.856],[20.91193,43.64026,186.3323],[20.90981,43.64059,183.8446],[20.90263,43.64054,181.2382],[20.89932,43.64082,182.1552],[20.87809,43.64447,204.8799],[20.88243,43.64938,189.6819],[20.88666,43.65514,184.8317],[20.88956,43.65796,181.2198],[20.89467,43.66157,174.1061],[20.90046,43.66488,171.2835],[20.90568,43.66832,171.2351],[20.91483,43.67284,240.3528],[20.91617,43.67377,261.9973],[20.91726,43.67532,261.9973],[20.91741,43.67713,370.0436],[20.91674,43.67883,409.6047],[20.91457,43.68245,355.8439],[20.91369,43.68488,426.8757],[20.91292,43.6901,486.7429],[20.91281,43.69542,453.2347],[20.91338,43.70074,533.0032],[20.91431,43.70322,624.0369],[20.91581,43.70545,595.8582],[20.91948,43.70979,600.1014],[20.92082,43.71211,619.2687],[20.92134,43.71444,605.4998],[20.92118,43.71676,573.2829],[20.9203,43.71893,584.653],[20.91948,43.71997,527.3102],[20.9171,43.72242,507.804],[20.91648,43.72317,507.804],[20.91627,43.72358,507.804],[20.91607,43.72446,520.1021],[20.91602,43.72534,520.1021],[20.91607,43.72622,506.9426],[20.91617,43.72658,506.9426],[20.91643,43.72689,506.9426],[20.91684,43.72705,506.9426],[20.91808,43.72715,534.5518],[20.92113,43.7271,549.7836],[20.92227,43.7271,577.0518],[20.92273,43.72702,642.7588],[20.92299,43.72694,642.7588],[20.9262,43.72467,649.5982],[20.92759,43.72467,661.9847],[20.92986,43.72457,698.1744],[20.93095,43.72444,658.6617],[20.93364,43.72389,637.8983],[20.93446,43.72389,631.9608],[20.93519,43.7241,631.9608],[20.93591,43.72446,631.9608],[20.9372,43.72539,591.637],[20.93912,43.72715,509.8853],[20.93963,43.72746,509.8853],[20.94046,43.72772,509.8853],[20.94134,43.72782,563.6225],[20.94325,43.72793,621.1179],[20.957,43.72818,691.7715],[20.94289,43.74007,776.021],[20.93844,43.74529,685.8292],[20.93576,43.7478,732.6537],[20.93333,43.74947,704.4614],[20.92811,43.75232,560.2606],[20.92661,43.75335,560.2606],[20.92475,43.75516,481.9154],[20.92335,43.75816,426.8084],[20.92289,43.76071,444.282],[20.92242,43.76888,520.1077],[20.92206,43.77157,489.6761],[20.92139,43.77418,532.5166],[20.91958,43.77733,629.3232],[20.91571,43.78126,665.7325],[20.91379,43.78436,542.1924],[20.9124,43.78896,580.1759],[20.91002,43.79474,506.2975],[20.90945,43.79697,516.5095],[20.90837,43.80735,596.5878],[20.90563,43.81097,497.0688],[20.90449,43.81216,468.4764],[20.90382,43.81267,468.4764],[20.9031,43.81298,464.0963],[20.9016,43.81361,464.0963],[20.90093,43.81394,511.2587],[20.90036,43.81441,511.2587],[20.89984,43.81495,511.2587],[20.89948,43.81552,538.8267],[20.89922,43.81614,535.8822],[20.89901,43.81681,535.8822],[20.89881,43.81965,549.4042],[20.8986,43.82027,549.4042],[20.89808,43.82146,573.1337],[20.89741,43.82262,606.3405],[20.89695,43.82314,606.3405],[20.89529,43.8243,596.7615],[20.89478,43.82477,596.7615],[20.89447,43.82528,596.7615],[20.89426,43.82585,632.9095],[20.89416,43.82658,632.9095],[20.87896,43.82895,499.5881],[20.87385,43.8303,439.5782],[20.87126,43.83174,488.4935],[20.86997,43.83301,523.8903],[20.86754,43.83624,557.3795],[20.86553,43.8381,601.6797],[20.86284,43.83939,622.4232],[20.86072,43.83999,672.7612],[20.8585,43.84022,689.7153],[20.85571,43.84006,723.4946],[20.85375,43.8396,694.6141],[20.84992,43.838,599.1493],[20.84806,43.83691,638.7142],[20.84641,43.83562,593.0658],[20.84062,43.83012,503.4937],[20.8386,43.82888,525.2894],[20.8369,43.82838,441.4394],[20.83499,43.82828,424.8588],[20.83307,43.82841,411.7422],[20.8185,43.82983,315.4484],[20.80719,43.83164,265.3568],[20.79928,43.83192,255.414],[20.79535,43.8318,253.4287],[20.79148,43.83138,265.475],[20.78899,43.83086,228.732],[20.78667,43.83019,213.7549],[20.77861,43.82704,239.0473],[20.77623,43.82632,254.8739],[20.76517,43.82389,268.0556],[20.76305,43.82314,297.5735],[20.76062,43.82172,306.2541],[20.75918,43.81986,303.2481],[20.75876,43.81797,328.4158],[20.75923,43.81606,309.7679],[20.76073,43.81407,326.3305],[20.76801,43.80911,300.1382],[20.76915,43.80792,341.522],[20.77013,43.80596,313.2453],[20.76941,43.79877,365.9401],[20.77086,43.7919,299.3086],[20.77075,43.79051,299.3086],[20.77018,43.78927,308.5927],[20.769,43.78823,328.5114],[20.76729,43.78746,341.1044],[20.76031,43.78503,381.1755],[20.74569,43.77821,457.7718],[20.74042,43.77619,467.3089],[20.73685,43.77552,440.7039],[20.73308,43.77518,399.4983],[20.72533,43.77511,374.4488]]]}}