{"type":"Feature","properties":{"GID_2":"SRB.22.1_1","GID_0":"SRB","country":"Serbia","GID_1":"SRB.22_1","province":"Toplički","NL_NAME_1":"Топлички","county":"Blace","VARNAME_2":"NA","NL_NAME_2":"Блаце","TYPE_2":"Opštine","ENGTYPE_2":"Town|Municipal","CC_2":"NA","HASC_2":"NA","name":"Blace.county"},
"geometry":{"type": "MultiPolygon","coordinates": [[[[21.1304,43.2525,1028.3812],[21.1402,43.2389,856.4921],[21.1435,43.2313,844.521],[21.1535,43.2205,708.461],[21.1572,43.2124,641.9792],[21.1821,43.1963,500.4985],[21.1973,43.201,789.0918],[21.2108,43.2021,627.7687],[21.2472,43.1949,499.2571],[21.2697,43.2018,470.3188],[21.2765,43.2077,499.7859],[21.2844,43.2183,467.0911],[21.2892,43.221,458.5648],[21.3016,43.2191,388.1808],[21.3235,43.2199,487.2475],[21.3424,43.2145,391.1443],[21.3461,43.2152,342.6945],[21.3545,43.221,309.3278],[21.3661,43.2225,317.7873],[21.3775,43.2356,328.207],[21.381,43.2507,304.9159],[21.3884,43.2619,377.4193],[21.389,43.2654,388.8445],[21.3744,43.293,388.1308],[21.368,43.3009,424.1634],[21.3675,43.305,422.8974],[21.3711,43.324,442.5577],[21.365,43.335,466.2669],[21.3803,43.3489,631.2913],[21.383,43.361,861.3654],[21.3919,43.3678,1074.0894],[21.4041,43.3808,1092.9012],[21.374,43.3777,791.0435],[21.3574,43.3835,900.147],[21.3397,43.3867,784.0458],[21.3252,43.3818,728.9139],[21.2976,43.3793,698.4341],[21.25,43.3603,622.1782],[21.2128,43.354,630.7816],[21.202,43.3467,538.2059],[21.1982,43.3424,399.2836],[21.1975,43.3369,437.6887],[21.2004,43.3294,613.4382],[21.1973,43.3204,659.8972],[21.1652,43.3014,765.6795],[21.1601,43.29,793.3233],[21.1525,43.2817,1012.8462],[21.1507,43.269,905.0201],[21.1404,43.263,866.7002],[21.1341,43.2548,975.6244],[21.1304,43.2525,1028.3812]]]]}}