{"type": "Feature","bbox": [20.8781,43.4841,21.1786,43.7285],"geometry": {"type": "MultiPolygon","coordinates": [[[[20.957,43.7282,691.7715],[20.9404,43.7277,509.8853],[20.9345,43.7239,631.9608],[20.9262,43.7247,649.5982],[20.9227,43.727,642.7588],[20.9164,43.7269,506.9426],[20.9163,43.7236,507.804],[20.9203,43.719,584.653],[20.9214,43.7144,605.4998],[20.9143,43.7032,624.0369],[20.9128,43.6954,428.5835],[20.9137,43.6849,426.8757],[20.9172,43.6753,261.9973],[20.8895,43.6579,181.2198],[20.8781,43.6445,204.8799],[20.9139,43.6396,183.856],[20.9178,43.6366,186.5751],[20.9201,43.6304,200.4234],[20.923,43.6276,203.3083],[20.9371,43.6237,225.7436],[20.9514,43.613,238.6318],[20.9504,43.6093,241.3693],[20.9368,43.5995,295.7312],[20.9154,43.5885,438.0878],[20.9075,43.5777,465.9389],[20.9071,43.5669,716.9524],[20.9159,43.5541,729.7461],[20.9188,43.5446,871.5272],[20.9201,43.5324,905.2687],[20.9301,43.5191,956.6533],[20.9452,43.506,823.9109],[20.9724,43.5196,820.5461],[20.983,43.5218,723.5909],[20.9933,43.517,741.2788],[21.0114,43.5011,668.4307],[21.0254,43.4909,521.5629],[21.0314,43.4884,478.5354],[21.0471,43.4886,574.6061],[21.0698,43.498,403.3155],[21.0778,43.4992,428.3558],[21.0843,43.4978,385.3809],[21.0905,43.4879,345.49],[21.0973,43.4841,319.5655],[21.1117,43.4883,352.8837],[21.1213,43.4886,351.1056],[21.1268,43.4909,315.0889],[21.13,43.4947,361.3201],[21.1322,43.5011,314.1779],[21.141,43.5101,298.5602],[21.1466,43.5193,275.1837],[21.1332,43.5282,272.7983],[21.1316,43.5306,280.1858],[21.1325,43.5332,274.5074],[21.1427,43.5429,230.7877],[21.1545,43.5498,216.7634],[21.1786,43.5715,158.2751],[21.1734,43.5781,154.0536],[21.164,43.5831,154.6322],[21.1582,43.5842,155.7668],[21.151,43.5795,160.6393],[21.1448,43.5815,161.1277],[21.145,43.5842,155.5083],[21.1515,43.5889,151.5838],[21.1529,43.592,151.6694],[21.1492,43.6124,155.3823],[21.1479,43.6359,179.7301],[21.1453,43.639,183.6557],[21.1322,43.6474,177.6984],[21.1282,43.6532,184.302],[21.1275,43.6611,189.3508],[21.1291,43.6641,207.5386],[21.1444,43.675,290.0354],[21.1472,43.6802,269.5805],[21.1481,43.6871,331.1698],[21.1215,43.6977,276.9547],[21.1126,43.7039,268.1408],[21.0927,43.7129,332.228],[21.0644,43.7128,324.6337],[21.049,43.7186,367.8979],[21.0244,43.7201,454.4286],[20.9896,43.7285,727.0085],[20.9739,43.7233,450.588],[20.957,43.7282,691.7715]]]]}
,"properties": {"GID_2": "SRB.15.5_1","GID_0": "SRB","country": "Serbia","GID_1": "SRB.15_1","province": "Rasinski","NL_NAME_1": "Расински","county": "Trstenik","VARNAME_2": "NA","NL_NAME_2": "Трстеник","TYPE_2": "Opštine","ENGTYPE_2": "Town|Municipal","CC_2": "NA","HASC_2": "NA","name": "Trstenik.county","area_km2": 443.0632,"hist_schema_id": "Elevation0-9000","hist_area_km2": {"150": 43.6167,"175": 49.0861,"200": 22.4452,"225": 25.5278,"250": 27.8427,"275": 29.0407,"300": 27.385,"325": 23.7645,"350": 22.0898,"375": 19.5268,"400": 18.36,"425": 16.8384,"450": 14.5508,"475": 13.4452,"500": 12.1421,"525": 10.3781,"550": 10.7632,"575": 8.6592,"600": 8.2293,"625": 7.4937,"650": 6.1586,"675": 5.2524,"700": 3.917,"725": 2.8262,"750": 2.3652,"775": 2.0279,"800": 1.6752,"825": 1.6909,"850": 1.5064,"875": 1.3374,"900": 1.1529,"925": 0.8916,"950": 0.7071,"975": 0.3689}}}