{"type": "Feature","bbox": [21.4755,42.9451,21.8349,43.0956],"geometry": {"type": "MultiPolygon","coordinates": [[[[21.797,42.9779,299.8217],[21.8006,42.9908,346.4206],[21.8075,43.0016,317.9478],[21.8072,43.0116,324.6201],[21.831,43.0322,336.2913],[21.8349,43.0436,362.1594],[21.8349,43.0477,366.3734],[21.8276,43.0631,385.8572],[21.8085,43.0846,278.8467],[21.8026,43.0876,282.2842],[21.7749,43.0956,251.2497],[21.7605,43.0916,252.4316],[21.7417,43.0891,279.6394],[21.7234,43.0829,338.366],[21.7089,43.0758,367.1154],[21.6882,43.0604,323.0706],[21.6834,43.0548,284.7599],[21.6582,43.0483,355.9918],[21.6444,43.0539,387.3652],[21.6381,43.0538,358.3459],[21.633,43.0513,337.1],[21.6247,43.0403,333.8475],[21.5984,43.0264,456.1225],[21.5545,43.0254,719.9481],[21.5426,43.0233,831.9179],[21.5226,43.013,1175.6995],[21.5071,42.9985,1358.8009],[21.4755,42.9831,993.6083],[21.5022,42.981,1002.6147],[21.514,42.9772,942.6784],[21.5367,42.9617,807.9604],[21.5547,42.9456,799.969],[21.5868,42.9628,599.7839],[21.6147,42.9585,496.9211],[21.6302,42.9485,472.2244],[21.6411,42.9451,410.1788],[21.6525,42.9458,382.3648],[21.6614,42.9487,381.9952],[21.6823,42.9658,390.8942],[21.6997,42.9604,347.5999],[21.7258,42.9555,357.6803],[21.7362,42.9613,330.2622],[21.7414,42.9726,353.6135],[21.7446,42.9749,349.0377],[21.7698,42.9796,325.9716],[21.797,42.9779,299.8217]]]]}
,"properties": {"GID_2": "SRB.4.1_1","GID_0": "SRB","country": "Serbia","GID_1": "SRB.4_1","province": "Jablanički","NL_NAME_1": "Јабланички","county": "Bojnik","VARNAME_2": "NA","NL_NAME_2": "Бојник","TYPE_2": "Opštine","ENGTYPE_2": "Town|Municipal","CC_2": "NA","HASC_2": "NA","name": "Bojnik.county","area_km2": 261.0389,"hist_schema_id": "Elevation0-9000","hist_area_km2": {"225": 12.9213,"250": 29.8508,"275": 27.4168,"300": 31.1542,"325": 32.305,"350": 21.2686,"375": 13.3179,"400": 8.281,"425": 7.0723,"450": 7.1336,"475": 7.4129,"500": 6.8237,"525": 6.2654,"550": 3.1327,"575": 2.9465,"600": 2.7604,"625": 2.5899,"650": 2.3108,"675": 2.1403,"700": 1.9851,"725": 2.0626,"750": 1.9851,"775": 2.3106,"800": 1.8302,"825": 1.7837,"850": 1.6596,"875": 1.2875,"900": 1.3494,"925": 1.3494,"950": 1.4425,"975": 1.1943,"1000": 1.334,"1025": 1.3805,"1050": 1.2719,"1075": 1.1323,"1100": 1.0237,"1125": 0.9306,"1150": 0.9615,"1175": 1.1631,"1200": 1.07,"1225": 0.8529,"1250": 1.07,"1275": 0.7289,"1300": 0.5273,"1325": 0.1396,"1350": 0.093,"1375": 0.0155}}}