{"type":"Feature","properties":{"GID_2":"SRB.3.1_1","GID_0":"SRB","country":"Serbia","GID_1":"SRB.3_1","province":"GradBeograd","NL_NAME_1":"Београд","county":"Barajevo","VARNAME_2":"NA","NL_NAME_2":"Барајево","TYPE_2":"Opštine","ENGTYPE_2":"Town|Municipal","CC_2":"NA","HASC_2":"NA","name":"Barajevo.county"},
"geometry":{"type": "MultiPolygon","coordinates": [[[[20.3323,44.6153,124.5951],[20.3032,44.6073,124.4303],[20.2966,44.6015,110.7705],[20.282,44.5972,102.5345],[20.271,44.5896,150.4813],[20.2609,44.5859,129.2692],[20.2507,44.5768,170.1644],[20.2494,44.5729,159.9851],[20.2501,44.5661,185.0038],[20.2599,44.5514,180.3535],[20.2774,44.5463,149.2893],[20.2824,44.5434,115.5436],[20.2936,44.5199,147.4838],[20.3023,44.5165,123.5419],[20.3208,44.5132,108.5199],[20.3283,44.5051,99.1413],[20.3292,44.4971,104.2878],[20.3341,44.4873,135.3246],[20.3272,44.4752,104.7633],[20.3345,44.4579,133.053],[20.3499,44.4488,119.7447],[20.392,44.441,157.64],[20.4035,44.4628,178.3113],[20.4062,44.4751,128.402],[20.4125,44.4809,175.4241],[20.4239,44.4866,199.2939],[20.4235,44.4896,227.885],[20.4139,44.4967,228.1194],[20.412,44.4999,238.2729],[20.4201,44.5084,167.1728],[20.425,44.5175,170.7968],[20.4457,44.5295,133.6945],[20.4561,44.5327,169.1502],[20.4652,44.5417,229.198],[20.4837,44.5531,304.5208],[20.4889,44.5585,327.0984],[20.4756,44.581,247.8099],[20.4579,44.5993,261.5906],[20.4522,44.6097,210.9366],[20.4398,44.6191,218.9169],[20.4243,44.6274,245.7047],[20.415,44.6246,285.2796],[20.4084,44.6243,287.9153],[20.3985,44.6321,289.0988],[20.3947,44.6328,274.6547],[20.3855,44.6305,258.38],[20.3679,44.6296,166.8438],[20.3625,44.6269,166.8336],[20.3568,44.6151,206.5934],[20.3323,44.6153,124.5951]]]]}}