{"type": "Feature","bbox": [20.8163,45.1111,21.2691,45.3323],"geometry": {"type": "MultiPolygon","coordinates": [[[[21.0238,45.3255,77.1664],[21.0228,45.321,75.8203],[21.0164,45.3207,76.0074],[21.0138,45.3131,76.2796],[21.0069,45.3057,75.3716],[20.9862,45.3029,75.5737],[20.9711,45.306,75.4632],[20.9593,45.3061,75.5064],[20.9406,45.3022,75.7787],[20.9146,45.3009,75.6523],[20.9034,45.2967,77.1265],[20.8482,45.2677,75.9777],[20.8193,45.2594,78.064],[20.8163,45.2554,78.4105],[20.818,45.2532,77.5881],[20.843,45.2392,77.0604],[20.8833,45.2237,76.382],[20.9566,45.1895,75.2803],[20.9736,45.1832,73.5181],[20.9984,45.1697,77.1053],[21.0212,45.1611,75.5119],[21.1165,45.1111,74.9594],[21.1286,45.1223,74.889],[21.1911,45.1555,74.7317],[21.2107,45.1721,74.9494],[21.213,45.1764,74.9506],[21.2128,45.1831,75.3269],[21.2088,45.1952,76.2127],[21.2008,45.2084,76.4833],[21.2019,45.2155,77.1464],[21.2068,45.2223,79.7456],[21.2035,45.2264,79.6703],[21.2048,45.2306,79.1103],[21.2084,45.232,79.3353],[21.2144,45.2287,80.4798],[21.2242,45.2432,87.971],[21.2519,45.2313,80.0181],[21.2691,45.2342,79.0243],[21.2508,45.2442,86.0607],[21.2251,45.2533,88.7303],[21.2206,45.251,89.1154],[21.2044,45.2658,82.6472],[21.2103,45.2757,84.2977],[21.1929,45.2872,82.0272],[21.1912,45.2945,82.7464],[21.1826,45.3084,83.2141],[21.1816,45.3128,83.4282],[21.1855,45.3164,83.3796],[21.1822,45.3192,84.1536],[21.1855,45.3211,83.5695],[21.1778,45.3256,83.7696],[21.1681,45.3201,83.0044],[21.1664,45.3237,82.9432],[21.1637,45.3254,82.8473],[21.162,45.3244,83.4453],[21.1511,45.3163,81.7454],[21.1557,45.3127,81.6163],[21.146,45.3052,80.5245],[21.1295,45.305,80.1167],[21.1112,45.3011,80.421],[21.0981,45.2963,78.4161],[21.0825,45.3181,76.737],[21.0725,45.3143,76.6095],[21.0727,45.3155,76.4552],[21.0628,45.3164,76.6065],[21.0651,45.3323,78.3524],[21.0238,45.3255,77.1664]]]]}
,"properties": {"GID_2": "SRB.6.7_1","GID_0": "SRB","country": "Serbia","GID_1": "SRB.6_1","province": "Južno-Banatski","NL_NAME_1": "Јужнобанатски","county": "Plandište","VARNAME_2": "Plandişte|Zichyfalva","NL_NAME_2": "Пландиште","TYPE_2": "Opštine","ENGTYPE_2": "Town|Municipal","CC_2": "NA","HASC_2": "NA","name": "Plandište.county","area_km2": 440.7987,"hist_schema_id": "Elevation0-9000","hist_area_km2": {"75": 437.4252,"100": 3.3735}}}