{"type":"Feature","properties":{"GID_2":"SRB.19.3_1","GID_0":"SRB","country":"Serbia","GID_1":"SRB.19_1","province":"Srednje-Banatski","NL_NAME_1":"Средњебанатски","county":"Sečanj","VARNAME_2":"Szécsány|Torontálszécsány|Setsch","NL_NAME_2":"Сечањ","TYPE_2":"Opštine","ENGTYPE_2":"Town|Municipal","CC_2":"NA","HASC_2":"NA","name":"Sečanj.county"},
"geometry":{"type": "MultiPolygon","coordinates": [[[[21.0115,45.3416,76.6051],[21.0011,45.342,76.7418],[20.9977,45.3436,76.4969],[20.989,45.3505,75.8762],[20.9833,45.3577,77.3649],[20.9708,45.3643,76.6497],[20.9619,45.3671,77.5089],[20.9524,45.3752,76.0551],[20.9499,45.386,76.8817],[20.9476,45.3841,76.5099],[20.9436,45.3868,76.3608],[20.9329,45.3871,77.8916],[20.9317,45.3927,78.9498],[20.9373,45.3931,79.8739],[20.9331,45.4024,76.111],[20.9299,45.4023,75.7102],[20.9296,45.4053,75.7641],[20.9257,45.4076,76.5819],[20.9218,45.4176,76.3757],[20.902,45.4172,76.4678],[20.8768,45.4263,77.4291],[20.8663,45.4321,76.3314],[20.8713,45.4334,77.6675],[20.8678,45.4351,75.1157],[20.8682,45.4364,76.5211],[20.8768,45.4392,76.3154],[20.8744,45.4462,77.722],[20.8825,45.4466,76.3268],[20.8791,45.4505,77.8158],[20.8803,45.455,75.9722],[20.872,45.4562,76.3529],[20.8741,45.4573,77.3929],[20.8678,45.4654,76.3929],[20.8629,45.4655,75.8996],[20.8345,45.4803,77.5437],[20.7727,45.4804,77.654],[20.7726,45.4884,77.7629],[20.7786,45.4911,77.6149],[20.7704,45.5004,77.187],[20.7622,45.4773,77.4431],[20.7562,45.4767,77.4793],[20.7441,45.4678,77.7345],[20.7339,45.468,78.3216],[20.7243,45.4798,77.7649],[20.7191,45.4818,78.5532],[20.7107,45.4798,79.2578],[20.681,45.4667,78.1673],[20.6726,45.4581,78.2792],[20.6689,45.4506,78.8872],[20.672,45.4471,78.9304],[20.6872,45.4414,77.4541],[20.6891,45.4374,77.0288],[20.6877,45.4341,77.5699],[20.6753,45.4212,77.7174],[20.6682,45.4205,77.6923],[20.661,45.4236,77.7412],[20.6438,45.4139,77.3951],[20.6432,45.4094,76.9704],[20.6465,45.403,77.3811],[20.6462,45.3917,74.8733],[20.6644,45.3749,77.4886],[20.6593,45.3464,74.0],[20.6631,45.3327,73.9377],[20.6587,45.3255,74.3434],[20.6453,45.3181,75.9592],[20.6376,45.3086,84.5774],[20.6355,45.3027,84.5243],[20.638,45.2959,84.7967],[20.6339,45.2869,74.3378],[20.6393,45.283,76.1558],[20.6585,45.2814,77.4573],[20.6848,45.2752,78.0386],[20.6979,45.2661,77.7527],[20.6977,45.2627,77.6735],[20.6888,45.2486,77.1429],[20.687,45.2404,80.3868],[20.6763,45.229,80.007],[20.6763,45.2255,80.0919],[20.6831,45.2084,95.0632],[20.6887,45.2006,101.8745],[20.6828,45.1891,102.9171],[20.6809,45.1822,105.0704],[20.6886,45.1794,109.788],[20.7055,45.1609,121.4721],[20.7128,45.1553,123.5043],[20.7168,45.1532,122.6942],[20.7207,45.1533,122.7851],[20.7259,45.1556,125.1474],[20.7297,45.1598,125.2586],[20.7356,45.1746,124.3915],[20.7368,45.1831,119.2245],[20.7391,45.1857,118.263],[20.7484,45.1909,117.4913],[20.7631,45.1947,109.0734],[20.7741,45.205,95.5662],[20.8,45.2115,84.8177],[20.8242,45.2308,77.5358],[20.843,45.2392,77.0604],[20.818,45.2532,77.5881],[20.8163,45.2567,77.8993],[20.8193,45.2594,78.064],[20.8456,45.2666,76.939],[20.9034,45.2967,77.1265],[20.9146,45.3009,75.6523],[20.9406,45.3022,75.7787],[20.9593,45.3061,75.5064],[20.9711,45.306,75.4632],[20.9862,45.3029,75.5737],[21.0069,45.3057,75.3716],[21.0138,45.3131,76.2796],[21.0164,45.3207,76.0074],[21.0228,45.321,75.8203],[21.0238,45.3255,77.1664],[21.0182,45.325,77.1864],[21.0115,45.3416,76.6051]]]]}}