{"type":"Feature","properties":{"GID_2":"SRB.5.2_1","GID_0":"SRB","country":"Serbia","GID_1":"SRB.5_1","province":"Južno-Bački","NL_NAME_1":"Јужнобачки","county":"BačkaPalanka","VARNAME_2":"BáčskaPalanka|Bácspalánka|Küçük","NL_NAME_2":"БачкаПаланка","TYPE_2":"Opštine","ENGTYPE_2":"Town|Municipal","CC_2":"NA","HASC_2":"NA","name":"Bačka_Palanka.county"},
"geometry":{"type": "MultiPolygon","coordinates": [[[[19.3836,45.1817,206.7216],[19.4171,45.1496,203.5857],[19.4263,45.1462,211.5773],[19.4348,45.1501,191.3786],[19.4481,45.1636,179.815],[19.4467,45.1666,172.9667],[19.4483,45.17,208.1758],[19.4574,45.1736,208.9405],[19.4647,45.1736,216.4947],[19.4766,45.1678,206.2475],[19.504,45.1657,211.9102],[19.4869,45.1849,209.2063],[19.4867,45.2004,147.9769],[19.4739,45.2117,133.9135],[19.4722,45.2173,127.4479],[19.4725,45.2229,124.5505],[19.48,45.2314,127.2007],[19.4852,45.2407,86.9217],[19.4934,45.2454,88.8199],[19.4989,45.2464,80.024],[19.5156,45.2445,102.1722],[19.5335,45.2406,78.7819],[19.5271,45.2551,74.0],[19.5265,45.2663,83.334],[19.5306,45.2859,84.1408],[19.5451,45.3135,82.8111],[19.5475,45.3228,81.694],[19.5456,45.3261,82.94],[19.5391,45.3277,83.6806],[19.5038,45.33,82.503],[19.4802,45.3523,83.5673],[19.4667,45.3578,83.7338],[19.4637,45.3631,84.5709],[19.482,45.3785,84.0748],[19.4907,45.3894,83.5685],[19.4983,45.4039,83.4631],[19.4983,45.4131,81.6051],[19.5,45.4161,82.4586],[19.5171,45.4235,80.549],[19.5415,45.428,81.764],[19.5549,45.4452,80.5],[19.5565,45.4494,80.7723],[19.5536,45.471,82.7019],[19.551,45.4758,81.4112],[19.5411,45.4833,81.7064],[19.5257,45.4885,82.1705],[19.5028,45.4887,82.5867],[19.4946,45.4868,83.2211],[19.4823,45.4782,83.4788],[19.4754,45.4779,83.0772],[19.4695,45.4801,82.716],[19.465,45.4841,83.3863],[19.4634,45.4869,84.643],[19.4627,45.4961,81.5441],[19.4582,45.5001,81.7433],[19.4371,45.5033,83.8523],[19.4165,45.5011,82.4541],[19.3994,45.5079,81.7781],[19.388,45.5062,83.2831],[19.3584,45.4944,82.7493],[19.3552,45.4897,82.6813],[19.3576,45.4682,82.5116],[19.3661,45.4579,82.952],[19.3683,45.4524,84.2744],[19.3643,45.4384,84.3079],[19.3508,45.4264,84.007],[19.3154,45.4182,84.4975],[19.3083,45.4147,85.2326],[19.305,45.4102,86.1362],[19.3112,45.4019,84.6777],[19.3111,45.3953,84.2577],[19.3089,45.3925,84.5463],[19.2878,45.3855,84.6218],[19.2505,45.3651,96.4479],[19.2449,45.3586,91.0694],[19.2433,45.3538,97.36],[19.2496,45.3438,95.1054],[19.247,45.3371,81.5879],[19.2378,45.3329,94.8344],[19.2208,45.3327,92.7484],[19.2103,45.3227,81.7247],[19.1935,45.3143,81.2753],[19.1885,45.306,80.3073],[19.1784,45.2951,79.6392],[19.1769,45.2896,78.2341],[19.1769,45.2753,78.7559],[19.2468,45.2529,86.8854],[19.2715,45.247,79.7494],[19.3399,45.2411,86.5876],[19.4021,45.2398,87.6255],[19.4155,45.2303,78.3996],[19.4166,45.2184,104.0358],[19.4352,45.2073,133.3022],[19.4204,45.1962,160.6957],[19.4192,45.1854,205.6202],[19.4028,45.1796,239.5827],[19.3836,45.1817,206.7216]]]]}}