{"type": "Feature","id": "839","bbox": [20.38907,43.77511,21.14334,44.41889],"geometry": {"type": "Polygon","coordinates": [[[20.48772,44.39801,161.2554],[20.48565,44.39827,171.9034],[20.48385,44.39889,162.59],[20.47723,44.40375,169.0609],[20.46927,44.40778,139.9668],[20.46648,44.40941,138.2359],[20.45625,44.4162,150.631],[20.45387,44.41713,162.5684],[20.45129,44.41786,155.96],[20.4484,44.41832,149.3051],[20.44219,44.41889,159.5186],[20.43331,44.41284,128.5492],[20.427,44.40822,127.2105],[20.42421,44.40651,151.9443],[20.42194,44.40561,151.7375],[20.41961,44.40494,168.5661],[20.41351,44.40378,199.0887],[20.4114,44.40323,204.789],[20.40953,44.40256,199.8707],[20.40742,44.40111,170.873],[20.40297,44.39688,158.2619],[20.39889,44.39254,185.3698],[20.39734,44.39062,163.1665],[20.39672,44.38933,143.3925],[20.39651,44.38843,138.7479],[20.39698,44.38618,138.0696],[20.39848,44.38344,135.6923],[20.39956,44.38215,139.5065],[20.4054,44.37812,141.534],[20.41274,44.37259,164.4902],[20.41553,44.37119,182.8409],[20.41951,44.36959,190.7629],[20.42204,44.3682,191.7009],[20.42695,44.36375,185.8369],[20.43124,44.36026,254.8999],[20.43279,44.35822,230.7549],[20.43325,44.35698,199.0957],[20.43325,44.3561,199.0957],[20.43253,44.35455,173.5691],[20.43119,44.35311,185.7684],[20.42318,44.34789,224.0365],[20.41956,44.34505,238.0326],[20.41822,44.34375,232.2852],[20.41155,44.33585,243.9247],[20.40891,44.33311,258.0024],[20.40406,44.32928,335.1425],[20.40153,44.32688,360.6118],[20.40034,44.32474,336.9973],[20.40013,44.32373,324.2794],[20.40008,44.32009,340.6592],[20.40065,44.3127,263.7992],[20.40065,44.31016,274.0171],[20.40013,44.3081,283.8353],[20.39904,44.30624,323.5002],[20.39744,44.30448,309.5591],[20.39238,44.29978,370.5445],[20.38948,44.29554,349.2687],[20.38907,44.2943,312.213],[20.40054,44.2928,353.2536],[20.40251,44.29239,338.136],[20.40623,44.2912,358.2606],[20.40897,44.28986,374.139],[20.4114,44.28836,398.5881],[20.41341,44.2867,394.4739],[20.4146,44.28541,376.8609],[20.41543,44.28407,376.8609],[20.41574,44.28205,337.5779],[20.4147,44.27694,319.4209],[20.4145,44.27466,302.791],[20.41481,44.27001,289.842],[20.41543,44.26779,289.5283],[20.41615,44.26629,274.5175],[20.42028,44.25978,240.6934],[20.42318,44.25441,266.5662],[20.4238,44.25236,273.2293],[20.42406,44.248,260.4067],[20.42313,44.2418,213.9479],[20.42705,44.23725,282.7537],[20.4346,44.23022,388.5786],[20.43563,44.22862,342.9648],[20.4362,44.22691,308.1511],[20.4362,44.22482,306.6227],[20.43573,44.22335,285.1704],[20.43253,44.21609,379.5908],[20.43217,44.21374,401.7403],[20.43424,44.20738,515.7729],[20.43594,44.20071,376.9369],[20.43873,44.19322,384.1713],[20.44044,44.18955,468.549],[20.44261,44.18599,444.7291],[20.44617,44.18102,496.3066],[20.44793,44.17911,524.6031],[20.4502,44.17759,522.252],[20.4531,44.17668,533.1537],[20.45682,44.17617,519.0268],[20.46193,44.17606,483.2194],[20.4623,44.17493,488.4342],[20.46245,44.17255,526.1199],[20.46219,44.16976,649.5902],[20.45987,44.16211,557.7444],[20.45971,44.15989,537.0718],[20.46028,44.1578,481.6615],[20.46193,44.15583,470.795],[20.46452,44.15439,518.9568],[20.46674,44.15364,431.7782],[20.46917,44.15312,414.8164],[20.47237,44.15276,446.9692],[20.48235,44.15214,512.6278],[20.4855,44.15175,544.1833],[20.48844,44.15105,584.7131],[20.49098,44.14999,617.1271],[20.49661,44.14563,550.0471],[20.49909,44.14402,545.5923],[20.50596,44.14103,692.9152],[20.51185,44.13777,783.0936],[20.51335,44.13674,807.8584],[20.51485,44.13495,918.0011],[20.51589,44.13286,971.1636],[20.51785,44.12421,728.5679],[20.51857,44.1225,684.364],[20.52033,44.12015,736.0608],[20.52875,44.11354,711.0593],[20.53232,44.11038,801.275],[20.5349,44.10522,682.1586],[20.53826,44.09987,648.9086],[20.53929,44.09713,670.8873],[20.53991,44.09144,900.5914],[20.53914,44.08144,718.1544],[20.53935,44.08051,718.1544],[20.54017,44.07891,785.0873],[20.54162,44.07746,842.1614],[20.544,44.07591,786.2212],[20.54761,44.07426,777.2753],[20.5534,44.07261,739.7277],[20.55785,44.07106,566.8078],[20.56529,44.06695,515.8656],[20.57128,44.06434,517.0972],[20.57805,44.06186,512.8598],[20.59025,44.05788,614.9793],[20.59536,44.05561,535.4514],[20.5981,44.05406,568.6771],[20.6042,44.05018,468.2911],[20.60632,44.04842,428.3558],[20.60797,44.04656,392.6953],[20.61035,44.04238,356.2903],[20.6119,44.04057,340.8442],[20.61428,44.03886,348.524],[20.62105,44.03494,383.8863],[20.62353,44.03297,362.3312],[20.63691,44.02021,443.5793],[20.63304,44.01804,442.2162],[20.62792,44.01437,456.1509],[20.6243,44.01075,429.2699],[20.62172,44.00682,456.4728],[20.62022,44.00538,472.1695],[20.61862,44.00476,485.6117],[20.61681,44.0046,500.1787],[20.6151,44.00491,511.7743],[20.61335,44.00551,499.5992],[20.61045,44.00675,525.2966],[20.60771,44.00827,484.619],[20.6026,44.01145,515.0901],[20.60089,44.01204,536.775],[20.59903,44.0123,523.5965],[20.59728,44.01217,523.5965],[20.595,44.01127,637.3474],[20.59392,44.01013,695.1954],[20.59319,44.00879,695.1954],[20.59273,44.00429,663.4246],[20.59221,44.00284,623.1967],[20.59123,44.00153,645.5439],[20.58803,43.99928,697.9023],[20.58033,43.9953,757.3389],[20.57521,43.99204,627.6146],[20.57242,43.98956,594.6523],[20.5688,43.98491,587.2251],[20.56632,43.98005,531.3181],[20.56601,43.97794,532.3803],[20.56617,43.97582,497.8229],[20.56689,43.97287,483.6143],[20.56694,43.97083,475.0735],[20.56648,43.96882,463.1221],[20.56503,43.96677,443.9733],[20.5627,43.96512,465.0471],[20.55402,43.96055,562.8215],[20.54493,43.95453,637.7431],[20.54152,43.95274,680.1422],[20.53769,43.95112,700.8782],[20.52622,43.94693,722.9976],[20.52813,43.94484,710.1946],[20.53149,43.94197,644.2987],[20.53614,43.93923,615.1855],[20.54017,43.93734,584.0699],[20.5424,43.93564,561.8777],[20.54338,43.93422,543.8372],[20.54436,43.93045,543.0482],[20.54477,43.9198,437.1573],[20.54508,43.91882,437.1573],[20.54612,43.91711,433.5504],[20.54767,43.91561,424.7046],[20.55309,43.91238,379.9073],[20.56084,43.90861,439.7868],[20.56549,43.90724,422.0339],[20.57175,43.906,381.6188],[20.57645,43.90456,324.6901],[20.57924,43.90321,330.9889],[20.58327,43.90042,304.712],[20.58803,43.89551,298.2776],[20.59107,43.89189,284.3954],[20.59433,43.88637,270.7946],[20.59671,43.88293,258.0197],[20.60115,43.87735,261.774],[20.60415,43.87208,279.6615],[20.60606,43.86991,288.871],[20.61392,43.8644,297.6452],[20.62079,43.85918,336.5728],[20.62647,43.85438,375.3644],[20.63324,43.84761,372.193],[20.63639,43.84497,349.9957],[20.64187,43.84159,339.7603],[20.65453,43.83562,465.3792],[20.65712,43.83407,434.0742],[20.65934,43.83231,429.0766],[20.66141,43.82973,463.9553],[20.66203,43.82771,462.0333],[20.66208,43.8257,435.3935],[20.66172,43.82286,413.0283],[20.66187,43.82089,388.4875],[20.66249,43.81934,378.9454],[20.66352,43.81795,394.9393],[20.66854,43.81397,413.6824],[20.67205,43.81061,448.5593],[20.67619,43.80487,447.4396],[20.68559,43.79376,589.4719],[20.68838,43.79004,525.3708],[20.69014,43.78841,486.9041],[20.69215,43.78699,504.9374],[20.69448,43.78575,491.9438],[20.70166,43.78301,458.138],[20.70461,43.78157,359.8046],[20.70993,43.77831,359.5118],[20.71293,43.77699,354.6311],[20.71773,43.77578,357.3609],[20.72145,43.77531,392.6233],[20.72533,43.77511,374.4488],[20.73308,43.77518,399.4983],[20.73685,43.77552,440.7039],[20.74042,43.77619,467.3089],[20.74569,43.77821,457.7718],[20.76031,43.78503,381.1755],[20.76729,43.78746,341.1044],[20.769,43.78823,328.5114],[20.77018,43.78927,308.5927],[20.77075,43.79051,299.3086],[20.77086,43.7919,299.3086],[20.76941,43.79877,365.9401],[20.77013,43.80596,313.2453],[20.76915,43.80792,341.522],[20.76801,43.80911,300.1382],[20.76073,43.81407,326.3305],[20.75923,43.81606,309.7679],[20.75876,43.81797,328.4158],[20.75918,43.81986,303.2481],[20.76062,43.82172,306.2541],[20.76305,43.82314,297.5735],[20.76517,43.82389,268.0556],[20.77623,43.82632,254.8739],[20.77861,43.82704,239.0473],[20.78667,43.83019,213.7549],[20.78899,43.83086,228.732],[20.79148,43.83138,265.475],[20.79535,43.8318,253.4287],[20.79928,43.83192,255.414],[20.80719,43.83164,265.3568],[20.8185,43.82983,315.4484],[20.83307,43.82841,411.7422],[20.83499,43.82828,424.8588],[20.8369,43.82838,441.4394],[20.8386,43.82888,525.2894],[20.84062,43.83012,503.4937],[20.84641,43.83562,593.0658],[20.84806,43.83691,638.7142],[20.84992,43.838,599.1493],[20.85375,43.8396,694.6141],[20.85571,43.84006,723.4946],[20.8585,43.84022,689.7153],[20.86072,43.83999,672.7612],[20.86284,43.83939,622.4232],[20.86553,43.8381,601.6797],[20.86754,43.83624,557.3795],[20.86997,43.83301,523.8903],[20.87126,43.83174,488.4935],[20.87385,43.8303,439.5782],[20.87896,43.82895,499.5881],[20.89416,43.82658,632.9095],[20.89426,43.82585,632.9095],[20.89447,43.82528,596.7615],[20.89478,43.82477,596.7615],[20.89529,43.8243,596.7615],[20.89695,43.82314,606.3405],[20.89741,43.82262,606.3405],[20.89808,43.82146,573.1337],[20.8986,43.82027,549.4042],[20.89881,43.81965,549.4042],[20.89901,43.81681,535.8822],[20.89922,43.81614,535.8822],[20.89948,43.81552,538.8267],[20.89984,43.81495,511.2587],[20.90036,43.81441,511.2587],[20.90093,43.81394,511.2587],[20.9016,43.81361,464.0963],[20.9031,43.81298,464.0963],[20.90382,43.81267,468.4764],[20.90449,43.81216,468.4764],[20.90563,43.81097,497.0688],[20.90837,43.80735,596.5878],[20.91338,43.80738,625.5437],[20.92175,43.80694,669.504],[20.92568,43.80642,842.7409],[20.93245,43.80477,726.729],[20.93426,43.80454,726.729],[20.9355,43.80461,676.904],[20.93798,43.80544,624.8716],[20.93989,43.80704,613.9192],[20.94092,43.80849,581.6703],[20.9432,43.81443,668.3188],[20.94501,43.818,658.2623],[20.94738,43.82084,652.5708],[20.95069,43.82337,640.5173],[20.95627,43.82634,749.7535],[20.96568,43.83048,672.157],[20.97043,43.8319,695.3987],[20.97932,43.83252,733.2078],[20.98252,43.83332,709.9028],[20.99151,43.83714,658.8837],[20.99699,43.84022,627.069],[21.00009,43.84288,482.6052],[21.00438,43.84722,597.8536],[21.00707,43.84957,643.8959],[21.00939,43.85123,614.4408],[21.01265,43.85314,579.0231],[21.01467,43.85474,561.1357],[21.01611,43.85758,537.616],[21.01663,43.86014,561.5771],[21.01658,43.86557,491.9919],[21.01601,43.86823,496.8996],[21.01498,43.87071,466.6782],[21.00857,43.8781,421.5727],[21.00464,43.88182,458.5868],[21.00257,43.88466,423.4794],[20.99983,43.89197,372.3459],[21.00004,43.89386,354.3089],[21.00113,43.89582,337.4375],[21.00294,43.89763,323.2685],[21.00681,43.90045,367.5036],[21.00981,43.90182,379.5593],[21.0172,43.9045,358.5226],[21.02319,43.90724,404.673],[21.02557,43.90791,397.4491],[21.02815,43.90828,378.5036],[21.03162,43.9083,360.2725],[21.03389,43.90807,352.9213],[21.03823,43.90719,335.5716],[21.04371,43.90564,338.9214],[21.04516,43.91091,324.294],[21.04536,43.9152,359.865],[21.0449,43.91771,322.7566],[21.04097,43.9282,399.1229],[21.04087,43.92957,372.8223],[21.04133,43.93076,345.0276],[21.04309,43.93207,348.6613],[21.04955,43.93411,369.0389],[21.05208,43.9351,366.9909],[21.05875,43.93866,307.4453],[21.06035,43.93985,315.9847],[21.06154,43.94125,313.9713],[21.06231,43.9428,322.5965],[21.06262,43.94486,361.4543],[21.06236,43.94693,401.004],[21.06169,43.94853,391.0809],[21.06071,43.95003,421.372],[21.05575,43.95535,422.9613],[21.05358,43.95913,449.8725],[21.05198,43.96124,432.4136],[21.05022,43.96295,419.0554],[21.04288,43.96858,503.2786],[21.04174,43.97003,505.9696],[21.04102,43.97158,516.24],[21.04071,43.97362,528.2286],[21.04102,43.97564,498.53],[21.04216,43.97773,431.9457],[21.04407,43.97949,468.3403],[21.04655,43.98073,400.7916],[21.05151,43.98238,470.8444],[21.05337,43.98326,492.4522],[21.0619,43.98972,492.6608],[21.06438,43.99119,448.224],[21.06722,43.9921,415.8573],[21.06862,43.99225,401.0262],[21.07363,43.9922,365.6547],[21.08195,43.99184,382.2046],[21.08489,43.99204,438.8813],[21.08882,43.99297,502.2546],[21.09058,43.9937,502.2546],[21.09249,43.99517,538.8217],[21.09399,43.99695,519.3246],[21.09564,43.99969,504.4619],[21.09621,44.00181,506.19],[21.09642,44.00398,514.3467],[21.09595,44.00899,564.834],[21.09631,44.01096,571.5349],[21.09745,44.013,580.9734],[21.10081,44.01695,542.9592],[21.10221,44.01902,519.4404],[21.10298,44.02114,506.1587],[21.10324,44.02331,537.0293],[21.10308,44.02543,466.294],[21.10241,44.02752,454.6187],[21.10086,44.02977,428.3924],[21.08918,44.03959,376.446],[21.08691,44.04103,405.0676],[21.08283,44.04232,309.0276],[21.05425,44.04744,266.7007],[21.0681,44.05705,257.3325],[21.082,44.06452,314.0407],[21.0865,44.0663,283.7755],[21.09063,44.06759,267.7075],[21.09983,44.06925,252.5476],[21.10996,44.07168,240.4927],[21.11378,44.0732,233.1651],[21.11657,44.07462,220.6394],[21.11895,44.07622,236.601],[21.12365,44.08067,236.5368],[21.13269,44.0862,194.4986],[21.13435,44.08754,187.1943],[21.13569,44.08909,184.1661],[21.13662,44.09085,175.3626],[21.13735,44.09292,181.3961],[21.1391,44.10289,153.3801],[21.12608,44.11441,190.2971],[21.12463,44.11617,190.0245],[21.12355,44.11824,208.931],[21.12298,44.12077,180.2728],[21.12355,44.1233,178.9671],[21.12453,44.12537,177.9799],[21.12846,44.13162,103.5852],[21.12908,44.13307,102.6741],[21.12928,44.13524,102.6505],[21.14334,44.15338,102.4806],[21.14039,44.1619,101.8937],[21.13843,44.17462,101.4301],[21.13915,44.18332,100.8708],[21.13285,44.18611,101.8129],[21.12763,44.19007,100.9827],[21.12603,44.191,101.2587],[21.12257,44.19255,100.8922],[21.1173,44.19394,99.6051],[21.11378,44.19441,99.8849],[21.1036,44.19518,101.3092],[21.10045,44.1957,103.0748],[21.09807,44.19632,103.7234],[21.09595,44.1972,103.2109],[21.09084,44.2003,123.2537],[21.08861,44.20128,138.4272],[21.08629,44.2018,148.4411],[21.08495,44.2018,148.4411],[21.08216,44.20133,173.3995],[21.0743,44.19921,207.3484],[21.07218,44.1988,207.6282],[21.06903,44.1987,221.8897],[21.06128,44.19952,198.2439],[21.05151,44.19994,237.117],[21.04133,44.20511,235.7906],[21.02025,44.21482,115.9673],[21.01539,44.21606,119.2478],[21.00567,44.21725,126.9989],[21.00257,44.21782,129.1544],[20.99627,44.22004,122.4727],[20.99234,44.222,123.5068],[20.98573,44.22671,154.5618],[20.97947,44.23007,144.6552],[20.97746,44.23187,157.9054],[20.97601,44.2341,175.2432],[20.97524,44.23632,162.5456],[20.97394,44.24676,169.0599],[20.97389,44.259,224.1596],[20.95457,44.25213,181.301],[20.94986,44.25068,206.5693],[20.94191,44.24934,196.6665],[20.93395,44.24691,143.7416],[20.93023,44.24629,141.6818],[20.91865,44.24531,172.4829],[20.91493,44.24469,179.2721],[20.90692,44.24226,242.3947],[20.90398,44.2419,267.1289],[20.90103,44.2419,222.2906],[20.89891,44.24213,169.0806],[20.89684,44.24262,183.7106],[20.89137,44.24518,151.9595],[20.88842,44.24632,175.8918],[20.88615,44.24689,200.7883],[20.88382,44.24722,201.4001],[20.88093,44.24735,180.0773],[20.8769,44.24717,203.5976],[20.87411,44.24738,213.2827],[20.87194,44.24784,215.3971],[20.86997,44.24862,215.4275],[20.86821,44.2497,225.1237],[20.86336,44.25322,227.0098],[20.85803,44.25647,170.468],[20.85364,44.25833,131.6599],[20.84951,44.25968,126.6438],[20.84636,44.26014,126.9302],[20.8431,44.26024,128.3545],[20.83979,44.25999,129.1382],[20.82848,44.25841,131.1095],[20.81633,44.25763,135.0579],[20.81602,44.26381,144.9525],[20.81556,44.2666,146.9046],[20.81364,44.27275,151.2217],[20.81385,44.27471,150.1245],[20.81478,44.27645,151.9102],[20.81628,44.27802,149.7392],[20.82088,44.28159,146.6184],[20.82315,44.28396,147.3971],[20.82372,44.28533,147.0298],[20.82367,44.2867,146.6447],[20.82305,44.28784,138.2725],[20.82196,44.28887,136.797],[20.81954,44.29027,137.3051],[20.81638,44.29153,155.6455],[20.8093,44.29363,156.6465],[20.8061,44.29425,163.7696],[20.79127,44.29657,165.7864],[20.77205,44.29776,178.1796],[20.75742,44.30536,217.3405],[20.75039,44.30965,221.3526],[20.74858,44.31094,218.2242],[20.74709,44.31239,185.4642],[20.74285,44.31714,161.0931],[20.73887,44.32003,145.9015],[20.73608,44.32138,179.3993],[20.73138,44.3227,147.9498],[20.72817,44.32313,138.9167],[20.7182,44.32381,139.2854],[20.71251,44.32474,144.9391],[20.71019,44.32541,155.4872],[20.70714,44.32675,175.9288],[20.69846,44.33213,166.1783],[20.69448,44.33362,164.7083],[20.6905,44.33466,163.4254],[20.68755,44.33492,166.4025],[20.68461,44.33471,167.0215],[20.67758,44.3329,173.4053],[20.66404,44.32789,169.799],[20.64978,44.32184,206.803],[20.64099,44.32993,213.9562],[20.63598,44.33378,204.9894],[20.63412,44.33476,204.9894],[20.6272,44.3367,213.3115],[20.62472,44.33802,193.7357],[20.62296,44.33977,216.4285],[20.62218,44.34127,221.5139],[20.62187,44.34282,225.8651],[20.62213,44.34778,226.1151],[20.62048,44.35574,175.4853],[20.6197,44.36427,167.8419],[20.61908,44.36696,177.638],[20.6181,44.36902,177.5277],[20.6165,44.37073,183.8018],[20.61495,44.37166,184.5823],[20.61128,44.373,195.653],[20.60937,44.37342,195.653],[20.60653,44.37367,203.348],[20.60363,44.37342,197.6944],[20.60027,44.37254,189.9982],[20.59552,44.37055,216.31],[20.5889,44.36814,224.2399],[20.57304,44.36391,190.7949],[20.56503,44.36112,199.4858],[20.55273,44.35874,229.4301],[20.54622,44.35641,263.8969],[20.54307,44.35559,306.5257],[20.54038,44.35548,291.9117],[20.53852,44.35585,284.0071],[20.53661,44.35652,263.0411],[20.5349,44.3575,278.5104],[20.53361,44.35879,300.3599],[20.53273,44.36034,301.6904],[20.5319,44.36303,288.9893],[20.53165,44.36592,258.1924],[20.53211,44.37202,234.2296],[20.53294,44.37507,216.8909],[20.53645,44.38292,190.4023],[20.5379,44.38566,173.7378],[20.52157,44.39135,212.7864],[20.50937,44.39683,194.8977],[20.50596,44.39781,204.3479],[20.50111,44.39838,213.9991],[20.49785,44.39848,198.5066],[20.48772,44.39801,161.2554]]]}
,"properties": {"ISO3166-1-Alpha-3": "SRB","country": "Republic of Serbia","fill": "#0F0","name": "Šumadijski","area_km2": 2386.423,"hist_schema_id": "Elevation0-9000","hist_area_km2": {"100": 24.883,"125": 47.435,"150": 84.318,"175": 117.646,"200": 155.121,"225": 187.334,"250": 203.373,"275": 216.286,"300": 188.028,"325": 166.039,"350": 153.834,"375": 132.609,"400": 110.224,"425": 89.738,"450": 75.708,"475": 63.875,"500": 54.906,"525": 52.176,"550": 45.796,"575": 39.565,"600": 34.579,"625": 30.386,"650": 25.14,"675": 20.85,"700": 16.621,"725": 12.099,"750": 8.646,"775": 5.776,"800": 4.508,"825": 3.579,"850": 3.35,"875": 2.132,"900": 2.146,"925": 1.674,"950": 1.08,"975": 1.187,"1000": 1.202,"1025": 0.928,"1050": 0.639,"1075": 0.609,"1100": 0.32,"1125": 0.076}}}