{"type": "Feature","bbox": [20.3891,43.7753,21.1391,44.4189],"geometry": {"type": "MultiPolygon","coordinates": [[[[20.6041,43.8721,276.9472],[20.6364,43.845,349.9957],[20.6593,43.8323,429.0766],[20.662,43.8277,462.0333],[20.6625,43.8194,378.9454],[20.672,43.8106,448.5593],[20.6901,43.7884,486.9041],[20.7129,43.777,354.6311],[20.7215,43.7753,392.6233],[20.7404,43.7762,467.3089],[20.769,43.7882,328.5114],[20.7708,43.7905,299.3086],[20.7694,43.7988,365.9401],[20.7701,43.8059,313.2453],[20.768,43.8091,300.1382],[20.7607,43.8141,326.3305],[20.7592,43.8199,303.2481],[20.7631,43.8231,297.5735],[20.789,43.8309,228.732],[20.8072,43.8316,265.3568],[20.8369,43.8284,441.4394],[20.8499,43.838,599.1493],[20.8607,43.84,672.7612],[20.8655,43.8381,601.6797],[20.8739,43.8303,439.5782],[20.8941,43.8266,632.9095],[20.8981,43.8215,573.1337],[20.8999,43.8149,511.2587],[20.9045,43.8122,468.4764],[20.9084,43.8073,596.5878],[20.9217,43.8069,669.504],[20.9343,43.8045,726.729],[20.9399,43.807,613.9192],[20.945,43.818,658.2623],[20.9507,43.8234,640.5173],[20.965699999999998,43.8305,672.157],[20.9825,43.8333,709.9028],[20.997,43.8402,627.069],[21.0147,43.8548,561.1357],[21.0166,43.8601,561.5771],[21.015,43.8707,466.6782],[21.0026,43.8847,423.4794],[20.9998,43.892,372.3459],[21.0012,43.8958,337.4375],[21.0068,43.9005,367.5036],[21.0256,43.9079,397.4491],[21.0339,43.9081,352.9213],[21.0437,43.9056,338.9214],[21.0454,43.9152,359.865],[21.0413,43.9308,345.0276],[21.0588,43.9387,307.4453],[21.0623,43.9428,322.5965],[21.0607,43.95,421.372],[21.052,43.9612,432.4136],[21.0418,43.97,505.9696],[21.0407,43.9736,528.2286],[21.0422,43.9777,431.9457],[21.0534,43.9833,492.4522],[21.0644,43.9912,448.224],[21.0849,43.9921,456.5574],[21.0906,43.9937,502.2546],[21.0956,43.9997,504.4619],[21.0963,44.011,571.5349],[21.103,44.0211,506.1587],[21.1031,44.0255,466.294],[21.1009,44.0298,428.3924],[21.0869,44.041,405.0676],[21.0543,44.0474,266.7007],[21.082,44.0645,314.0407],[21.1166,44.0746,220.6394],[21.1344,44.0875,187.1943],[21.1366,44.0909,175.3626],[21.1391,44.1029,153.3801],[21.1236,44.1183,208.931],[21.1236,44.1233,178.9671],[21.1293,44.1352,102.6505],[21.1188,44.1528,103.6465],[21.1269,44.1567,102.2432],[21.1248,44.1648,102.4391],[21.1297,44.1703,99.6644],[21.1297,44.1765,101.8912],[21.1328,44.1861,101.8129],[21.1226,44.1926,100.8922],[21.1004,44.1957,103.0748],[21.0863,44.2018,148.4411],[21.0722,44.1988,207.6282],[21.0515,44.2,237.117],[21.0202,44.2148,115.9673],[20.9963,44.22,122.4727],[20.9795,44.2301,144.6552],[20.976,44.2341,175.2432],[20.9739,44.259,224.1596],[20.9499,44.2507,206.5693],[20.904,44.2419,267.1289],[20.8969,44.2426,183.7106],[20.8862,44.2469,200.7883],[20.8719,44.2478,215.3971],[20.858,44.2565,170.468],[20.8495,44.2597,126.6438],[20.8163,44.2576,135.0579],[20.8139,44.2747,150.1245],[20.8237,44.2853,147.0298],[20.8231,44.2878,138.2725],[20.8196,44.2903,137.3051],[20.8061,44.2942,163.7696],[20.772,44.2978,178.1796],[20.7504,44.3096,221.3526],[20.7428,44.3172,161.0931],[20.7361,44.3214,179.3993],[20.7125,44.3247,144.9391],[20.6905,44.3346,163.4254],[20.6776,44.3329,173.4053],[20.6498,44.3218,206.803],[20.636,44.3338,204.9894],[20.6272,44.3367,213.3115],[20.6229,44.3398,216.4285],[20.6191,44.367,177.638],[20.6165,44.3707,183.8018],[20.6113,44.373,195.653],[20.6036,44.3734,197.6944],[20.565,44.3611,199.4858],[20.5404,44.3555,291.9117],[20.5336,44.3588,300.3599],[20.5317,44.3659,258.1924],[20.533,44.3751,216.8909],[20.5379,44.3857,173.7378],[20.5059,44.3978,204.3479],[20.4838,44.3989,191.5754],[20.4539,44.4172,162.5684],[20.4422,44.4189,159.5186],[20.4242,44.4065,151.9443],[20.4095,44.4025,199.8707],[20.3973,44.3906,163.1665],[20.397,44.3862,138.0696],[20.3996,44.3822,139.5065],[20.4127,44.3726,164.4902],[20.4221,44.3682,201.2547],[20.4312,44.3603,254.8999],[20.4332,44.3561,199.0957],[20.4312,44.3531,185.7684],[20.4196,44.345,238.0326],[20.4015,44.3269,360.6118],[20.4001,44.3237,324.2794],[20.4001,44.3081,283.8353],[20.3891,44.2943,312.213],[20.4062,44.2912,358.2606],[20.4154,44.2841,376.8609],[20.4148,44.27,289.842],[20.4232,44.2544,266.5662],[20.4231,44.2418,213.9479],[20.4362,44.2269,308.1511],[20.4322,44.2137,401.7403],[20.4404,44.1895,468.549],[20.4502,44.1776,522.252],[20.4619,44.176,483.2194],[20.4622,44.1697,649.5902],[20.4597,44.1599,537.0718],[20.462,44.1558,470.795],[20.4692,44.1531,414.8164],[20.4884,44.1511,584.7131],[20.5133,44.1367,807.8584],[20.5159,44.1329,971.1636],[20.5186,44.1225,684.364],[20.5323,44.1104,801.275],[20.5383,44.0999,648.9086],[20.5399,44.0914,900.5914],[20.5391,44.0814,718.1544],[20.5416,44.0775,842.1614],[20.5981,44.0541,568.6771],[20.6063,44.0484,428.3558],[20.6119,44.0406,340.8442],[20.6235,44.033,362.3312],[20.6369,44.0202,443.5793],[20.6279,44.0144,456.1509],[20.6186,44.0048,485.6117],[20.6133,44.0055,499.5992],[20.6009,44.012,536.775],[20.595,44.0113,637.3474],[20.5912,44.0015,645.5439],[20.5752,43.9921,681.8177],[20.5688,43.9849,587.2251],[20.5663,43.98,531.3181],[20.567,43.9708,475.0735],[20.565,43.9668,443.9733],[20.545,43.9545,637.7431],[20.5262,43.9469,722.9976],[20.5315,43.942,644.2987],[20.5424,43.9356,561.8777],[20.5444,43.9304,536.4101],[20.5448,43.9198,437.1573],[20.5477,43.9156,424.7046],[20.5609,43.9086,439.7868],[20.5764,43.9046,335.0497],[20.5833,43.9004,308.0737],[20.5911,43.8919,284.3954],[20.6041,43.8721,276.9472]]]]}
,"properties": {"GID_1": "SRB.21_1","GID_0": "SRB","country": "Serbia","province": "Šumadijski","VARNAME_1": "Šumadija","NL_NAME_1": "Шумадијски","TYPE_1": "Okrug","ENGTYPE_1": "District","CC_1": "NA","HASC_1": "RS.SU","ISO_1": "NA","name": "Šumadijski.province","area_km2": 2380.658,"hist_schema_id": "Elevation0-9000","hist_area_km2": {"100": 19.559,"125": 47.344,"150": 84.258,"175": 117.419,"200": 155.045,"225": 187.501,"250": 203.48,"275": 216.499,"300": 187.967,"325": 166.024,"350": 153.865,"375": 132.594,"400": 110.3,"425": 89.708,"450": 75.708,"475": 63.845,"500": 54.738,"525": 51.962,"550": 45.75,"575": 39.519,"600": 34.564,"625": 30.417,"650": 25.14,"675": 20.957,"700": 16.651,"725": 12.068,"750": 8.6,"775": 5.761,"800": 4.493,"825": 3.579,"850": 3.35,"875": 2.132,"900": 2.146,"925": 1.674,"950": 1.08,"975": 1.187,"1000": 1.202,"1025": 0.928,"1050": 0.639,"1075": 0.609,"1100": 0.32,"1125": 0.076}}}