{"type": "Feature","bbox": [21.107,44.2384,21.3004,44.4836],"geometry": {"type": "MultiPolygon","coordinates": [[[[21.2233,44.4825,185.2112],[21.2064,44.482,84.0358],[21.1911,44.4836,83.5404],[21.1427,44.473,83.7638],[21.1578,44.4506,87.6632],[21.1564,44.4475,83.062],[21.1442,44.4428,87.3255],[21.139,44.4384,86.4382],[21.1402,44.4255,87.7764],[21.1601,44.4035,87.324],[21.1553,44.4003,87.7887],[21.1503,44.4027,92.544],[21.1442,44.4031,91.7397],[21.134,44.3998,90.7119],[21.1089,44.3702,90.7423],[21.107,44.3623,94.7358],[21.1108,44.3559,90.4928],[21.12,44.3507,91.2631],[21.1318,44.3468,91.9902],[21.15,44.3448,93.2843],[21.157,44.3425,90.6444],[21.1791,44.3258,91.2132],[21.1826,44.3211,91.9026],[21.1816,44.318,91.7959],[21.1765,44.3145,92.1461],[21.1298,44.3023,96.1298],[21.125,44.2988,96.9091],[21.1265,44.2959,95.2383],[21.1474,44.2886,95.2082],[21.1596,44.2873,94.8074],[21.1711,44.2815,94.7208],[21.1896,44.2785,101.3576],[21.2123,44.2671,98.7498],[21.2176,44.2548,134.0055],[21.2275,44.2466,164.2572],[21.2505,44.2428,193.8736],[21.2653,44.2384,209.4681],[21.2788,44.2488,224.5081],[21.2927,44.2757,157.6522],[21.2835,44.2761,127.129],[21.2792,44.2782,155.2647],[21.2778,44.2821,184.1537],[21.28,44.2896,221.645],[21.2793,44.2922,203.8887],[21.2662,44.3008,263.0829],[21.2645,44.3039,233.45],[21.2722,44.3121,256.3716],[21.2753,44.3198,266.9841],[21.2929,44.331,206.9034],[21.2964,44.3352,234.228],[21.2954,44.3387,232.9097],[21.2876,44.3458,173.8465],[21.2862,44.3517,194.9142],[21.2892,44.3588,226.3164],[21.3004,44.3712,131.5733],[21.3003,44.3753,128.7572],[21.2931,44.3879,135.022],[21.2932,44.3923,133.0185],[21.2973,44.4024,157.532],[21.2875,44.4105,123.1346],[21.287,44.4161,153.5145],[21.2886,44.4221,129.5645],[21.2757,44.442,215.9494],[21.2619,44.4543,183.9785],[21.2528,44.4571,162.6718],[21.2445,44.4619,199.1311],[21.2325,44.477,214.5993],[21.2233,44.4825,185.2112]]]]}
,"properties": {"GID_2": "SRB.2.7_1","GID_0": "SRB","country": "Serbia","GID_1": "SRB.2_1","province": "Braničevski","NL_NAME_1": "Браничевски","county": "Žabari","VARNAME_2": "NA","NL_NAME_2": "Жабари","TYPE_2": "Opštine","ENGTYPE_2": "Town|Municipal","CC_2": "NA","HASC_2": "NA","name": "Žabari.county","area_km2": 263.9844,"hist_schema_id": "Elevation0-9000","hist_area_km2": {"75": 36.7712,"100": 96.5861,"125": 14.9013,"150": 21.8726,"175": 28.4865,"200": 28.9679,"225": 24.3598,"250": 9.7334,"275": 2.3055}}}