{"type":"Feature","properties":{"GID_2":"SRB.18.5_1","GID_0":"SRB","country":"Serbia","GID_1":"SRB.18_1","province":"Severno-Banatski","NL_NAME_1":"Севернобанатски","county":"NoviKneževac","VARNAME_2":"NoulCnezat|Törökkanizsa|Neu-Kan","NL_NAME_2":"НовиКнежевац","TYPE_2":"Opštine","ENGTYPE_2":"Town|Municipal","CC_2":"NA","HASC_2":"NA","name":"Novi_Kneževac.county"},
"geometry":{"type": "MultiPolygon","coordinates": [[[[20.0617,46.1507,77.0358],[20.0707,46.1436,79.513],[20.0723,46.1383,78.0075],[20.0684,46.131,78.9628],[20.0554,46.1165,81.3784],[20.0454,46.1091,80.739],[20.0449,46.0988,81.2797],[20.047,46.0955,80.1296],[20.0573,46.0914,77.5862],[20.0751,46.0769,76.0016],[20.0797,46.0702,77.8139],[20.0809,46.0641,80.8231],[20.074,46.052,76.9129],[20.0618,46.0428,76.1119],[20.0467,46.0381,76.026],[20.0306,46.0365,76.6353],[20.0258,46.0338,76.1954],[20.0258,46.0297,76.1378],[20.03,46.0225,75.7817],[20.0354,46.0181,81.1415],[20.0486,46.0122,80.4707],[20.056,46.0096,79.5372],[20.0674,46.016,79.9859],[20.095,46.0168,83.1489],[20.1432,46.0084,81.17],[20.162,46.0023,82.0973],[20.2169,45.9968,81.0812],[20.2363,45.9967,76.9363],[20.2402,45.9978,76.4133],[20.2443,46.0024,77.0995],[20.2448,46.0142,76.8599],[20.2524,46.0213,79.5611],[20.2736,46.0264,78.8077],[20.298,46.0403,77.6672],[20.3317,46.0516,77.7341],[20.3458,46.049,78.6913],[20.3109,46.0724,78.2718],[20.3129,46.074,78.1712],[20.3047,46.0835,78.4755],[20.3039,46.087,77.8152],[20.2748,46.0986,79.2176],[20.2665,46.1088,80.0916],[20.2687,46.1125,78.368],[20.2769,46.1129,79.2875],[20.2846,46.1178,78.8045],[20.2693,46.117,78.7625],[20.2638,46.1205,79.8767],[20.2655,46.1247,79.0656],[20.2608,46.1267,79.8231],[20.2542,46.119,80.5178],[20.25,46.1229,78.7878],[20.2511,46.13,79.7269],[20.2488,46.1328,79.4569],[20.234,46.1261,78.6006],[20.2312,46.132,79.2753],[20.2106,46.1377,79.3716],[20.2089,46.146,80.0853],[20.1813,46.1625,76.3207],[20.1738,46.1565,78.545],[20.1415,46.1468,77.4485],[20.1344,46.1499,79.5081],[20.1312,46.1541,77.2126],[20.1197,46.1582,76.4886],[20.1064,46.1674,76.6018],[20.1059,46.1741,79.4991],[20.1077,46.1763,80.0425],[20.1025,46.1803,81.1762],[20.0941,46.1781,91.1387],[20.086,46.1715,81.459],[20.0653,46.1483,77.0165],[20.0617,46.1507,77.0358]]]]}}