{"type": "Feature","bbox": [19.3883,43.6782,19.9549,43.9568],"geometry": {"type": "MultiPolygon","coordinates": [[[[19.5026,43.7237,706.9172],[19.5114,43.727,530.8903],[19.5147,43.7331,643.3082],[19.5134,43.7493,1013.5583],[19.5156,43.7587,771.7939],[19.5091,43.7711,797.8944],[19.5108,43.776,612.8657],[19.5273,43.775,833.4601],[19.5444,43.7701,1049.5239],[19.5645,43.7757,1079.222],[19.5711,43.7801,995.9188],[19.5722,43.7866,820.9454],[19.5789,43.7992,1023.3743],[19.5881,43.8035,1092.6764],[19.6051,43.8055,927.3297],[19.609,43.8096,868.5264],[19.6092,43.8167,809.3099],[19.6114,43.8191,793.7912],[19.6436,43.8199,894.4592],[19.6668,43.8154,854.7517],[19.6784,43.8153,887.8524],[19.6862,43.8185,753.176],[19.6862,43.8257,857.2354],[19.6891,43.8295,793.8461],[19.6988,43.8313,804.4618],[19.7178,43.8262,694.3171],[19.7224,43.8219,727.6014],[19.7227,43.8119,755.1818],[19.714,43.8008,774.6145],[19.716,43.7887,677.6083],[19.7185,43.7853,702.1395],[19.7251,43.785,695.6125],[19.734,43.7902,722.2035],[19.7475,43.7949,630.7344],[19.7667,43.7956,697.9685],[19.7729,43.7935,712.5813],[19.78,43.7857,728.0285],[19.7983,43.7769,728.8961],[19.8071,43.7692,729.2676],[19.8177,43.7495,794.9537],[19.7978,43.7316,830.1966],[19.7966,43.7275,883.9706],[19.8001,43.7233,910.9436],[19.8055,43.7207,852.9526],[19.8352,43.7138,818.141],[19.8427,43.7104,800.4906],[19.8494,43.6991,800.3357],[19.8647,43.6924,812.2965],[19.8682,43.6895,834.8564],[19.8713,43.6782,963.5042],[19.8919,43.6864,885.0145],[19.9041,43.6876,898.8896],[19.9181,43.6967,721.2156],[19.9212,43.7004,723.2626],[19.9199,43.7071,632.0994],[19.9109,43.7171,795.1426],[19.9098,43.7203,761.5535],[19.9148,43.7316,809.653],[19.9181,43.7445,534.5347],[19.9267,43.7513,528.015],[19.9273,43.7609,480.4566],[19.9413,43.7684,585.1733],[19.9447,43.7718,435.8021],[19.9461,43.7797,771.5763],[19.9446,43.785,795.5328],[19.9377,43.7954,520.7321],[19.9396,43.8057,347.0431],[19.9386,43.8098,343.1152],[19.9321,43.8149,345.403],[19.9162,43.8221,356.5742],[19.8943,43.8379,384.3236],[19.8923,43.8409,371.2733],[19.8923,43.845,377.5981],[19.8958,43.849,401.9154],[19.9016,43.8513,476.906],[19.9246,43.8529,559.8673],[19.9403,43.8581,469.3663],[19.9511,43.8654,370.2662],[19.9549,43.8709,347.428],[19.9547,43.8746,347.2135],[19.949,43.8835,378.0092],[19.9354,43.8955,380.9876],[19.9131,43.9113,414.2359],[19.9128,43.9141,403.3105],[19.9195,43.9219,443.7023],[19.9213,43.9281,501.9854],[19.9133,43.9421,511.173],[19.9077,43.9477,549.3097],[19.8972,43.9494,507.0651],[19.8803,43.9467,470.6913],[19.86,43.9511,529.483],[19.8318,43.9457,737.8417],[19.8072,43.9455,805.0311],[19.7994,43.9465,853.6791],[19.7695,43.9568,808.8832],[19.7694,43.9387,971.1746],[19.7744,43.9302,864.5096],[19.7628,43.9142,797.9649],[19.7523,43.9044,656.8708],[19.7337,43.9014,892.3364],[19.7191,43.8909,905.7424],[19.7081,43.8871,885.8828],[19.6814,43.8824,878.0671],[19.659,43.8838,900.2988],[19.6246,43.8812,821.238],[19.6126,43.8781,834.4448],[19.5968,43.8709,863.0336],[19.5767,43.868899999999996,837.7109],[19.5532,43.8747,894.6573],[19.5208,43.8739,1122.8079],[19.507,43.8652,1096.3558],[19.4993,43.8636,1121.2852],[19.4888,43.8647,1178.344],[19.4755,43.8755,1313.9104],[19.4674,43.8796,1382.7847],[19.4433,43.8827,1285.976],[19.4261,43.8794,1061.0317],[19.4185,43.8733,933.5811],[19.412,43.8631,798.8308],[19.4133,43.8547,876.8822],[19.4194,43.8447,1042.2599],[19.4183,43.842,1031.0054],[19.4092,43.8342,866.7402],[19.4109,43.8258,1054.0024],[19.41,43.823,944.8547],[19.3883,43.8102,1063.3374],[19.4067,43.8,1048.7842],[19.4203,43.7964,1100.5222],[19.4316,43.7806,1006.6082],[19.4509,43.7736,838.8052],[19.4788,43.7343,584.3178],[19.5026,43.7237,706.9172]]]]}
,"properties": {"GID_2": "SRB.25.10_1","GID_0": "SRB","country": "Serbia","GID_1": "SRB.25_1","province": "Zlatiborski","NL_NAME_1": "Златиборски","county": "Užice","VARNAME_2": "NA","NL_NAME_2": "Ужице","TYPE_2": "Opštine","ENGTYPE_2": "Town|Municipal","CC_2": "NA","HASC_2": "NA","name": "Užice.county","area_km2": 614.693,"hist_schema_id": "Elevation0-9000","hist_area_km2": {"350": 2.1862,"375": 3.6685,"400": 6.3273,"425": 8.9856,"450": 10.0711,"475": 11.4633,"500": 12.5502,"525": 14.4642,"550": 16.331,"575": 18.978,"600": 20.4333,"625": 26.6161,"650": 30.1361,"675": 36.6834,"700": 41.3982,"725": 44.748,"750": 40.4632,"775": 34.4354,"800": 29.5527,"825": 28.6963,"850": 28.023,"875": 24.9199,"900": 17.8373,"925": 13.2025,"950": 11.0724,"975": 9.8328,"1000": 8.4874,"1025": 6.5778,"1050": 5.7053,"1075": 5.6135,"1100": 5.3841,"1125": 5.0627,"1150": 3.9153,"1175": 3.5785,"1200": 3.5631,"1225": 2.8902,"1250": 2.9664,"1275": 3.2107,"1300": 3.7914,"1325": 2.7214,"1350": 2.2323,"1375": 2.2169,"1400": 1.7124,"1425": 0.9021,"1450": 0.367,"1475": 0.3058,"1500": 0.2447,"1525": 0.1529,"1550": 0.0153}}}