{"type":"Feature","properties":{"GID_2":"SRB.24.2_1","GID_0":"SRB","country":"Serbia","GID_1":"SRB.24_1","province":"Zapadno-Bački","NL_NAME_1":"Западнобачки","county":"Kula","VARNAME_2":"NA","NL_NAME_2":"Кула","TYPE_2":"Opštine","ENGTYPE_2":"Town|Municipal","CC_2":"NA","HASC_2":"NA","name":"Kula.county"},
"geometry":{"type": "MultiPolygon","coordinates": [[[[19.5865,45.66,105.4882],[19.6085,45.6699,106.7059],[19.6107,45.6715,107.4192],[19.612,45.6764,108.2476],[19.599,45.6941,110.1583],[19.5913,45.6978,109.5988],[19.5741,45.7021,108.0621],[19.5628,45.708,110.421],[19.5571,45.7138,108.8257],[19.5554,45.7188,108.9817],[19.557,45.7231,108.5086],[19.5776,45.7405,107.8419],[19.5533,45.7504,104.0454],[19.5366,45.7623,107.0705],[19.5288,45.7649,106.0981],[19.5225,45.7649,105.3248],[19.5149,45.7624,97.4396],[19.5004,45.7501,108.7934],[19.4929,45.7458,110.4092],[19.4867,45.7456,110.4841],[19.4806,45.7479,112.6021],[19.4399,45.7694,112.8397],[19.4373,45.7803,111.0662],[19.4278,45.7909,110.9531],[19.4313,45.8019,111.5418],[19.4188,45.816,112.9624],[19.3877,45.8015,115.6877],[19.3515,45.7895,110.2658],[19.3211,45.7734,106.5051],[19.3181,45.7707,103.5204],[19.3088,45.7544,85.8224],[19.31,45.7504,85.9994],[19.3157,45.7441,85.3008],[19.3137,45.7409,86.1383],[19.3038,45.7409,86.0601],[19.2877,45.7487,85.1349],[19.2784,45.749,85.7217],[19.2752,45.7466,85.4059],[19.2676,45.7304,84.0768],[19.2704,45.7265,84.9106],[19.2762,45.7241,84.7059],[19.2961,45.7219,84.7136],[19.3073,45.7171,86.6976],[19.3093,45.7131,85.2627],[19.306,45.7062,85.8962],[19.289,45.6972,85.4924],[19.286,45.6945,86.0275],[19.2853,45.6913,85.6109],[19.2887,45.6878,84.6019],[19.2951,45.6853,83.3956],[19.318,45.6813,85.1685],[19.3299,45.6677,85.3214],[19.3301,45.6632,85.7513],[19.3283,45.6601,85.0985],[19.3229,45.6575,84.4879],[19.3027,45.6391,83.3676],[19.3016,45.6322,84.7282],[19.3059,45.6226,85.41],[19.3106,45.6192,84.7841],[19.3185,45.6176,84.3729],[19.3369,45.6193,84.7368],[19.3493,45.6186,85.1166],[19.361,45.6139,86.991],[19.3683,45.607,83.5467],[19.3677,45.6027,83.6843],[19.3609,45.5959,84.756],[19.3424,45.5872,84.2381],[19.3417,45.5808,83.6461],[19.3351,45.5725,84.2549],[19.3356,45.5672,84.2739],[19.3414,45.5627,83.5628],[19.355,45.5608,82.79],[19.3674,45.5551,81.3875],[19.3788,45.5451,82.223],[19.3945,45.5357,82.1506],[19.421,45.5415,82.4331],[19.4321,45.5471,81.6521],[19.4401,45.5493,81.8252],[19.4497,45.5474,81.7522],[19.4778,45.5341,81.8603],[19.4876,45.5359,81.9717],[19.5035,45.5435,80.4997],[19.5165,45.5584,81.5409],[19.5195,45.5717,83.4092],[19.5247,45.5782,81.9566],[19.5315,45.5802,82.6589],[19.5486,45.5799,81.4589],[19.5576,45.582,81.5363],[19.5609,45.5845,81.9574],[19.564,45.6036,82.6617],[19.5572,45.617,89.7389],[19.5568,45.6227,99.5624],[19.5625,45.6301,104.6939],[19.5736,45.6389,102.5557],[19.5775,45.6476,103.4194],[19.5865,45.66,105.4882]]]]}}