{"type":"Feature","properties":{"ISO3166-1-Alpha-3":"SRB","country":"Republic of Serbia","fill":"#00F","id":"835","name":"Toplicki"},
"geometry":{"type": "Polygon","coordinates": [[[21.37625,43.37756,796.323],[21.37402,43.37766,791.0435],[21.36999,43.37875,772.9351],[21.36245,43.38195,925.2518],[21.35738,43.38345,900.147],[21.34441,43.38629,724.9747],[21.34245,43.38658,721.2277],[21.33966,43.38665,784.0458],[21.33697,43.38629,736.504],[21.33527,43.38567,737.2063],[21.32907,43.38304,760.067],[21.32524,43.38185,728.9139],[21.32183,43.38128,715.8547],[21.31816,43.38097,683.5214],[21.30323,43.38035,627.1942],[21.29765,43.37932,698.4341],[21.29284,43.37792,784.061],[21.28902,43.37647,729.8519],[21.26866,43.36738,577.2129],[21.25,43.3603,622.1782],[21.24597,43.35937,628.6536],[21.23527,43.35859,621.9051],[21.22137,43.35596,616.0543],[21.21285,43.35394,630.7816],[21.21264,43.35317,611.3009],[21.21135,43.3519,585.3217],[21.20897,43.35038,537.8085],[21.20484,43.34839,538.3582],[21.20199,43.34671,538.2059],[21.19977,43.34464,428.3434],[21.19817,43.34237,399.2836],[21.1975,43.34071,372.6037],[21.19724,43.33901,329.3597],[21.1975,43.33694,437.6887],[21.20018,43.33136,603.6476],[21.20039,43.32937,613.4382],[21.19915,43.32444,627.3294],[21.19843,43.32237,638.1428],[21.19734,43.32041,659.8972],[21.19584,43.31878,659.8972],[21.19388,43.3173,711.7844],[21.19161,43.31609,789.8389],[21.18489,43.31312,653.2822],[21.17812,43.30865,803.4746],[21.16866,43.30371,802.3835],[21.16525,43.30141,765.6795],[21.16401,43.30004,770.6856],[21.16308,43.29849,769.6299],[21.16101,43.29209,849.1725],[21.16008,43.29002,793.3233],[21.15874,43.28821,845.712],[21.15337,43.28302,1016.1243],[21.15249,43.28175,1012.8462],[21.15192,43.28028,962.6957],[21.15166,43.27875,962.6957],[21.15161,43.27297,752.5095],[21.15135,43.2709,839.2855],[21.15073,43.26896,905.0201],[21.14959,43.26739,792.0189],[21.14768,43.26627,831.3026],[21.14282,43.26447,822.6477],[21.14039,43.26299,866.7002],[21.13879,43.26124,939.3867],[21.13605,43.25702,984.1144],[21.13409,43.25483,975.6244],[21.13182,43.25312,1028.3812],[21.13042,43.2525,1028.3812],[21.12272,43.25007,1113.2177],[21.11678,43.24775,1062.901],[21.11213,43.24558,997.5479],[21.10634,43.24227,994.35],[21.10195,43.24046,845.1179],[21.09502,43.23819,681.1745],[21.08794,43.23628,684.7396],[21.08417,43.23576,690.3547],[21.0803,43.23555,689.6237],[21.07254,43.23591,628.796],[21.06893,43.23659,548.2313],[21.06629,43.23741,561.18],[21.05962,43.24026,603.5286],[21.05797,43.24108,581.8323],[21.05606,43.24253,605.6874],[21.05363,43.24692,540.5344],[21.0527,43.24814,553.2068],[21.05141,43.24914,564.9911],[21.04981,43.24982,564.9911],[21.04381,43.25178,543.9326],[21.03771,43.2546,650.0326],[21.03606,43.25498,626.5094],[21.03368,43.25498,558.5347],[21.03198,43.2546,549.4894],[21.02417,43.251,666.6556],[21.01663,43.24883,696.3036],[21.01188,43.24801,721.765],[21.00862,43.24801,683.136],[21.00123,43.24994,698.309],[20.99668,43.25142,637.1793],[20.98893,43.25465,745.3399],[20.98738,43.25503,700.1844],[20.98449,43.25493,669.989],[20.97999,43.25377,676.3694],[20.97157,43.25224,757.8032],[20.968,43.25108,799.6862],[20.96625,43.24961,843.2917],[20.96547,43.24775,886.9008],[20.96588,43.24522,958.8958],[20.96707,43.24175,1021.0331],[20.96697,43.23989,1026.899],[20.96583,43.23772,1040.7476],[20.96025,43.23173,896.4468],[20.9511,43.22465,917.4779],[20.94904,43.2216,934.6349],[20.94831,43.21907,824.7916],[20.9479,43.21377,960.955],[20.94837,43.20842,848.608],[20.95074,43.1999,1078.2126],[20.95193,43.18806,997.558],[20.95245,43.18522,1081.4142],[20.95338,43.18264,1112.59],[20.95529,43.17938,1176.9698],[20.9557,43.17814,1130.8719],[20.95555,43.17643,1047.2086],[20.95488,43.17527,1005.8194],[20.94707,43.16848,1104.0461],[20.94495,43.16713,1120.1418],[20.94315,43.16641,1106.0767],[20.93581,43.16424,1291.3595],[20.93255,43.16243,1220.6979],[20.93054,43.16057,1211.6658],[20.92614,43.15489,1405.2837],[20.92036,43.14987,1468.9347],[20.91503,43.14186,1222.2529],[20.9125,43.13881,1158.0315],[20.91249,43.13881,1158.0315],[20.99343,43.10415,1619.4006],[21.00516,43.09913,1533.8019],[21.02583,43.09337,1168.9182],[21.09259,43.09068,1126.072],[21.10851,43.08156,1044.5288],[21.12401,43.05828,818.0809],[21.13931,43.00583,695.6711],[21.14789,42.99262,681.4943],[21.16535,42.9851,730.9617],[21.17941,42.99058,771.0286],[21.19305,42.99789,751.6025],[21.2098,42.99588,691.6274],[21.2253,42.97355,697.1458],[21.22675,42.94252,637.6106],[21.23243,42.9109,624.859],[21.26054,42.88656,814.6772],[21.2716,42.88428,836.1146],[21.29496,42.88439,792.1385],[21.30633,42.88245,854.0624],[21.31697,42.87762,916.1292],[21.3364,42.86547,818.1834],[21.34674,42.86085,796.6064],[21.37878,42.85529,915.5771],[21.39893,42.85457,958.7285],[21.40844,42.847,839.2349],[21.40842,42.84174,845.2416],[21.43242,42.85803,902.6197],[21.43273,42.85963,954.4449],[21.43728,42.8686,909.6104],[21.43774,42.87085,983.3485],[21.43774,42.87596,901.3824],[21.43826,42.87793,878.1432],[21.43996,42.88028,878.5109],[21.44704,42.88692,768.1862],[21.44854,42.88922,806.6027],[21.44885,42.89108,858.4567],[21.44802,42.89503,866.9306],[21.44797,42.89697,861.1556],[21.44916,42.90307,950.528],[21.44895,42.905029999999996,936.8441],[21.44792,42.90901,949.5781],[21.44797,42.91035,949.5781],[21.44849,42.91167,930.5294],[21.45009,42.91345,951.3365],[21.45299,42.91552,984.6575],[21.45634,42.91733,928.3823],[21.46084,42.91929,931.8658],[21.46249,42.92027,906.4194],[21.46389,42.92146,883.1816],[21.46642,42.9248,857.5109],[21.46813,42.92658,864.0605],[21.47329,42.93128,915.4542],[21.47407,42.93255,878.1589],[21.47459,42.93443,872.0419],[21.47428,42.93637,894.8158],[21.47314,42.93836,940.4047],[21.46818,42.94448,1025.7399],[21.46709,42.94642,962.1163],[21.46487,42.9519,1029.3438],[21.46394,42.95322,1035.7915],[21.45924,42.95686,1041.2935],[21.45769,42.95857,1023.0668],[21.45443,42.96461,994.4832],[21.45133,42.96965,1173.9802],[21.45045,42.9718,1163.906],[21.45035,42.97324,1176.4285],[21.45076,42.97451,1131.2546],[21.45195,42.97552,1105.1138],[21.45371,42.97637,1142.6804],[21.46673,42.98027,1103.7661],[21.47552,42.98314,993.6083],[21.50177,42.99557,1307.9121],[21.50709,42.99846,1358.8009],[21.51272,43.00254,1230.9819],[21.51505,43.00477,1213.7373],[21.52058,43.01112,1215.5208],[21.52265,43.01296,1175.6995],[21.52502,43.01464,1149.0465],[21.53562,43.02037,927.5585],[21.53815,43.02159,895.7725],[21.54259,43.02332,831.9179],[21.54662,43.02456,760.4445],[21.5505,43.02513,757.8005],[21.55453,43.02538,719.9481],[21.58796,43.02528,456.3289],[21.59205,43.02546,446.092],[21.59603,43.0259,450.8246],[21.5984,43.02644,456.1225],[21.60073,43.02714,438.6721],[21.60357,43.02843,425.8724],[21.61246,43.03363,382.5992],[21.62119,43.03815,359.9032],[21.62476,43.04027,333.8475],[21.62636,43.04146,313.6196],[21.62765,43.04288,307.559],[21.63065,43.04848,326.7932],[21.63168,43.04996,330.3429],[21.63297,43.05127,337.1],[21.63458,43.05236,351.0257],[21.63814,43.05386,358.3459],[21.63995,43.05425,361.7218],[21.64259,43.05427,382.4537],[21.64439,43.05391,387.3652],[21.64874,43.05241,383.6192],[21.65535,43.04887,361.7505],[21.657,43.04841,355.9918],[21.65824,43.04833,355.9918],[21.66,43.04854,345.3827],[21.66181,43.04903,335.2246],[21.66594,43.05045,323.0791],[21.67395,43.05264,303.9587],[21.68336,43.05479,284.7599],[21.68481,43.05696,293.9837],[21.68822,43.06042,328.9212],[21.69266,43.06362,342.2817],[21.6986,43.06732,376.9943],[21.7048,43.07277,359.5727],[21.70889,43.07582,367.1154],[21.71168,43.07737,346.7526],[21.72346,43.0829,338.366],[21.73483,43.08703,312.2596],[21.74175,43.0891,279.6394],[21.74697,43.09016,276.7594],[21.75705,43.09107,256.8419],[21.76046,43.09156,252.4316],[21.77157,43.09422,251.1221],[21.77493,43.09564,251.2497],[21.79405,43.10698,270.202],[21.80092,43.11205,266.2676],[21.80723,43.11755,254.8778],[21.81389,43.12248,235.7103],[21.81488,43.12453,236.5547],[21.81482,43.12564,239.8314],[21.814,43.1275,241.9285],[21.81105,43.13145,255.1449],[21.80552,43.13778,233.1567],[21.80433,43.13773,236.616],[21.8018,43.13819,240.0186],[21.79922,43.13905,243.9216],[21.79674,43.14024,247.3704],[21.79415,43.14202,258.2158],[21.79255,43.14409,272.9751],[21.79219,43.14605,277.3108],[21.79271,43.14791,284.8533],[21.7941,43.14946,288.4471],[21.7956,43.15034,283.2899],[21.80139,43.15282,270.1225],[21.80278,43.15372,270.1225],[21.80433,43.15532,265.5247],[21.8047,43.15654,266.893],[21.80449,43.15778,276.7879],[21.80387,43.15892,287.4547],[21.79705,43.16522,261.7773],[21.78919,43.17432,207.0302],[21.78671,43.17669,218.6922],[21.77534,43.18563,201.2907],[21.77297,43.18801,201.4097],[21.76883,43.19287,203.466],[21.7632,43.19716,205.7379],[21.76186,43.19891,206.8394],[21.76108,43.20088,207.4628],[21.76098,43.20289,209.8184],[21.76139,43.20491,212.41],[21.76222,43.20641,216.2038],[21.76346,43.20778,222.446],[21.76697,43.21008,229.19],[21.77467,43.214,242.9025],[21.777,43.21553,252.0485],[21.77875,43.21721,263.3666],[21.77948,43.2184,263.3666],[21.77958,43.22015,263.3086],[21.77865,43.22201,270.4354],[21.77369,43.22708,219.912],[21.77193,43.22956,222.4782],[21.77069,43.2324,229.4597],[21.76594,43.24656,246.499],[21.7631,43.24524,246.8503],[21.76046,43.24457,248.523],[21.75808,43.24431,249.3446],[21.75565,43.24434,246.5995],[21.75338,43.24462,249.8568],[21.74367,43.24638,258.5709],[21.74056,43.24653,263.1556],[21.73762,43.24635,264.8915],[21.73162,43.24542,269.1154],[21.72894,43.24558,270.0738],[21.72517,43.24671,279.3956],[21.72341,43.2477,282.0243],[21.72191,43.24894,286.1284],[21.71912,43.25214,299.0445],[21.7171,43.254,306.6108],[21.71457,43.25529,311.7747],[21.71168,43.25596,318.7842],[21.70977,43.25602,319.1223],[21.70796,43.25565,324.4543],[21.70563,43.25441,321.6914],[21.70253,43.25131,308.6568],[21.70165,43.24994,305.5192],[21.70072,43.24744,299.9361],[21.70026,43.24475,293.3319],[21.69953,43.23659,271.5483],[21.69809,43.23095,257.628],[21.69778,43.22878,262.8857],[21.69783,43.22656,315.8446],[21.69829,43.22439,325.7961],[21.70021,43.21933,310.6069],[21.70124,43.21586,301.5021],[21.70134,43.21452,286.6507],[21.70103,43.21307,273.2576],[21.70021,43.21178,264.9357],[21.69891,43.2107,254.9052],[21.69736,43.20977,241.171],[21.69499,43.20873,241.4725],[21.69338,43.20847,252.7109],[21.69059,43.20878,267.1085],[21.68827,43.20969,276.8413],[21.68594,43.2109,278.1051],[21.67545,43.21739,292.149],[21.66574,43.22157,296.1098],[21.66228,43.22367,263.0454],[21.65871,43.22625,253.1718],[21.65499,43.22819,260.175],[21.65251,43.22894,273.9934],[21.64874,43.22976,278.0349],[21.63613,43.23142,288.7816],[21.63509,43.23121,288.7816],[21.63287,43.23126,279.3669],[21.6291,43.23194,272.9224],[21.6261,43.23292,281.248],[21.62321,43.23416,282.116],[21.61835,43.23672,298.9415],[21.61644,43.23798,312.7502],[21.61494,43.2394,306.7654],[21.61246,43.24299,297.554],[21.61101,43.24591,302.6182],[21.6106,43.24806,309.5195],[21.6107,43.25023,319.3284],[21.61132,43.25235,321.201],[21.6121,43.25374,327.3719],[21.61463,43.257,347.92],[21.6167,43.25886,373.8134],[21.6229,43.26271,426.2632],[21.62533,43.2649,418.9298],[21.626,43.26625,390.8335],[21.626,43.26757,384.8093],[21.62491,43.26932,386.5352],[21.623,43.27095,377.5534],[21.62145,43.27188,387.6002],[21.61964,43.2726,390.8391],[21.61675,43.27328,404.734],[21.60739,43.27462,422.3894],[21.60517,43.27524,445.76],[21.60321,43.27612,451.4388],[21.60156,43.27726,443.2811],[21.59892,43.27989,450.089],[21.59794,43.28123,444.4363],[21.59577,43.28532,417.2287],[21.5936,43.28834,405.8772],[21.58941,43.29203,402.342],[21.58807,43.29359,409.9687],[21.58714,43.29529,411.5094],[21.586,43.30012,422.4805],[21.58455,43.30346,434.0594],[21.58347,43.30495,439.9919],[21.57964,43.30873,453.9881],[21.57871,43.3102,461.6439],[21.57815,43.31172,471.144],[21.57815,43.31374,481.4041],[21.57871,43.31529,485.5732],[21.5797,43.31674,483.8333],[21.58373,43.32046,487.347],[21.58621,43.32345,511.0366],[21.58951,43.32831,407.1622],[21.59225,43.33343,472.9174],[21.59282,43.3358,507.3092],[21.59386,43.34919,569.4545],[21.57701,43.34459,543.5055],[21.57029,43.34299,532.7386],[21.56662,43.3425,525.8868],[21.55913,43.34211,595.8804],[21.54792,43.34221,612.5935],[21.54073,43.34268,658.6964],[21.53732,43.3433,660.4723],[21.52941,43.34599,725.1204],[21.52647,43.34666,711.9468],[21.51613,43.34862,776.5184],[21.51303,43.34898,809.09],[21.50983,43.34914,786.9529],[21.50342,43.34893,713.8795],[21.49334,43.34738,863.2726],[21.49009,43.34743,856.4346],[21.48735,43.34831,845.0679],[21.48513,43.34991,894.6609],[21.47944,43.35663,1075.8544],[21.46942,43.36782,982.8098],[21.46342,43.36666,867.3514],[21.46007,43.36635,875.2601],[21.45335,43.36619,912.3522],[21.45019,43.36637,941.1663],[21.4472,43.36678,853.424],[21.43996,43.36877,960.0955],[21.43397,43.37079,1059.7723],[21.43076,43.37216,1088.2896],[21.42973,43.37296,994.2551],[21.42865,43.37423,976.2485],[21.42508,43.37996,958.2549],[21.42312,43.3818,904.7443],[21.42053,43.38324,1007.7678],[21.41831,43.38404,1010.2555],[21.41588,43.38456,1015.202],[21.41257,43.38479,1115.3904],[21.40937,43.38466,1187.2],[21.40648,43.38412,1195.27],[21.40431,43.38288,1131.0341],[21.40379,43.38159,1092.9012],[21.4041,43.38076,1092.9012],[21.39914,43.38066,1205.9835],[21.39077,43.38014,1078.6938],[21.38457,43.37926,915.08],[21.37893,43.37792,894.4575],[21.37625,43.37756,796.323]]]}}