{"type":"Feature","properties":{"GID_1":"SRB.22_1","GID_0":"SRB","country":"Serbia","province":"Toplički","VARNAME_1":"Toplica","NL_NAME_1":"Топлички","TYPE_1":"Okrug","ENGTYPE_1":"District","CC_1":"NA","HASC_1":"RS.TO","ISO_1":"NA","name":"Toplički.province"},
"geometry":{"type": "MultiPolygon","coordinates": [[[[20.9243,43.1035,1310.2329],[20.9451,43.1108,1222.4086],[20.9576,43.1123,1440.8961],[20.9689,43.1157,1716.9238],[20.9782,43.1159,1529.1183],[20.9964,43.1098,1591.51],[21.0247,43.09,1083.1245],[21.0317,43.0889,1030.7279],[21.055,43.0962,1099.4941],[21.0581,43.1075,1236.4731],[21.0613,43.1097,1287.0298],[21.0649,43.1099,1298.9264],[21.0714,43.1065,1180.196],[21.0818,43.0945,1025.772],[21.0874,43.0916,1096.7864],[21.0955,43.0903,1076.0148],[21.1111,43.0911,870.4139],[21.1153,43.0895,849.2963],[21.1248,43.0734,780.7437],[21.1237,43.0676,824.0547],[21.1166,43.0592,808.2971],[21.1163,43.0527,763.6419],[21.1279,43.0357,758.1904],[21.1345,43.0138,729.1146],[21.1443,43.0066,688.9333],[21.145,43.0009,688.3098],[21.1435,42.9937,673.5305],[21.1452,42.9893,671.2559],[21.1517,42.9837,664.3223],[21.1575,42.9813,672.9645],[21.1682,42.9825,750.4716],[21.1737,42.9869,779.4055],[21.1739,42.9959,831.6869],[21.1763,43.0007,821.1641],[21.1826,43.0044,774.8257],[21.2,42.9998,714.5289],[21.2129,42.9908,718.975],[21.2154,42.9861,686.9691],[21.2174,42.9706,637.701],[21.2241,42.9586,645.2507],[21.2212,42.9472,628.1265],[21.2161,42.9383,611.4463],[21.2162,42.935,614.5525],[21.2363,42.9071,627.5897],[21.2542,42.8923,740.5931],[21.2578,42.8795,762.3954],[21.2609,42.8775,761.9506],[21.2654,42.8775,831.0443],[21.2894,42.8853,797.5624],[21.3249,42.8823,927.0541],[21.3319,42.8785,779.6188],[21.3365,42.8732,745.1701],[21.3381,42.8694,812.1495],[21.3379,42.8633,793.6688],[21.3404,42.8607,753.8647],[21.3537,42.8544,779.0726],[21.3743,42.8505,829.548],[21.3997,42.8571,927.2924],[21.4324,42.858,902.6197],[21.4372,42.8686,909.6104],[21.4383,42.8779,878.1432],[21.4485,42.8892,806.6027],[21.4485,42.9117,930.5294],[21.4639,42.9215,883.1816],[21.4733,42.9313,915.4542],[21.4746,42.9344,872.0419],[21.4649,42.9519,1029.3438],[21.4577,42.9586,1023.0668],[21.4513,42.9697,1173.9802],[21.4503,42.9732,1176.4285],[21.452,42.9755,1105.1138],[21.4755,42.9831,993.6083],[21.5017,42.9956,1307.9121],[21.5127,43.0026,1230.9819],[21.525,43.0146,1149.0465],[21.5426,43.0233,831.9179],[21.5545,43.0254,719.9481],[21.5984,43.0264,456.1225],[21.6247,43.0403,333.8475],[21.633,43.0513,337.1],[21.6381,43.0538,358.3459],[21.6444,43.0539,387.3652],[21.6582,43.0483,355.9918],[21.6834,43.0548,284.7599],[21.6882,43.0604,323.0706],[21.7089,43.0758,367.1154],[21.7234,43.0829,338.366],[21.7417,43.0891,279.6394],[21.7605,43.0916,252.4316],[21.7749,43.0956,251.2497],[21.794,43.107,270.202],[21.8149,43.1245,236.5547],[21.8055,43.1378,233.1567],[21.7968,43.1402,247.3704],[21.7925,43.1441,275.536],[21.7941,43.1495,288.4471],[21.8043,43.1553,265.5247],[21.8038,43.1589,287.4547],[21.7892,43.1743,207.0302],[21.7619,43.1989,206.8394],[21.761,43.2029,209.8184],[21.7635,43.2078,222.446],[21.777,43.2155,252.0485],[21.7795,43.2184,263.3666],[21.7786,43.222,270.4354],[21.7719,43.2295,222.4782],[21.7659,43.2466,246.499],[21.7581,43.2443,249.3446],[21.7406,43.2465,263.1556],[21.7289,43.2456,270.0738],[21.7234,43.2477,282.0243],[21.7145,43.2553,311.7747],[21.708,43.2556,324.4543],[21.7025,43.2513,308.6568],[21.7003,43.2448,293.3319],[21.6978,43.2288,262.8857],[21.701,43.2131,273.2576],[21.6934,43.2085,252.7109],[21.6883,43.2097,276.8413],[21.655,43.2282,260.175],[21.6291,43.2319,272.9224],[21.6149,43.2394,306.7654],[21.611,43.2459,302.6182],[21.6113,43.2523,321.201],[21.6146,43.257,347.92],[21.6253,43.2649,418.9298],[21.626,43.2676,384.8093],[21.6196,43.2726,390.8391],[21.6074,43.2746,422.3894],[21.6015,43.2773,443.2811],[21.5881,43.2936,409.9687],[21.5846,43.3035,434.0594],[21.5782,43.3117,471.144],[21.5787,43.3153,485.5732],[21.5862,43.3235,511.0366],[21.5923,43.3335,472.9174],[21.5939,43.3492,569.4545],[21.5703,43.343,518.5118],[21.5591,43.3421,595.8804],[21.5407,43.3427,658.6964],[21.513,43.349,809.09],[21.4901,43.3474,856.4346],[21.4851,43.3499,894.6609],[21.4694,43.3678,982.8098],[21.4534,43.3662,912.3522],[21.44,43.3688,960.0955],[21.4308,43.3722,1088.2896],[21.4251,43.38,958.2549],[21.4183,43.384,1010.2555],[21.4094,43.3847,1187.2],[21.4043,43.3829,1131.0341],[21.4041,43.3808,1092.9012],[21.3763,43.3775,796.323],[21.3574,43.3835,900.147],[21.3397,43.3867,784.0458],[21.3252,43.3818,728.9139],[21.2976,43.3793,698.4341],[21.25,43.3603,622.1782],[21.2128,43.354,630.7816],[21.202,43.3467,538.2059],[21.1982,43.3424,399.2836],[21.1975,43.3369,437.6887],[21.2004,43.3294,613.4382],[21.1973,43.3204,659.8972],[21.164,43.3,770.6856],[21.1601,43.29,793.3233],[21.1525,43.2817,1012.8462],[21.1513,43.2709,839.2855],[21.1496,43.2674,792.0189],[21.1404,43.263,866.7002],[21.1318,43.2531,1028.3812],[21.1019,43.2405,845.1179],[21.0842,43.2358,690.3547],[21.0689,43.2366,548.2313],[21.058,43.2411,581.8323],[21.0514,43.2491,564.9911],[21.0361,43.255,626.5094],[21.0119,43.248,721.765],[21.0012,43.2499,698.309],[20.9874,43.255,700.1844],[20.968,43.2511,799.6862],[20.9655,43.2478,886.9008],[20.9671,43.2418,1021.0331],[20.9658,43.2377,1040.7476],[20.9511,43.2246,917.4779],[20.9483,43.2191,824.7916],[20.9484,43.2084,848.608],[20.9524,43.1852,1081.4142],[20.9557,43.1781,1130.8719],[20.9549,43.1753,1005.8194],[20.945,43.1671,1120.1418],[20.9326,43.1624,1220.6979],[20.9204,43.1499,1468.9347],[20.9115,43.1376,1127.72],[20.8939,43.1258,951.0901],[20.9003,43.1145,1117.6016],[20.9243,43.1035,1310.2329]]]]}}