{"type":"Feature","properties":{"GID_2":"SRB.6.1_1","GID_0":"SRB","country":"Serbia","GID_1":"SRB.6_1","province":"Južno-Banatski","NL_NAME_1":"Јужнобанатски","county":"Alibunar","VARNAME_2":"Krsturnica","NL_NAME_2":"Алибунар","TYPE_2":"Opštine","ENGTYPE_2":"Town|Municipal","CC_2":"NA","HASC_2":"NA","name":"Alibunar.county"},
"geometry":{"type": "MultiPolygon","coordinates": [[[[20.7614,45.0236,107.5072],[20.7683,45.0155,109.7543],[20.7781,45.0079,112.5824],[20.794,44.9996,115.9773],[20.81,44.9947,125.3219],[20.8183,44.9895,128.0143],[20.8318,44.9782,130.2856],[20.8338,44.9658,121.0234],[20.8433,44.9574,119.8712],[20.8493,44.9546,121.2011],[20.8574,44.9535,126.3581],[20.8688,44.9569,137.6381],[20.8777,44.9664,148.2592],[20.8914,44.9757,147.0182],[20.8854,44.9797,146.4635],[20.8829,44.9864,145.6326],[20.8867,44.9936,145.9646],[20.8917,44.9947,145.4514],[20.9076,44.9782,146.8272],[20.9197,44.9705,145.6846],[20.9311,44.958,148.5747],[20.9426,44.9516,146.8871],[20.9479,44.939,145.0504],[20.9581,44.9248,144.0753],[20.9614,44.9238,143.8909],[20.9671,44.9252,145.7444],[20.9783,44.9312,148.044],[20.9933,44.9523,159.3406],[20.9963,44.9548,147.0233],[21.0,44.9554,147.9315],[21.01,44.9505,154.1639],[21.0113,44.9403,154.8352],[21.0135,44.9361,159.3333],[21.0342,44.9244,166.366],[21.0457,44.9102,157.4383],[21.0634,44.9279,149.5691],[21.0708,44.9381,148.5425],[21.0827,44.9473,158.1376],[21.0816,44.951,154.2044],[21.0702,44.9603,161.4026],[21.068,44.9661,158.6313],[21.0765,44.986,153.738],[21.0748,44.9999,145.5774],[21.0842,45.013,124.0279],[21.0879,45.0344,104.5857],[21.0908,45.0418,92.6004],[21.0924,45.0576,83.169],[21.0977,45.0687,80.3671],[21.0967,45.077,78.9559],[21.0879,45.0846,75.3676],[21.0857,45.0897,75.0365],[21.090699999999998,45.0961,75.0782],[21.106,45.1021,74.9689],[21.1138,45.1074,74.9082],[21.1165,45.1111,74.9594],[21.0212,45.1611,75.5119],[20.9984,45.1697,77.1053],[20.9736,45.1832,73.5181],[20.9566,45.1895,75.2803],[20.8833,45.2237,76.382],[20.843,45.2392,77.0604],[20.8242,45.2308,77.5358],[20.7966,45.2099,88.5873],[20.7663,45.1687,125.1341],[20.7661,45.1646,124.928],[20.768,45.1617,124.7802],[20.7931,45.1481,124.8474],[20.8033,45.1323,127.8244],[20.8175,45.1291,125.7334],[20.8207,45.1253,124.945],[20.8097,45.1034,129.8864],[20.7959,45.0908,132.8079],[20.79,45.0814,130.1175],[20.7842,45.067,129.677],[20.7837,45.0579,131.2209],[20.7797,45.0504,126.0355],[20.7817,45.0414,127.7835],[20.7804,45.0372,124.6191],[20.7716,45.029,116.7045],[20.7614,45.0236,107.5072]]]]}}