{"type": "Feature","bbox": [20.3046,44.7588,20.4307,44.8154],"geometry": {"type": "MultiPolygon","coordinates": [[[[20.4071,44.7852,76.2062],[20.4183,44.7841,108.2057],[20.4307,44.7864,85.3394],[20.4285,44.7973,68.0],[20.4262,44.801,72.6089],[20.4181,44.807,77.8619],[20.3961,44.8147,75.5899],[20.3885,44.8154,98.4562],[20.3756,44.8118,100.6947],[20.3642,44.811,100.6989],[20.3531,44.812,101.8822],[20.3415,44.8153,101.4884],[20.3247,44.8116,99.8056],[20.3046,44.8099,97.5477],[20.3173,44.7965,98.494],[20.3194,44.7724,71.9234],[20.3308,44.7588,70.9741],[20.3613,44.7734,74.1797],[20.4071,44.7852,76.2062]]]]}
,"properties": {"GID_2": "SRB.3.6_1","GID_0": "SRB","country": "Serbia","GID_1": "SRB.3_1","province": "GradBeograd","NL_NAME_1": "Београд","county": "NoviBeograd","VARNAME_2": "NewBelgrade","NL_NAME_2": "НовиБеоград","TYPE_2": "Opštine","ENGTYPE_2": "Town|Municipal","CC_2": "NA","HASC_2": "NA","name": "Novi_Beograd.county","area_km2": 36.17132,"hist_schema_id": "Elevation0-9000","hist_area_km2": {"75": 28.33387,"100": 7.83745}}}