{"type":"Feature","properties":{"GID_2":"SRB.13.1_1","GID_0":"SRB","country":"Serbia","GID_1":"SRB.13_1","province":"Podunavski","NL_NAME_1":"Подунавски","county":"Smederevo","VARNAME_2":"Semendria|Szendrő|Vég-Szendrő|Se","NL_NAME_2":"Смедерево","TYPE_2":"Opštine","ENGTYPE_2":"Town|Municipal","CC_2":"NA","HASC_2":"NA","name":"Smederevo.county"},
"geometry":{"type": "MultiPolygon","coordinates": [[[[21.0264,44.6911,69.8086],[21.0158,44.6949,74.4805],[21.0033,44.6964,69.025],[20.9913,44.6959,68.7636],[20.977,44.6919,68.9837],[20.9641,44.6867,69.9585],[20.9546,44.6793,69.9291],[20.9282,44.6702,72.6606],[20.9173,44.6617,136.9843],[20.9081,44.6509,132.3384],[20.8853,44.6403,161.8217],[20.8627,44.6386,194.5264],[20.8381,44.6331,163.5579],[20.8136,44.6304,205.6483],[20.7782,44.6329,171.8587],[20.7714,44.6252,225.5238],[20.771,44.6187,216.1204],[20.7725,44.6142,174.5514],[20.7814,44.6067,212.9082],[20.7853,44.6001,159.7888],[20.7852,44.5949,136.3272],[20.7807,44.5892,151.5981],[20.7856,44.5845,116.9035],[20.7992,44.5781,161.1711],[20.8057,44.5678,182.3574],[20.8064,44.5632,223.4912],[20.8006,44.5593,240.555],[20.786,44.5569,247.4638],[20.762,44.5487,203.5063],[20.7529,44.5417,275.0966],[20.7371,44.533,217.7018],[20.7565,44.5157,217.5769],[20.7585,44.5117,280.5354],[20.7591,44.5022,295.2317],[20.7621,44.4975,318.3979],[20.7877,44.4881,240.8567],[20.8099,44.497,233.8299],[20.8448,44.506,221.8594],[20.8693,44.5066,151.2485],[20.9024,44.5021,159.2003],[20.9139,44.4992,145.2616],[20.9425,44.4847,136.3694],[20.9403,44.4807,132.8256],[20.9289,44.4759,130.7874],[20.9226,44.4701,144.802],[20.9186,44.4638,147.363],[20.9194,44.4604,153.5489],[20.9387,44.448,141.2947],[20.9583,44.4405,220.2742],[20.9635,44.4419,228.9881],[20.9697,44.4494,201.6375],[20.9947,44.4682,142.9917],[21.0014,44.4778,154.0534],[21.0065,44.4802,142.2134],[21.0116,44.4782,163.2651],[21.0114,44.4754,166.0194],[21.0048,44.4682,169.7018],[21.0048,44.4634,182.9914],[21.0077,44.4595,183.0457],[21.0116,44.4586,188.529],[21.0209,44.464,167.8704],[21.0312,44.4652,163.5092],[21.0711,44.4532,86.3866],[21.079,44.454,84.5765],[21.0895,44.4578,85.4033],[21.0949,44.4613,83.9828],[21.1159,44.4835,82.7895],[21.1307,44.504,83.9775],[21.1283,44.5074,83.0892],[21.1157,44.5128,81.2254],[21.1129,44.5179,80.6472],[21.115,44.5225,80.8204],[21.1243,44.5306,81.3226],[21.1316,44.5428,76.6525],[21.1326,44.5484,73.6704],[21.1295,44.5535,81.3055],[21.1252,44.5556,83.3755],[21.0881,44.561,78.0903],[21.0595,44.5812,75.6549],[21.0582,44.584,76.0958],[21.0601,44.5887,75.1384],[21.0735,44.5986,80.224],[21.0671,44.6023,75.9105],[21.0552,44.6032,75.3158],[21.0485,44.6069,74.2691],[21.0437,44.612,74.2691],[21.0394,44.6236,73.276],[21.0302,44.6341,75.8989],[21.0294,44.638,72.2305],[21.0311,44.6442,72.1383],[21.0226,44.6511,72.0469],[21.0207,44.6547,71.3184],[21.0296,44.6654,72.4314],[21.0294,44.6695,73.5872],[21.0227,44.6808,70.6217],[21.0264,44.6911,69.8086]]]]}}