{"type":"Feature","properties":{"ISO3166-1-Alpha-3":"SRB","country":"Republic of Serbia","fill":"#000","id":"281","name":"Sremski"},
"geometry":{"type": "Polygon","coordinates": [[[19.22594,45.16195,129.1205],[19.20454,45.16288,112.0207],[19.18532,45.16805,115.8305],[19.17457,45.1758,133.5068],[19.15576,45.19497,133.7797],[19.14387,45.19952,130.5835],[19.12186,45.1958,122.8593],[19.12879,45.18107,105.5613],[19.1417,45.16215,83.5765],[19.13767,45.14603,80.7593],[19.11607,45.14288,81.5734],[19.06006,45.14686,83.0311],[19.04486,45.13725,79.345],[19.04621,45.12836,81.8734],[19.05416,45.12061,81.7761],[19.06409,45.11358,82.2818],[19.07153,45.10707,79.1176],[19.07918,45.09461,88.9412],[19.08228,45.08495,80.4063],[19.086,45.06092,89.0329],[19.09427,45.03141,80.3113],[19.0954,45.02092,80.3698],[19.09323,45.01152,91.6143],[19.08848,44.99948,108.0903],[19.08517,44.98728,105.0754],[19.08724,44.9771,105.3187],[19.09809,44.97002,101.743],[19.11855,44.97555,95.931],[19.12765,44.96842,89.0248],[19.13168,44.95317,106.2247],[19.12455,44.94594,107.1106],[19.11308,44.94243,106.0333],[19.10357,44.93824,108.265],[19.08786,44.91933,109.6705],[19.07866,44.91085,81.5648],[19.06667,44.90568,81.9542],[19.0521,44.90698,110.2723],[19.03194,44.92263,82.1345],[19.0184,44.92568,81.7136],[18.99143,44.91493,83.684],[18.99432,44.89483,110.2144],[19.01582,44.86563,84.2914],[19.04776,44.87271,81.1687],[19.06843,44.87483,79.6663],[19.08455,44.87897,86.1532],[19.17426,44.92542,93.0309],[19.18687,44.92754,104.0156],[19.19317,44.92155,76.3924],[19.19689,44.91318,83.0412],[19.20186,44.90837,85.074],[19.21188,44.90837,109.9525],[19.22955,44.91375,96.9781],[19.23948,44.91514,97.6503],[19.28381,44.90837,83.7926],[19.29301,44.9094,72.5],[19.30128,44.91235,89.2798],[19.31017,44.91235,105.1766],[19.33022,44.89871,73.645],[19.34014,44.89623,85.4778],[19.35027,44.897,98.8082],[19.35296,44.89809,72.0],[19.35316,44.89902,73.5523],[19.35698,44.89588,84.5718],[19.35699,44.89587,84.5718],[19.35901,44.90112,83.3443],[19.359,44.90113,83.3443],[19.34124,44.90967,81.5219],[19.32486,44.92226,84.4428],[19.32487,44.92226,84.4428],[19.34057,44.92153,73.3503],[19.37157,44.91386,72.0],[19.38635,44.91541,79.3667],[19.39751,44.9235,85.0627],[19.39565,44.93179,72.0],[19.40609,44.94164,78.0023],[19.40821,44.94189,81.0114],[19.41126,44.94189,80.1187],[19.41446,44.94156,81.8068],[19.41932,44.94029,80.1451],[19.42211,44.93915,80.1759],[19.43358,44.93321,81.1578],[19.43896,44.92975,88.2109],[19.44294,44.92634,87.4134],[19.44443,44.92449,82.4282],[19.44444,44.92448,82.4282],[19.44748,44.91817,83.0116],[19.45146,44.9119,82.5362],[19.45441,44.90563,82.5347],[19.45441,44.90562,82.5347],[19.45627,44.9036,81.6425],[19.4588,44.90195,80.1803],[19.46087,44.90107,80.0838],[19.46495,44.89983,86.6034],[19.46691,44.89957,81.9867],[19.46909,44.89967,83.4199],[19.47126,44.90019,81.0524],[19.47394,44.90138,81.1375],[19.47792,44.90417,80.6121],[19.48257,44.90867,80.4703],[19.48655,44.91174,80.7733],[19.48919,44.91337,81.1101],[19.49342,44.91528,80.487],[19.49632,44.91634,81.0851],[19.49916,44.91693,81.0633],[19.50056,44.91693,81.7478],[19.50355,44.91637,78.8031],[19.50603,44.91533,78.652],[19.50841,44.91399,80.0441],[19.51761,44.90779,90.4608],[19.52035,44.90621,85.9587],[19.5265,44.90399,79.2533],[19.53167,44.90288,78.0099],[19.54143,44.9019,78.9294],[19.54898,44.90076,79.2853],[19.55208,44.9005,78.0147],[19.55523,44.90055,77.0227],[19.55828,44.90089,77.8023],[19.56236,44.90195,77.9791],[19.57208,44.90515,81.7733],[19.58954,44.91146,77.9434],[19.59657,44.91347,77.5729],[19.60034,44.91399,76.4646],[19.60427,44.91425,76.592],[19.61238,44.91435,77.14],[19.63336,44.91394,78.1512],[19.64137,44.91321,76.6679],[19.64468,44.91272,76.1205],[19.67347,44.93448,104.9195],[19.68308,44.93187,106.0249],[19.70023,44.9297,101.2578],[19.72209,44.92102,95.197],[19.74896,44.91843,80.5611],[19.75686,44.91541,80.6734],[19.75687,44.91541,80.6734],[19.75868,44.90495,73.0387],[19.75325,44.8921,76.8334],[19.71,44.83022,99.9736],[19.70065,44.80759,85.8363],[19.70504,44.78878,81.3614],[19.70504,44.78878,81.3614],[19.71134,44.78005,79.3592],[19.71134,44.78004,79.3592],[19.71543,44.77196,76.9297],[19.72033,44.7645,77.4635],[19.72034,44.76449,77.4635],[19.72897,44.75777,77.0042],[19.7453,44.75224,77.554],[19.79661,44.75157,99.7927],[19.84627,44.73348,101.3135],[19.87278,44.71974,99.2601],[19.88968,44.70687,95.4049],[19.91397,44.69545,84.5249],[19.98265,44.69591,102.2212],[20.01011,44.68887,74.5649],[20.01014,44.68886,74.5649],[19.98962,44.6786,77.197],[19.93081,44.65928,72.5195],[19.92074,44.64791,71.5],[19.92074,44.64791,71.5],[19.94043,44.63178,79.8668],[19.97338,44.64118,103.6915],[19.9734,44.64119,103.6915],[20.00662,44.6617,77.3963],[20.02719,44.67891,68.0],[20.04548,44.69026,91.2882],[20.09411,44.70816,75.0595],[20.09819,44.72,80.7342],[20.10078,44.72341,74.6876],[20.1031,44.72904,77.2236],[20.10352,44.73043,76.4551],[20.10341,44.73237,76.3664],[20.10264,44.73418,76.9201],[20.10263,44.73419,76.9201],[20.09726,44.73909,76.3984],[20.09726,44.7391,76.3984],[20.0969,44.7401,77.2506],[20.09752,44.7416,77.0621],[20.09876,44.74253,76.3851],[20.10471,44.74534,76.9218],[20.1062,44.74625,76.5302],[20.10765,44.74785,77.2558],[20.10863,44.74976,77.3613],[20.11044,44.75457,77.3966],[20.11044,44.75653,78.2196],[20.10972,44.75842,77.4581],[20.10971,44.75842,77.4581],[20.10817,44.75994,77.7647],[20.10651,44.76072,77.8363],[20.09861,44.76252,77.9154],[20.09153,44.76475,77.6515],[20.0877,44.76645,77.8502],[20.08403,44.76873,77.6186],[20.08269,44.77017,77.1255],[20.08268,44.77018,77.1255],[20.08176,44.77177,76.7873],[20.08093,44.77457,76.872],[20.08068,44.77746,76.9528],[20.08093,44.78038,76.686],[20.08176,44.78314,76.4482],[20.08259,44.78454,76.2444],[20.08517,44.78764,76.5432],[20.08719,44.78898,76.53],[20.08894,44.78955,76.1273],[20.09096,44.78981,75.7475],[20.0938,44.78981,75.8265],[20.09783,44.7895,78.0687],[20.10078,44.7896,79.5843],[20.10775,44.79108,85.0639],[20.11452,44.79338,83.9773],[20.11819,44.79508,75.7544],[20.12171,44.79735,76.4241],[20.12295,44.79878,76.5033],[20.12377,44.80038,76.6599],[20.1245,44.80288,76.5299],[20.12512,44.81379,76.8141],[20.12553,44.81648,76.2994],[20.12646,44.81901,76.2426],[20.12791,44.82118,76.411],[20.13153,44.82536,76.8776],[20.13302,44.82759,76.3808],[20.13385,44.82986,76.9562],[20.13457,44.8372,76.0763],[20.13597,44.84417,76.224],[20.14703,44.86014,75.8948],[20.15013,44.86541,76.2025],[20.15333,44.87528,75.1976],[20.15375,44.8775,75.5811],[20.15406,44.88345,74.8239],[20.15437,44.88495,74.0674],[20.15504,44.88637,74.3073],[20.15685,44.8882,74.5024],[20.16129,44.89104,75.0621],[20.16356,44.89208,74.863],[20.16574,44.8927,73.9134],[20.16801,44.89303,74.4826],[20.17101,44.89303,73.4997],[20.17917,44.89203,74.2941],[20.18718,44.89161,73.645],[20.19504,44.89177,74.742],[20.19808,44.89218,75.2547],[20.20082,44.8929,75.3271],[20.20274,44.89381,75.5815],[20.2156,44.90107,76.5253],[20.2233,44.90629,75.7841],[20.22992,44.90949,75.1265],[20.23596,44.9129,76.5768],[20.23875,44.9142,76.5908],[20.24315,44.91507,76.8176],[20.2463,44.91533,76.6946],[20.25855,44.91549,78.2249],[20.28092,44.91931,84.5546],[20.32474,44.92916,69.5],[20.32473,44.92917,69.5],[20.31885,44.9344,74.081],[20.30325,44.95466,74.5186],[20.30324,44.95466,74.5186],[20.29069,44.9775,70.0],[20.29813,44.9775,74.0031],[20.30402,44.99393,70.0],[20.33332,45.01052,71.7821],[20.35694,45.0345,70.0],[20.34593,45.07307,75.019],[20.34592,45.07308,75.019],[20.33901,45.080329999999996,72.3438],[20.33901,45.08034,72.3438],[20.339,45.08035,72.3438],[20.28949,45.13223,72.5784],[20.27781,45.14102,73.4625],[20.25699,45.15673,78.4589],[20.22236,45.17549,74.92],[20.185,45.18497,71.5],[20.06475,45.17549,72.5787],[20.04232,45.17776,74.3392],[19.98558,45.18977,71.6073],[19.97385,45.17471,116.5932],[19.97277,45.17365,121.1186],[19.97225,45.17249,121.1186],[19.97235,45.17114,135.5549],[19.97318,45.1698,151.1949],[19.97514,45.1681,187.9575],[19.97948,45.16489,239.9029],[19.98093,45.16339,247.1018],[19.9815,45.16189,247.5952],[19.98114,45.16081,247.5952],[19.98026,45.15975,232.7593],[19.97804,45.15823,195.5869],[19.97344,45.15577,240.7587],[19.96419,45.15135,241.3962],[19.96104,45.15001,252.1912],[19.95768,45.14892,256.3324],[19.95416,45.14805,249.3178],[19.94093,45.14652,261.022],[19.93628,45.14562,246.4214],[19.92972,45.14458,217.5037],[19.91261,45.14257,351.4696],[19.90574,45.14303,374.437],[19.90398,45.14337,404.1342],[19.8997,45.14484,361.7642],[19.89804,45.14515,374.4185],[19.88378,45.14562,480.2677],[19.86807,45.14644,398.3934],[19.866,45.14701,405.1874],[19.86228,45.14745,445.3122],[19.85334,45.14789,445.93],[19.83608,45.14815,450.6774],[19.8197,45.14815,422.2971],[19.81179,45.14779,362.5596],[19.80807,45.14722,414.1474],[19.79913,45.14526,311.7491],[19.79732,45.1451,283.5359],[19.79531,45.14536,296.3423],[19.79355,45.14603,313.8055],[19.792,45.14712,315.8309],[19.78384,45.15704,401.1488],[19.77309,45.16711,332.0976],[19.76327,45.16029,427.9877],[19.758,45.15693,415.5792],[19.75541,45.15554,420.9778],[19.75268,45.15453,455.5078],[19.74952,45.15394,468.8849],[19.73624,45.15321,471.8189],[19.73314,45.15264,470.8765],[19.73045,45.15171,520.8453],[19.72524,45.14944,414.9224],[19.7181,45.14696,447.9319],[19.69878,45.14172,479.221],[19.64069,45.14208,387.5547],[19.62839,45.142,418.7462],[19.62441,45.14174,396.0246],[19.62059,45.14128,419.3145],[19.60612,45.13833,421.7278],[19.60307,45.13818,411.7158],[19.60008,45.13838,403.4359],[19.58984,45.14047,351.5882],[19.57537,45.14417,359.3616],[19.56494,45.14644,333.9303],[19.56111,45.14696,287.2889],[19.54912,45.14768,280.4028],[19.54519,45.1482,311.5348],[19.54282,45.14877,305.7834],[19.53863,45.1505,278.0453],[19.53155,45.15497,243.9484],[19.52938,45.1559,233.0407],[19.527,45.15662,216.6309],[19.5238,45.15724,217.5951],[19.51713,45.15823,281.4694],[19.51471,45.15879,266.5227],[19.51254,45.15957,251.8775],[19.50969,45.16133,260.3964],[19.50494,45.16531,240.1592],[19.50401,45.16572,211.9102],[19.48101,45.1673,179.4945],[19.47662,45.16784,206.2475],[19.47419,45.16846,199.4152],[19.47202,45.16936,205.1403],[19.46685,45.1728,213.9262],[19.46473,45.17365,216.4947],[19.46241,45.17409,215.7485],[19.46091,45.17414,216.4292],[19.45735,45.17357,208.9405],[19.45228,45.17208,191.7776],[19.45011,45.1712,209.4244],[19.44825,45.17001,208.1758],[19.44711,45.16841,190.1297],[19.4467,45.16665,172.9667],[19.44737,45.16438,159.9381],[19.44809,45.1636,179.815],[19.43662,45.15179,229.6614],[19.43481,45.15006,191.3786],[19.43244,45.14823,162.7997],[19.43115,45.14737,159.3615],[19.43047,45.14701,151.1169],[19.4297,45.14665,197.2271],[19.42887,45.14634,197.2271],[19.42804,45.14613,211.5773],[19.42717,45.14608,211.5773],[19.42634,45.14616,211.5773],[19.42546,45.14637,210.1495],[19.42376,45.14693,197.1175],[19.41859,45.14885,211.1564],[19.41781,45.14921,203.5857],[19.41709,45.14965,203.5857],[19.41652,45.15014,203.5857],[19.416,45.15068,190.6955],[19.41425,45.15311,214.5724],[19.41321,45.15425,201.3659],[19.41264,45.15482,201.3659],[19.4113,45.1558,220.3347],[19.40861,45.15745,231.5951],[19.40727,45.15854,236.4057],[19.40009,45.16556,228.8209],[19.39393,45.17162,281.2198],[19.39068,45.16934,254.057],[19.30428,45.16655,185.1451],[19.29942,45.16898,208.8868],[19.29136,45.17771,197.8315],[19.28671,45.17952,205.7413],[19.27947,45.17724,178.006],[19.27575,45.17285,206.8286],[19.27276,45.16836,208.6754],[19.2678,45.16582,203.3687],[19.22594,45.16195,129.1205]]]}}