{"type":"Feature","properties":{"GID_1":"SRB.20_1","GID_0":"SRB","country":"Serbia","province":"Sremski","VARNAME_1":"Srem","NL_NAME_1":"Сремски","TYPE_1":"Okrug","ENGTYPE_1":"District","CC_1":"NA","HASC_1":"RS.SM","ISO_1":"NA","name":"Sremski.province"},
"geometry":{"type": "MultiPolygon","coordinates": [[[[20.1015,44.6873,72.4434],[20.1087,44.6915,71.9298],[20.0829,44.7024,81.9353],[20.0797,44.7051,88.213],[20.0919,44.7134,76.308],[20.1008,44.7234,74.6876],[20.1034,44.7324,76.3664],[20.0969,44.7401,77.2506],[20.1076,44.7479,77.2558],[20.1104,44.7566,78.2196],[20.1065,44.7607,77.8363],[20.0915,44.7648,77.6515],[20.084,44.7688,77.1255],[20.0809,44.7746,76.872],[20.0826,44.7846,76.2444],[20.0872,44.789,76.53],[20.1077,44.7911,85.0639],[20.1182,44.7951,75.7544],[20.1229,44.7988,76.5033],[20.1255,44.8165,76.2994],[20.133,44.8276,76.3808],[20.136,44.8442,76.224],[20.1501,44.8654,76.2025],[20.1533,44.8753,75.1976],[20.1543,44.885,74.0674],[20.1568,44.8882,74.5024],[20.168,44.8931,74.4826],[20.1981,44.8922,75.2547],[20.2388,44.9142,76.5908],[20.2585,44.9155,78.2249],[20.2809,44.9193,84.5546],[20.2576,44.9406,86.6834],[20.255,44.9494,83.9115],[20.2557,44.9535,83.3295],[20.2603,44.9581,85.603],[20.2759,44.9658,89.6023],[20.2772,44.9685,88.9215],[20.2767,44.9756,88.4123],[20.2791,44.9787,89.2857],[20.2868,44.982,70.0],[20.3039,44.9851,74.9416],[20.318,44.9956,70.0],[20.3222,45.0019,74.2069],[20.3231,45.0209,95.88],[20.3181,45.0317,95.8996],[20.3153,45.043,99.209],[20.3101,45.05,99.189],[20.2881,45.0638,99.0136],[20.2822,45.07,99.3156],[20.2777,45.0823,104.4909],[20.2783,45.0952,114.0677],[20.2654,45.1122,128.3505],[20.2635,45.1199,133.2516],[20.2481,45.1254,131.658],[20.1976,45.1614,245.6963],[20.1775,45.1692,182.0273],[20.1402,45.1685,137.3466],[20.1101,45.1773,75.2717],[20.0798,45.1781,75.4447],[20.0795,45.1698,73.0],[20.0762,45.1648,134.9246],[20.0586,45.1554,162.1622],[20.0534,45.1548,157.5667],[20.0397,45.1587,179.0632],[20.0241,45.1571,140.7535],[20.0165,45.1607,185.398],[20.0148,45.1638,168.9834],[20.0233,45.1751,73.5],[20.0251,45.1812,74.2774],[20.0239,45.1858,78.2218],[20.0163,45.1952,80.6943],[19.9738,45.1747,116.5932],[19.9722,45.1725,121.1186],[19.9732,45.1698,151.1949],[19.9815,45.1619,247.5952],[19.9734,45.1558,240.7587],[19.9542,45.1481,249.3178],[19.9126,45.1426,351.4696],[19.898,45.1451,374.4185],[19.8534,45.1479,445.93],[19.8197,45.1482,422.2971],[19.7953,45.1453,296.3423],[19.792,45.1471,315.8309],[19.7731,45.1671,332.0976],[19.7527,45.1545,455.5078],[19.7331,45.1526,470.8765],[19.6988,45.1417,479.221],[19.6284,45.142,418.7462],[19.6001,45.1384,403.4359],[19.5649,45.1465,333.9303],[19.5428,45.1488,305.7834],[19.5294,45.1559,233.0407],[19.5125,45.1596,251.8775],[19.504,45.1657,211.9102],[19.4766,45.1678,206.2475],[19.4609,45.1742,216.4292],[19.4483,45.17,208.1758],[19.4467,45.1666,172.9667],[19.4481,45.1636,179.815],[19.4348,45.1501,191.3786],[19.4272,45.1461,211.5773],[19.4171,45.1496,203.5857],[19.3836,45.1817,206.7216],[19.3622,45.184,188.8704],[19.3439,45.172,224.1648],[19.3353,45.1735,222.9197],[19.3172,45.2027,155.4659],[19.2716,45.2154,133.5789],[19.2784,45.1877,184.3669],[19.2206,45.1921,136.849],[19.2102,45.2024,133.6212],[19.1841,45.2193,124.3383],[19.1589,45.2236,124.3014],[19.1536,45.2104,129.2149],[19.1779,45.2043,132.9871],[19.1678,45.1793,132.2614],[19.1455,45.1625,86.8637],[19.1365,45.1501,80.994],[19.128,45.1487,81.106],[19.0758,45.1565,80.697],[19.0701,45.1379,82.1692],[19.0728,45.1243,81.5365],[19.0793,45.1122,87.9604],[19.0817,45.0987,89.4581],[19.0931,45.0936,80.486],[19.0827,45.077,81.1526],[19.0869,45.0598,81.8536],[19.1011,45.0445,84.2937],[19.0978,45.029,79.9799],[19.1043,45.0191,103.0526],[19.0967,45.011,90.3975],[19.0836,45.0013,103.6391],[19.0513,44.9864,105.7405],[19.0563,44.9789,106.8651],[19.088,44.9807,106.1526],[19.1044,44.9765,104.86],[19.1355,44.9861,105.2164],[19.1437,44.9646,78.4314],[19.1601,44.9604,102.9431],[19.1498,44.9502,102.694],[19.128,44.9429,104.7399],[19.105,44.9317,94.1207],[19.0917,44.9225,97.3643],[19.0761,44.9237,80.4683],[19.0594,44.9072,82.3141],[19.0257,44.9231,82.2933],[18.9903,44.9064,82.9111],[19.0332,44.8701,82.0334],[19.0594,44.8769,81.5411],[19.0848,44.8917,81.0556],[19.1088,44.9017,107.1354],[19.1188,44.911,80.6774],[19.1346,44.9136,106.7209],[19.1466,44.9185,107.2072],[19.1693,44.9318,97.7367],[19.182,44.9318,97.8467],[19.1932,44.9273,94.8347],[19.2004,44.9131,75.7792],[19.2129,44.9096,83.7266],[19.2329,44.9188,98.1916],[19.2445,44.9216,94.1361],[19.3042,44.9118,97.81],[19.3077,44.9152,101.0267],[19.3228,44.9156,80.271],[19.3542,44.9087,81.4568],[19.3615,44.9098,85.2473],[19.374,44.9209,80.2191],[19.3813,44.9235,95.5123],[19.3869,44.9216,84.7091],[19.3981,44.9131,78.7342],[19.4021,44.9123,90.0511],[19.4076,44.9138,81.0803],[19.4107,44.9162,82.6545],[19.4115,44.9202,79.1081],[19.4025,44.9353,78.8417],[19.4019,44.9387,78.1056],[19.4061,44.9417,78.0023],[19.4144,44.9416,81.8068],[19.4221,44.9392,80.1759],[19.4389,44.9298,88.2109],[19.4445,44.9245,82.4282],[19.4562,44.9036,81.6425],[19.4669,44.8996,81.9867],[19.4739,44.9014,81.1375],[19.4865,44.9118,80.7733],[19.4992,44.917,81.0633],[19.506,44.9153,78.652],[19.5204,44.9062,85.9587],[19.5265,44.904,79.2533],[19.5521,44.9005,78.0147],[19.5624,44.902,77.9791],[19.6003,44.914,76.4646],[19.6334,44.914,78.1512],[19.6592,44.9108,75.4666],[19.6695,44.9128,75.0162],[19.6788,44.9098,76.2999],[19.6937,44.901,80.1762],[19.7183,44.8978,75.1326],[19.7324,44.89,76.4401],[19.7067,44.8724,80.0455],[19.683,44.8434,77.7108],[19.6733,44.8289,78.8425],[19.6693,44.8141,80.8406],[19.6687,44.7937,78.7218],[19.6661,44.7822,78.8331],[19.6661,44.7584,79.475],[19.6667,44.7526,80.0591],[19.6692,44.7475,81.7168],[19.6897,44.7333,96.073],[19.6974,44.7306,96.2109],[19.7338,44.7302,83.9241],[19.7619,44.7368,79.5653],[19.7778,44.7336,78.599],[19.7938,44.7238,79.1553],[19.8326,44.6911,127.1161],[19.8545,44.6839,129.2205],[19.8808,44.6807,92.1302],[19.918,44.6806,75.3953],[19.9523,44.6778,80.0111],[19.9627,44.6748,78.6973],[19.9674,44.6714,82.005],[19.9697,44.665,71.5],[19.9648,44.6587,98.3256],[19.9596,44.6546,104.2808],[19.9458,44.6487,88.8765],[19.9293,44.6448,96.458],[19.9022,44.6465,114.929],[19.892,44.6422,106.5233],[19.8869,44.6339,124.3163],[19.8869,44.6282,142.1368],[19.9014,44.6151,128.8297],[19.9174,44.6129,100.5008],[19.9328,44.6132,91.431],[19.9414,44.6149,88.1106],[19.9666,44.6282,82.2039],[19.99,44.6491,71.5],[20.016,44.655,78.0381],[20.0322,44.6683,77.2804],[20.0529,44.6718,79.6148],[20.0789,44.6817,73.3886],[20.1015,44.6873,72.4434]]]]}}