{"type":"Feature","properties":{"GID_2":"SRB.12.2_1","GID_0":"SRB","country":"Serbia","GID_1":"SRB.12_1","province":"Pirotski","NL_NAME_1":"Пиротски","county":"BelaPalanka","VARNAME_2":"Remesiana","NL_NAME_2":"БелаПаланка","TYPE_2":"Opštine","ENGTYPE_2":"Town|Municipal","CC_2":"NA","HASC_2":"NA","name":"Bela_Palanka.county"},
"geometry":{"type": "MultiPolygon","coordinates": [[[[22.2956,43.1099,1387.5875],[22.326,43.101,922.29],[22.3868,43.1239,682.9373],[22.3929,43.1297,869.6182],[22.3923,43.1378,908.3527],[22.3943,43.1424,964.3486],[22.415,43.16,941.0878],[22.4151,43.1663,904.1633],[22.4237,43.1744,697.4007],[22.4303,43.1836,681.1664],[22.4491,43.1988,753.6466],[22.4534,43.217,503.9826],[22.4479,43.2379,425.6007],[22.4376,43.2537,522.9991],[22.4191,43.2604,520.339],[22.4143,43.2641,620.1957],[22.4048,43.2782,588.455],[22.4026,43.2912,635.007],[22.3984,43.2963,656.8243],[22.3896,43.3023,731.4891],[22.3982,43.3168,706.6142],[22.4115,43.3218,754.5939],[22.425,43.3328,1011.9291],[22.4449,43.3448,644.4739],[22.4163,43.3608,715.8299],[22.4102,43.3626,858.1711],[22.3942,43.3626,794.3827],[22.3711,43.3698,695.8494],[22.3599,43.376,723.7725],[22.3373,43.3823,656.9118],[22.339,43.3647,571.2406],[22.3337,43.3556,940.1255],[22.3343,43.3444,863.9328],[22.3283,43.328,1191.9874],[22.3236,43.3243,1197.5977],[22.3075,43.3211,1176.1699],[22.2554,43.3195,929.1512],[22.2388,43.3267,1052.0446],[22.2206,43.3303,849.9462],[22.2013,43.3394,940.1661],[22.1678,43.3437,816.7925],[22.1374,43.3369,425.3365],[22.1419,43.3152,575.2404],[22.1468,43.3024,484.8241],[22.1466,43.2914,440.1995],[22.1503,43.288,470.3947],[22.1634,43.2815,537.5131],[22.167,43.2682,609.0131],[22.1612,43.2599,474.2719],[22.1451,43.2576,439.6861],[22.1393,43.2498,513.6939],[22.131,43.243,550.6498],[22.1297,43.2394,549.4575],[22.1317,43.2302,673.4282],[22.1136,43.203,1125.1572],[22.1351,43.196,1080.2],[22.1552,43.185,1340.7738],[22.1741,43.1805,1770.0768],[22.1965,43.165,1612.906],[22.2137,43.162,1597.9332],[22.2232,43.153,1499.5298],[22.23,43.1497,1504.8846],[22.2418,43.1478,1397.8354],[22.2605,43.1515,1406.8043],[22.2688,43.1487,1364.0044],[22.2764,43.1441,1225.6908],[22.2775,43.141,1194.5679],[22.2755,43.1361,1311.3975],[22.2818,43.1301,1385.2515],[22.2956,43.1099,1387.5875]]]]}}