{"type": "Feature","bbox": [20.7315,44.2419,21.0284,44.5066],"geometry": {"type": "MultiPolygon","coordinates": [[[[20.772,44.2978,178.1796],[20.8061,44.2942,163.7696],[20.822,44.2889,136.797],[20.8237,44.2867,146.6447],[20.8231,44.284,147.3971],[20.8139,44.2747,150.1245],[20.8163,44.2576,135.0579],[20.8495,44.2597,126.6438],[20.858,44.2565,170.468],[20.8719,44.2478,215.3971],[20.8862,44.2469,200.7883],[20.8969,44.2426,183.7106],[20.904,44.2419,267.1289],[20.9499,44.2507,206.5693],[20.9739,44.259,224.1596],[20.974,44.2656,212.983],[20.9704,44.2742,227.7973],[20.974,44.2886,195.2099],[20.9694,44.3082,166.8849],[20.9699,44.3122,139.067],[20.9813,44.3231,120.452],[21.0187,44.3273,138.4307],[21.0244,44.3301,126.8505],[21.0284,44.3363,100.3174],[21.0281,44.3407,95.9709],[21.0235,44.3495,95.926],[21.0168,44.3547,103.7564],[21.0014,44.3599,137.084],[21.0001,44.3616,143.7714],[21.0032,44.364,173.2149],[21.0,44.3664,167.1434],[20.991,44.3609,103.575],[20.9791,44.3611,149.7372],[20.9694,44.3681,143.7208],[20.9675,44.3756,167.0202],[20.967,44.3844,193.5318],[20.9697,44.3898,213.5988],[20.9839,44.3927,190.4289],[20.9954,44.3993,192.5196],[21.0083,44.4026,222.1528],[21.0278,44.4275,186.6469],[21.028199999999998,44.4336,183.5196],[21.0164,44.4486,132.8146],[21.0116,44.4586,188.529],[21.0067,44.4599,183.0457],[21.0048,44.4634,182.9914],[21.0048,44.4682,169.7018],[21.0114,44.4754,166.0194],[21.0113,44.4788,160.9123],[21.0065,44.4802,142.2134],[21.0014,44.4778,154.0534],[20.9947,44.4682,142.9917],[20.9697,44.4494,201.6375],[20.9635,44.4419,228.9881],[20.9583,44.4405,220.2742],[20.9387,44.448,141.2947],[20.9194,44.4604,153.5489],[20.9186,44.4638,147.363],[20.9226,44.4701,144.802],[20.9289,44.4759,130.7874],[20.9403,44.4807,132.8256],[20.9425,44.4847,136.3694],[20.9089,44.501,156.4795],[20.8693,44.5066,151.2485],[20.8448,44.506,221.8594],[20.8099,44.497,233.8299],[20.7877,44.4881,240.8567],[20.8044,44.474,202.236],[20.8211,44.4639,215.3161],[20.831,44.4485,151.8187],[20.8376,44.4415,175.0141],[20.8391,44.4354,139.3573],[20.8365,44.4289,136.0772],[20.8242,44.4187,196.5443],[20.8173,44.4155,204.6332],[20.7875,44.4234,193.1088],[20.7759,44.4228,191.1867],[20.76,44.4183,184.2052],[20.7557,44.414,177.3371],[20.7529,44.4006,125.0752],[20.7353,44.3883,132.0544],[20.7315,44.3841,150.2432],[20.7315,44.3785,162.7504],[20.7337,44.3743,174.5788],[20.7422,44.3642,173.0818],[20.7554,44.3524,157.5908],[20.762,44.3506,155.3872],[20.779,44.3533,138.0496],[20.7834,44.3523,127.8707],[20.7874,44.3492,122.6245],[20.7869,44.3448,124.5889],[20.7706,44.334,139.5148],[20.7658,44.3272,186.0209],[20.7658,44.3216,175.7997],[20.7717,44.3082,197.0312],[20.772,44.2978,178.1796]]]]}
,"properties": {"GID_2": "SRB.13.2_1","GID_0": "SRB","country": "Serbia","GID_1": "SRB.13_1","province": "Podunavski","NL_NAME_1": "Подунавски","county": "SmederevskaPalanka","VARNAME_2": "NA","NL_NAME_2": "СмедеревскаПаланка","TYPE_2": "Opštine","ENGTYPE_2": "Town|Municipal","CC_2": "NA","HASC_2": "NA","name": "Smederevska_Palanka.county","area_km2": 430.5231,"hist_schema_id": "Elevation0-9000","hist_area_km2": {"100": 44.9202,"125": 86.8541,"150": 106.2454,"175": 79.0654,"200": 61.1419,"225": 40.4246,"250": 10.6573,"275": 1.2143}}}