{"type":"Feature","properties":{"GID_2":"SRB.15.3_1","GID_0":"SRB","country":"Serbia","GID_1":"SRB.15_1","province":"Rasinski","NL_NAME_1":"Расински","county":"Ćićevac","VARNAME_2":"NA","NL_NAME_2":"Ћићевац","TYPE_2":"Opštine","ENGTYPE_2":"Town|Municipal","CC_2":"NA","HASC_2":"NA","name":"Ćićevac.county"},
"geometry":{"type": "MultiPolygon","coordinates": [[[[21.4659,43.7494,169.5374],[21.4582,43.7417,145.6467],[21.446,43.7404,140.2742],[21.4375,43.7356,136.4251],[21.4214,43.7306,131.5941],[21.3893,43.7124,132.9525],[21.3798,43.7136,142.8904],[21.3715,43.7205,134.7727],[21.3673,43.722,136.5821],[21.3627,43.7204,137.3223],[21.36,43.7164,140.6979],[21.3612,43.7122,146.9248],[21.3885,43.6824,133.7281],[21.3885,43.6782,134.3044],[21.381,43.6681,132.1945],[21.3784,43.6574,135.329],[21.3664,43.6484,232.8821],[21.3671,43.64,213.5321],[21.3735,43.6246,138.6357],[21.381,43.6243,217.3982],[21.4279,43.6031,314.5257],[21.4382,43.5898,309.7557],[21.4393,43.5865,298.4582],[21.4374,43.5792,248.6494],[21.4383,43.5761,263.9185],[21.4467,43.5719,263.9787],[21.4592,43.5732,299.6385],[21.481,43.5863,256.6068],[21.4787,43.5917,251.2255],[21.4788,43.5956,286.2441],[21.4926,43.6055,144.3495],[21.4915,43.6074,144.0432],[21.4788,43.6098,192.5611],[21.4755,43.612,241.5506],[21.4743,43.6159,300.2201],[21.4755,43.6291,347.3179],[21.4726,43.6383,296.8422],[21.4669,43.6485,194.1782],[21.4564,43.655,257.9116],[21.4545,43.6604,297.7903],[21.4614,43.6649,259.7932],[21.4702,43.6736,154.1025],[21.4721,43.6777,158.1883],[21.4718,43.6846,203.3298],[21.4736,43.6872,226.5155],[21.4787,43.6891,204.9661],[21.489,43.6874,279.9103],[21.4947,43.688,208.2578],[21.5044,43.6923,300.7593],[21.5089,43.6985,274.0421],[21.5026,43.7173,326.5934],[21.4965,43.7215,338.7352],[21.4842,43.7235,260.6878],[21.4766,43.727,225.741],[21.4743,43.73,257.7039],[21.4715,43.741,158.1424],[21.4659,43.7494,169.5374]]]]}}