{"type":"Feature","properties":{"GID_2":"SRB.15.6_1","GID_0":"SRB","country":"Serbia","GID_1":"SRB.15_1","province":"Rasinski","NL_NAME_1":"Расински","county":"Varvarin","VARNAME_2":"NA","NL_NAME_2":"Варварин","TYPE_2":"Opštine","ENGTYPE_2":"Town|Municipal","CC_2":"NA","HASC_2":"NA","name":"Varvarin.county"},
"geometry":{"type": "MultiPolygon","coordinates": [[[[21.2419,43.8207,555.5014],[21.2481,43.8064,672.4424],[21.2486,43.7953,649.1936],[21.2415,43.7733,421.2876],[21.2389,43.7692,477.0998],[21.2302,43.7653,421.6311],[21.2154,43.7615,264.9891],[21.2055,43.7529,258.9035],[21.1778,43.738,280.6873],[21.1695,43.7391,247.8765],[21.1542,43.7472,302.7448],[21.1444,43.7489,294.4448],[21.1396,43.747,386.4383],[21.1387,43.7364,464.2136],[21.1353,43.7285,464.0066],[21.137,43.7138,357.4542],[21.1481,43.6871,331.1698],[21.1743,43.6783,269.9844],[21.1959,43.6675,303.2583],[21.2053,43.6648,305.8221],[21.2305,43.6658,269.0775],[21.2434,43.6602,307.9748],[21.2622,43.6572,250.4771],[21.2839,43.6595,194.4076],[21.2963,43.6633,246.7725],[21.3016,43.6629,244.527],[21.3091,43.6594,236.5971],[21.3143,43.6542,267.0687],[21.3153,43.6499,243.8211],[21.3138,43.6403,282.7256],[21.3183,43.6341,260.2973],[21.348,43.622,146.3936],[21.3608,43.6217,136.8451],[21.3735,43.6246,138.6357],[21.3671,43.64,213.5321],[21.3664,43.6484,232.8821],[21.3784,43.6574,135.329],[21.381,43.6681,132.1945],[21.3885,43.6782,134.3044],[21.3885,43.6824,133.7281],[21.3612,43.7122,146.9248],[21.36,43.7164,140.6979],[21.3627,43.7204,137.3223],[21.3673,43.722,136.5821],[21.3715,43.7205,134.7727],[21.3798,43.7136,142.8904],[21.3893,43.7124,132.9525],[21.4026,43.7192,127.5435],[21.4082,43.724,130.8878],[21.4,43.7255,130.6213],[21.3905,43.7301,130.6297],[21.3897,43.7347,129.9348],[21.3931,43.7384,130.2047],[21.3916,43.7425,131.2091],[21.3772,43.7385,128.4862],[21.3724,43.7403,131.1439],[21.37,43.7465,129.0079],[21.3825,43.7557,129.7012],[21.3829,43.7592,128.0117],[21.3768,43.7608,130.548],[21.3696,43.7561,127.1546],[21.3629,43.7551,128.247],[21.358,43.7563,127.7348],[21.3561,43.7592,127.8099],[21.3561,43.7656,127.4615],[21.3644,43.7692,127.4673],[21.366,43.7715,126.7369],[21.3612,43.7751,126.9732],[21.3494,43.7704,131.9899],[21.3343,43.772,141.8966],[21.2834,43.7611,246.3932],[21.2755,43.7619,256.2731],[21.2645,43.7665,300.1382],[21.2604,43.7729,377.0204],[21.2672,43.7828,360.5886],[21.2664,43.7932,476.1544],[21.2741,43.8067,386.9137],[21.2749,43.8133,472.004],[21.2736,43.8205,413.987],[21.2773,43.8306,464.4365],[21.2726,43.8351,432.2039],[21.2606,43.841,676.9518],[21.2575,43.8272,634.1924],[21.2419,43.8207,555.5014]]]]}}