{"type":"Feature","properties":{"GID_2":"SRB.20.1_1","GID_0":"SRB","country":"Serbia","GID_1":"SRB.20_1","province":"Sremski","NL_NAME_1":"Сремски","county":"Inđija","VARNAME_2":"NA","NL_NAME_2":"Инђија","TYPE_2":"Opštine","ENGTYPE_2":"Town|Municipal","CC_2":"NA","HASC_2":"NA","name":"Inđija.county"},
"geometry":{"type": "MultiPolygon","coordinates": [[[[20.0163,45.1952,80.6943],[19.9738,45.1747,116.5932],[19.9722,45.1725,121.1186],[19.9732,45.1698,151.1949],[19.9815,45.1619,247.5952],[19.9734,45.1558,240.7587],[19.9542,45.1481,249.3178],[19.9126,45.1426,351.4696],[19.9379,45.1251,198.9896],[19.9554,45.1102,179.5348],[19.9625,45.1,150.1217],[19.9626,45.0967,166.7451],[19.9583,45.0875,159.4478],[19.9654,45.0748,145.2415],[19.972,45.0688,138.9382],[19.9836,45.0639,136.0823],[19.9846,45.0601,132.2034],[19.9817,45.05,125.8871],[19.9844,45.0433,120.7225],[19.9905,45.0357,118.3874],[19.9893,45.0342,115.5464],[19.9859,45.0341,116.8857],[19.9834,45.0182,109.5427],[19.9874,45.0092,107.2519],[19.9936,45.0034,103.1847],[19.9951,44.9983,101.4465],[19.9991,44.9936,98.6083],[20.0749,44.997,89.4231],[20.0823,45.001,89.5005],[20.094,45.0169,94.6203],[20.1,45.021,95.3287],[20.1045,45.0204,94.050299999999993],[20.1139,45.0146,90.6585],[20.1241,45.0131,88.9342],[20.2032,45.0124,86.6804],[20.2154,45.0137,85.923],[20.2202,45.0176,86.4333],[20.2241,45.0294,87.9311],[20.219,45.0466,88.5511],[20.2209,45.053,91.3458],[20.2338,45.0648,93.6119],[20.2435,45.0713,95.9491],[20.265,45.0793,101.0861],[20.2777,45.0823,104.4909],[20.2783,45.0952,114.0677],[20.2654,45.1122,128.3505],[20.2635,45.1199,133.2516],[20.2481,45.1254,131.658],[20.2031,45.1581,223.958],[20.1881,45.166,213.2898],[20.1728,45.1699,205.4838],[20.1402,45.1685,137.3466],[20.1101,45.1773,75.2717],[20.0798,45.1781,75.4447],[20.0795,45.1698,73.0],[20.0762,45.1648,134.9246],[20.0586,45.1554,162.1622],[20.0534,45.1548,157.5667],[20.0397,45.1587,179.0632],[20.0241,45.1571,140.7535],[20.0165,45.1607,185.398],[20.0148,45.1638,168.9834],[20.0233,45.1751,73.5],[20.0251,45.1812,74.2774],[20.0239,45.1858,78.2218],[20.0163,45.1952,80.6943]]]]}}