{"type": "Feature","bbox": [19.1017,44.0902,19.9711,44.9419],"geometry": {"type": "MultiPolygon","coordinates": [[[[19.4826,44.1198,198.3616],[19.4982,44.0998,195.8046],[19.5094,44.0902,206.3424],[19.5126,44.0906,256.8372],[19.5296,44.095,322.585],[19.5429,44.1113,639.9355],[19.548,44.1147,700.9529],[19.5738,44.1216,959.2059],[19.5958,44.118,1001.8436],[19.605,44.1199,993.6573],[19.6093,44.1233,823.7963],[19.6176,44.1354,824.1516],[19.6188,44.1404,904.5936],[19.6182,44.1437,893.0529],[19.6114,44.1468,894.2421],[19.6026,44.1585,840.2903],[19.5953,44.1651,846.325],[19.5806,44.1705,898.4156],[19.575,44.185,1078.9741],[19.5767,44.1893,1144.13],[19.5591,44.2083,942.3411],[19.544,44.2137,898.1646],[19.5299,44.2217,949.8933],[19.5143,44.2217,712.6818],[19.5055,44.2248,495.7861],[19.4932,44.2322,475.0577],[19.4642,44.2365,388.0913],[19.447,44.2422,598.1324],[19.4257,44.2541,626.6133],[19.4303,44.2628,493.5651],[19.4311,44.2748,558.0143],[19.4468,44.2852,902.3844],[19.4507,44.2973,711.9452],[19.4598,44.3076,523.8043],[19.4669,44.3115,525.943],[19.4837,44.3147,364.3328],[19.4888,44.3176,400.0573],[19.492,44.3223,396.9608],[19.4914,44.3289,356.372],[19.4803,44.3454,363.1241],[19.4751,44.3471,348.7206],[19.4606,44.3457,389.1209],[19.452,44.3514,341.8419],[19.4487,44.3584,320.9136],[19.452,44.3651,298.5904],[19.4565,44.3679,266.0353],[19.4728,44.368,330.6618],[19.4787,44.37,337.9376],[19.4842,44.3751,323.8653],[19.4938,44.3897,272.0213],[19.4984,44.4027,268.8404],[19.4988,44.4119,235.7683],[19.5035,44.4204,212.4006],[19.4993,44.424,222.4087],[19.4873,44.4279,227.1224],[19.4845,44.4317,189.0305],[19.4852,44.4341,163.9122],[19.4903,44.4375,171.0979],[19.4973,44.4395,218.7139],[19.509,44.4402,194.7417],[19.5213,44.4386,179.9661],[19.5395,44.4437,254.4669],[19.561,44.4457,254.5266],[19.5759,44.4376,292.3112],[19.5802,44.43,287.7256],[19.5843,44.4261,358.8452],[19.5904,44.4233,362.9134],[19.6018,44.4223,329.5966],[19.6139,44.4238,346.8716],[19.638,44.4333,256.156],[19.6675,44.4386,254.7399],[19.6772,44.4385,243.4718],[19.76,44.4137,323.3676],[19.7728,44.4016,320.8842],[19.7742,44.3976,316.7527],[19.7736,44.3914,334.2465],[19.776,44.3889,302.5836],[19.8231,44.3876,301.8768],[19.8348,44.3887,302.4634],[19.8498,44.4056,215.8134],[19.8286,44.4253,265.0413],[19.8272,44.4296,274.5059],[19.8326,44.4349,256.9292],[19.8399,44.4376,259.6487],[19.845,44.4379,275.9929],[19.8575,44.4351,280.4323],[19.8622,44.4369,278.8484],[19.8641,44.4431,258.7693],[19.8637,44.454,213.9062],[19.856,44.4716,192.3777],[19.8572,44.4743,190.1147],[19.8673,44.4807,205.8004],[19.8702,44.4849,168.7766],[19.8689,44.4926,114.0455],[19.8579,44.5058,146.6209],[19.8566,44.5175,170.1182],[19.8499,44.524,198.3703],[19.8549,44.5352,169.823],[19.8658,44.5444,131.048],[19.8768,44.5475,126.2173],[19.8977,44.5591,177.2552],[19.9061,44.5592,173.5638],[19.9269,44.5506,147.7269],[19.9511,44.558,123.8764],[19.9644,44.5647,117.2965],[19.9711,44.5648,134.2619],[19.9702,44.5809,115.1194],[19.9612,44.5928,121.5958],[19.962,44.5958,118.1167],[19.9686,44.604,83.4619],[19.9666,44.6282,82.2039],[19.9443,44.6163,88.4894],[19.9365,44.6136,94.3531],[19.9061,44.6137,130.5615],[19.8987,44.6166,128.1506],[19.8869,44.6282,142.1368],[19.8864,44.6324,133.8036],[19.8896,44.6396,108.9684],[19.8944,44.644,122.0378],[19.9022,44.6465,114.929],[19.9293,44.6448,96.458],[19.943,44.6477,93.1006],[19.9628,44.6567,106.2256],[19.9691,44.6637,71.5],[19.9697,44.6664,82.8841],[19.9653,44.6732,74.3543],[19.956,44.6772,78.6066],[19.918,44.6806,75.3953],[19.8808,44.6807,92.1302],[19.8545,44.6839,129.2205],[19.8326,44.6911,127.1161],[19.8236,44.6999,90.5449],[19.7857,44.7296,79.1104],[19.7682,44.7363,79.2396],[19.7556,44.7362,79.8681],[19.7338,44.7302,83.9241],[19.7014,44.7301,94.9412],[19.6897,44.7333,96.073],[19.6705,44.7462,81.5615],[19.6667,44.7526,80.0591],[19.6661,44.7822,78.8331],[19.6687,44.7937,78.7218],[19.6693,44.8141,80.8406],[19.6733,44.8289,78.8425],[19.683,44.8434,77.7108],[19.7067,44.8724,80.0455],[19.7324,44.89,76.4401],[19.7208,44.8969,85.2736],[19.6961,44.9002,82.8495],[19.6788,44.9098,76.2999],[19.6695,44.9128,75.0162],[19.6592,44.9108,75.4666],[19.6334,44.914,78.1512],[19.5966,44.9135,77.5729],[19.5624,44.902,77.9791],[19.549,44.9008,79.2853],[19.5265,44.904,79.2533],[19.5204,44.9062,85.9587],[19.506,44.9153,78.652],[19.5005,44.917,81.7478],[19.4892,44.9134,81.1101],[19.4739,44.9014,81.1375],[19.4649,44.8998,86.6034],[19.4588,44.902,80.1803],[19.4544,44.9056,82.5347],[19.4445,44.9245,82.4282],[19.4389,44.9298,88.2109],[19.4193,44.9403,80.1451],[19.4082,44.9419,81.0114],[19.4024,44.94,78.4248],[19.4019,44.9373,78.1056],[19.4108,44.9223,78.2201],[19.4116,44.9178,79.445],[19.4093,44.9147,78.9273],[19.4039,44.9125,83.1338],[19.3981,44.9131,78.7342],[19.3869,44.9216,84.7091],[19.3813,44.9235,95.5123],[19.374,44.9209,80.2191],[19.3641,44.9112,89.7514],[19.3573,44.9088,80.3037],[19.348,44.9093,80.372],[19.3228,44.9156,80.271],[19.3097,44.9156,103.8183],[19.3045,44.913,98.0831],[19.3042,44.9118,97.81],[19.3374,44.8997,88.3281],[19.3481,44.8986,97.3215],[19.3491,44.8934,80.016],[19.3562,44.897,84.5718],[19.366,44.897,80.5668],[19.3704,44.8922,85.0723],[19.3641,44.8863,73.2478],[19.3675,44.8781,84.094],[19.3807,44.8736,88.2663],[19.3809,44.8671,81.46],[19.3576,44.8539,81.4302],[19.3538,44.8484,83.4567],[19.3599,44.8437,82.4193],[19.3594,44.839,78.6353],[19.353,44.8337,80.9954],[19.3427,44.8307,88.1113],[19.3414,44.8247,85.2284],[19.3427,44.8123,87.9859],[19.3408,44.8033,86.3877],[19.336,44.7948,90.0061],[19.3304,44.7589,92.5763],[19.3249,44.7503,96.6865],[19.3236,44.7412,91.2798],[19.3194,44.7305,92.6018],[19.3061,44.711,98.6296],[19.2893,44.6981,98.6069],[19.2754,44.69,99.0705],[19.2655,44.6771,100.9087],[19.2522,44.6553,104.2516],[19.2507,44.6467,107.5676],[19.2457,44.6382,106.3438],[19.2373,44.6296,106.3095],[19.2279,44.6059,110.5725],[19.2202,44.5953,111.9344],[19.2152,44.5902,111.4562],[19.2069,44.588,112.2381],[19.1907,44.5882,130.626],[19.1829,44.5773,125.982],[19.1876,44.5682,117.3639],[19.1848,44.5596,122.3209],[19.176,44.5508,160.2616],[19.1677,44.5372,172.5888],[19.1582,44.5333,179.7862],[19.1307,44.5335,124.1124],[19.1222,44.5266,124.7714],[19.1242,44.4966,127.4135],[19.1285,44.4799,128.9218],[19.139,44.4516,132.7291],[19.1394,44.4322,135.239],[19.1335,44.4177,137.5828],[19.1067,44.4053,342.1044],[19.1017,44.3937,281.7854],[19.1037,44.3834,143.9243],[19.1096,44.375,207.1599],[19.1072,44.3591,162.2832],[19.115,44.3523,244.2059],[19.1189,44.344,237.3436],[19.1193,44.3346,268.136],[19.126,44.3235,184.3768],[19.1371,44.3139,157.5169],[19.1538,44.2946,154.5],[19.1696,44.2933,181.9306],[19.1958,44.295,278.8983],[19.2072,44.2911,156.1308],[19.211,44.2845,156.9028],[19.22,44.2777,155.5],[19.2305,44.2752,225.9461],[19.2428,44.2757,187.5036],[19.27,44.2829,448.2644],[19.2836,44.2822,219.0455],[19.2924,44.2788,244.4755],[19.3133,44.279,350.9638],[19.323,44.268,163.9515],[19.3307,44.2561,165.2572],[19.3387,44.2481,166.2077],[19.3399,44.2366,169.1817],[19.3375,44.227,355.3824],[19.3459,44.2182,171.5696],[19.3518,44.1978,170.5892],[19.3651,44.1898,282.3796],[19.3917,44.1782,174.9438],[19.4017,44.1705,171.4236],[19.4195,44.153,179.9834],[19.4286,44.1476,194.0574],[19.4407,44.1462,247.0986],[19.4558,44.1481,301.485],[19.4656,44.1516,275.8269],[19.4685,44.1444,195.3969],[19.4687,44.136,281.5566],[19.4721,44.128,190.0732],[19.4826,44.1198,198.3616]]]]}
,"properties": {"GID_1": "SRB.8_1","GID_0": "SRB","country": "Serbia","province": "Mačvanski","VARNAME_1": "Mačva","NL_NAME_1": "Мачвански","TYPE_1": "Okrug","ENGTYPE_1": "District","CC_1": "NA","HASC_1": "RS.MA","ISO_1": "NA","name": "Mačvanski.province","area_km2": 3087.285,"hist_schema_id": "Elevation0-9000","hist_area_km2": {"75": 506.18,"100": 414.462,"125": 299.912,"150": 216.624,"175": 196.698,"200": 193.859,"225": 174.023,"250": 134.742,"275": 104.055,"300": 88.683,"325": 78.048,"350": 68.737,"375": 60.145,"400": 55.203,"425": 53.18,"450": 48.069,"475": 44.54,"500": 41.072,"525": 37.136,"550": 32.529,"575": 28.924,"600": 25.315,"625": 22.328,"650": 19.872,"675": 17.509,"700": 16.054,"725": 14.507,"750": 14.203,"775": 14.1,"800": 12.706,"825": 12.814,"850": 9.524,"875": 8.357,"900": 7.205,"925": 4.942,"950": 2.449,"975": 2.495,"1000": 1.445,"1025": 0.943,"1050": 0.578,"1075": 0.502,"1100": 0.38,"1125": 0.274,"1150": 0.395,"1175": 0.517,"1200": 0.41,"1225": 0.426,"1250": 0.182,"1275": 0.03}}}