{"type":"Feature","properties":{"GID_2":"SRB.11.4_1","GID_0":"SRB","country":"Serbia","GID_1":"SRB.11_1","province":"Pčinjski","NL_NAME_1":"Пчињски","county":"Surdulica","VARNAME_2":"NA","NL_NAME_2":"Сурдулица","TYPE_2":"Opštine","ENGTYPE_2":"Town|Municipal","CC_2":"NA","HASC_2":"NA","name":"Surdulica.county"},
"geometry":{"type": "MultiPolygon","coordinates": [[[[22.4467,42.627,1513.4126],[22.4334,42.6344,1356.6359],[22.4396,42.6351,1441.8995],[22.4406,42.6384,1447.5391],[22.4385,42.6418,1373.0979],[22.4463,42.6452,1522.093],[22.4526,42.6519,1559.8406],[22.4562,42.6603,1542.464],[22.4508,42.6661,1580.6088],[22.4412,42.6691,1667.7701],[22.439,42.6747,1647.0731],[22.4488,42.676,1690.5132],[22.4541,42.6803,1652.3928],[22.4524,42.684,1559.7107],[22.4552,42.6876,1669.1641],[22.4567,42.6937,1636.913],[22.4644,42.6981,1582.9031],[22.4684,42.7048,1401.7699],[22.4783,42.7054,1390.328],[22.4777,42.7149,1348.594],[22.4836,42.7215,1283.446],[22.4825,42.7248,1283.448],[22.4789,42.7277,1214.9447],[22.4668,42.7332,1148.515],[22.457,42.7467,955.6259],[22.4578,42.7494,954.6085],[22.4512,42.7527,868.6251],[22.4424,42.7607,902.9624],[22.4425,42.7641,846.1282],[22.4385,42.7741,820.4417],[22.4328,42.7777,870.1062],[22.4313,42.7817,845.5652],[22.4237,42.7856,924.7704],[22.4221,42.8024,968.0924],[22.4242,42.8049,1059.9534],[22.4314,42.8056,1055.2512],[22.4493,42.8137,1098.1049],[22.4527,42.8111,1046.6815],[22.4585,42.8118,988.9822],[22.4715,42.8209,1097.5186],[22.4409,42.8215,1389.4895],[22.4069,42.8088,1122.3018],[22.387,42.8053,1514.0466],[22.361,42.7815,1552.1598],[22.3399,42.7705,1410.9673],[22.3165,42.7656,1232.3834],[22.3021,42.7538,1355.7769],[22.2868,42.7459,1446.3938],[22.2702,42.7487,1581.2981],[22.2563,42.7465,1391.83],[22.2273,42.7573,1296.4813],[22.2148,42.7686,1156.7831],[22.196,42.7746,954.4114],[22.1891,42.7713,1082.9452],[22.1607,42.7522,694.8494],[22.1542,42.7423,797.2978],[22.133,42.7307,549.8458],[22.1303,42.7225,491.4439],[22.1389,42.7076,440.3064],[22.139,42.7022,410.1476],[22.1314,42.6958,410.4316],[22.1121,42.6912,407.0921],[22.1062,42.6867,443.7872],[22.1048,42.6833,488.8463],[22.1065,42.6739,505.4228],[22.1053,42.6659,493.8167],[22.0969,42.6559,422.269],[22.0804,42.6516,389.5328],[22.077,42.6486,377.1589],[22.0758,42.6443,397.564],[22.0781,42.637,445.3485],[22.0749,42.6253,525.0016],[22.0793,42.6202,581.5208],[22.1049,42.6119,830.9722],[22.1274,42.6101,1210.243],[22.1449,42.6068,883.3701],[22.1463,42.6105,836.1578],[22.1499,42.6103,723.2089],[22.1599,42.6038,942.6251],[22.1674,42.5919,947.6058],[22.1798,42.5835,948.6898],[22.1895,42.5818,1054.4358],[22.2061,42.5842,1088.4333],[22.218,42.5807,1359.1011],[22.2221,42.576,1464.614],[22.2247,42.5619,1436.6476],[22.2341,42.5522,1610.1611],[22.2609,42.5798,1616.4918],[22.2731,42.5892,1457.0566],[22.2776,42.6014,1503.3501],[22.2869,42.6099,1543.3384],[22.2935,42.61,1511.4028],[22.2995,42.6069,1694.2056],[22.3018,42.6038,1695.3667],[22.3012,42.5969,1589.4364],[22.3029,42.5938,1527.3152],[22.3249,42.5911,1365.5354],[22.3447,42.582,1147.7322],[22.3515,42.5818,1174.0217],[22.3687,42.5866,1369.3918],[22.3818,42.5859,1369.0875],[22.3969,42.5873,1326.3071],[22.4087,42.5852,1154.7921],[22.4191,42.5796,1308.0005],[22.419,42.5819,1275.5076],[22.4279,42.5867,1270.9041],[22.4271,42.5886,1294.4985],[22.43,42.602,1208.5377],[22.4364,42.6092,1361.4044],[22.4386,42.6143,1443.882],[22.4368,42.6194,1359.9116],[22.4436,42.6192,1439.5762],[22.4467,42.627,1513.4126]]]]}}