{"type": "Feature","bbox": [21.3693,42.6544,22.5675,43.1555],"geometry": {"type": "MultiPolygon","coordinates": [[[[21.6717,42.6725,1120.6379],[21.6851,42.6806,1001.2518],[21.7031,42.6771,974.6621],[21.7315,42.6803,971.4339],[21.769,42.6945,1028.6219],[21.782,42.7021,998.0367],[21.7863,42.7073,932.0841],[21.7853,42.7327,668.0015],[21.7879,42.7358,712.5246],[21.7987,42.7409,673.649],[21.8056,42.7477,640.5416],[21.8146,42.7514,504.5064],[21.8148,42.7546,486.0276],[21.8109,42.7595,630.6305],[21.8107,42.7629,643.364],[21.8133,42.7662,592.9596],[21.8206,42.7707,428.1758],[21.8402,42.7756,867.5203],[21.8716,42.7783,1094.4069],[21.8888,42.7826,1129.5204],[21.9091,42.7813,1019.4315],[21.9304,42.7853,1146.871],[21.9443,42.7848,1306.1401],[21.967,42.7891,1197.96],[21.9819,42.7961,1047.6064],[21.9844,42.8007,978.3545],[21.9864,42.8115,890.1411],[21.9897,42.816,888.3943],[21.9934,42.818,938.2249],[22.0057,42.8168,790.4186],[22.0211,42.8055,773.4389],[22.0312,42.8032,914.8055],[22.0547,42.8095,823.4708],[22.0789,42.8199,685.1334],[22.0974,42.821,706.9502],[22.1065,42.82,575.6625],[22.1102,42.8179,503.2803],[22.1174,42.8084,426.2702],[22.116,42.8037,519.6041],[22.109,42.7959,508.6213],[22.1096,42.7936,609.993],[22.1127,42.7915,667.266],[22.1361,42.7901,837.8926],[22.1499,42.8012,777.5694],[22.1597,42.8021,861.3518],[22.1696,42.801,899.1814],[22.1731,42.7988,947.2123],[22.173,42.79,805.4311],[22.1776,42.7848,922.5425],[22.196,42.7746,954.4114],[22.2166,42.7678,1196.7291],[22.2238,42.7596,1266.3068],[22.232,42.7548,1316.4615],[22.2458,42.7513,1443.9435],[22.2563,42.7465,1391.83],[22.2702,42.7487,1581.2981],[22.2868,42.7459,1446.3938],[22.3021,42.7538,1355.7769],[22.3165,42.7656,1232.3834],[22.3399,42.7705,1410.9673],[22.361,42.7815,1552.1598],[22.387,42.8053,1514.0466],[22.4069,42.8088,1122.3018],[22.4409,42.8215,1389.4895],[22.4715,42.8209,1097.5186],[22.4809,42.8286,1143.5724],[22.4923,42.8306,1006.7249],[22.504,42.8392,1153.4973],[22.503,42.847,1215.5637],[22.5062,42.8537,1311.0654],[22.5128,42.8608,1191.4084],[22.5226,42.8667,1181.7587],[22.5239,42.8664,1193.4911],[22.5231,42.8617,1222.3345],[22.5245,42.8592,1224.3645],[22.5339,42.854,1205.7573],[22.5486,42.8498,1143.1638],[22.5589,42.8427,859.7728],[22.5568,42.855,1119.2559],[22.5675,42.8688,1502.5623],[22.523,42.8747,1300.0148],[22.5002,42.8799,1164.3961],[22.4617,42.8784,997.9991],[22.4337,42.8848,1159.8398],[22.41,42.8958,1229.9884],[22.4012,42.9028,1170.4596],[22.3948,42.9119,1096.9314],[22.3774,42.9188,766.0919],[22.3592,42.9296,826.1871],[22.3883,42.9345,679.8363],[22.3983,42.939,806.7313],[22.4014,42.9426,893.4422],[22.4007,42.9464,929.9793],[22.39,42.956,803.15],[22.3613,42.9682,791.101],[22.3427,42.9692,672.3411],[22.3185,42.9805,673.2866],[22.2891,42.991,591.0809],[22.2773,42.9926,395.8677],[22.2637,42.991,553.6415],[22.2583,42.9918,583.5094],[22.2423,43.0022,685.5369],[22.2179,43.0067,594.0283],[22.2044,43.0132,748.7495],[22.2008,43.0169,633.3179],[22.2024,43.0222,520.5222],[22.216,43.0302,438.8994],[22.2242,43.0373,447.9525],[22.243,43.0437,514.2246],[22.2578,43.0552,833.6364],[22.257,43.0585,835.4355],[22.234,43.074,604.302],[22.2198,43.0601,426.0615],[22.2127,43.0568,406.7439],[22.193,43.0547,469.2505],[22.1752,43.0599,540.8983],[22.1552,43.0587,634.4125],[22.138,43.0741,688.7582],[22.1271,43.0813,650.5643],[22.109,43.0867,648.8129],[22.0776,43.1022,782.6398],[22.0505,43.1258,947.8869],[22.034,43.1345,899.7665],[22.028,43.1438,944.88],[22.0107,43.1404,725.5981],[22.0017,43.1444,676.6487],[21.9918,43.152,661.2167],[21.9826,43.1511,556.0055],[21.9633,43.1408,383.7102],[21.9419,43.1373,319.628],[21.9198,43.1265,204.7982],[21.915,43.128,203.8312],[21.8974,43.1555,198.7182],[21.8563,43.1401,204.0672],[21.8055,43.1378,233.1567],[21.814,43.1275,241.9285],[21.8139,43.1225,235.7103],[21.794,43.107,270.202],[21.7749,43.0956,251.2497],[21.7605,43.0916,252.4316],[21.7417,43.0891,279.6394],[21.7234,43.0829,338.366],[21.7089,43.0758,367.1154],[21.6882,43.0604,323.0706],[21.6834,43.0548,284.7599],[21.6582,43.0483,355.9918],[21.6444,43.0539,387.3652],[21.6381,43.0538,358.3459],[21.633,43.0513,337.1],[21.6247,43.0403,333.8475],[21.5984,43.0264,456.1225],[21.5545,43.0254,719.9481],[21.5426,43.0233,831.9179],[21.525,43.0146,1149.0465],[21.5127,43.0026,1230.9819],[21.5017,42.9956,1307.9121],[21.4755,42.9831,993.6083],[21.4508,42.9745,1131.2546],[21.4513,42.9697,1173.9802],[21.4577,42.9586,1023.0668],[21.464,42.9532,1035.7915],[21.4682,42.9445,1025.7399],[21.4732,42.9384,940.4047],[21.4741,42.9325,878.1589],[21.4625,42.9203,906.4194],[21.4485,42.9117,930.5294],[21.4485,42.8892,806.6027],[21.4383,42.8779,878.1432],[21.4372,42.8686,909.6104],[21.4324,42.858,902.6197],[21.4218,42.8369,932.0215],[21.4144,42.8285,815.3557],[21.4102,42.8199,838.3516],[21.4068,42.8096,881.6009],[21.4088,42.8029,939.3539],[21.4084,42.7949,837.6778],[21.4057,42.7914,837.0239],[21.3957,42.7876,774.606],[21.391,42.7826,807.9463],[21.3904,42.7666,1010.9192],[21.393,42.7603,1044.8843],[21.3926,42.7563,1034.6742],[21.3693,42.7372,912.0818],[21.3743,42.7329,877.9205],[21.3815,42.7306,876.0569],[21.4227,42.7358,906.3098],[21.4307,42.7346,796.3636],[21.4462,42.726,884.0134],[21.4608,42.7302,749.5891],[21.4659,42.73,768.4767],[21.5088,42.7136,799.4084],[21.5344,42.717,982.8577],[21.5459,42.7216,1030.177],[21.5519,42.721,967.1015],[21.5737,42.7133,892.7663],[21.5788,42.7101,857.2164],[21.582,42.7043,991.4254],[21.5769,42.6941,817.5379],[21.5877,42.6865,873.8375],[21.609,42.6828,847.2708],[21.6256,42.685,891.8757],[21.6291,42.6842,852.3867],[21.6343,42.6773,759.7402],[21.6403,42.6615,795.7427],[21.6463,42.6569,714.5123],[21.6539,42.6544,892.6467],[21.6602,42.656,998.1891],[21.6636,42.659,1090.9962],[21.6678,42.6693,1114.8708],[21.6717,42.6725,1120.6379]]]]}
,"properties": {"GID_1": "SRB.4_1","GID_0": "SRB","country": "Serbia","province": "Jablanički","VARNAME_1": "Jablanica","NL_NAME_1": "Јабланички","TYPE_1": "Okrug","ENGTYPE_1": "District","CC_1": "NA","HASC_1": "RS.JA","ISO_1": "NA","name": "Jablanički.province","area_km2": 2793.709,"hist_schema_id": "Elevation0-9000","hist_area_km2": {"200": 33.755,"225": 152.044,"250": 169.42,"275": 135.843,"300": 127.603,"325": 127.987,"350": 113.674,"375": 90.208,"400": 69.531,"425": 63.053,"450": 62.659,"475": 65.059,"500": 68.109,"525": 70.739,"550": 67.379,"575": 71.979,"600": 72.996,"625": 74.184,"650": 72.777,"675": 73.503,"700": 69.456,"725": 67.069,"750": 62.288,"775": 59.265,"800": 56.738,"825": 56.864,"850": 52.408,"875": 49.753,"900": 44.421,"925": 40.734,"950": 36.77,"975": 32.881,"1000": 30.576,"1025": 29.671,"1050": 27.647,"1075": 23.585,"1100": 20.815,"1125": 20.442,"1150": 19.895,"1175": 18.93,"1200": 18.667,"1225": 16.88,"1250": 17.549,"1275": 17.225,"1300": 17.615,"1325": 16.218,"1350": 13.419,"1375": 12.394,"1400": 11.134,"1425": 10.123,"1450": 7.715,"1475": 6.066,"1500": 5.071,"1525": 4.589,"1550": 3.609,"1575": 3.173,"1600": 3.328,"1625": 2.519,"1650": 2.333,"1675": 0.871,"1700": 0.451,"1725": 0.047}}}