{"type": "Feature","id": "843","bbox": [21.37867,42.6722,22.54479,43.16341],"geometry": {"type": "Polygon","coordinates": [[[21.93683,43.13305,234.1667],[21.90453,43.16341,215.9041],[21.8926,43.15365,198.7438],[21.87828,43.14796,200.1185],[21.87007,43.14434,203.1088],[21.8633,43.14202,208.2199],[21.85632,43.14005,204.0672],[21.85286,43.13959,204.1184],[21.84929,43.13933,206.0455],[21.83033,43.13923,218.2754],[21.82227,43.13897,222.8204],[21.80552,43.13778,233.1567],[21.81105,43.13145,255.1449],[21.814,43.1275,241.9285],[21.81482,43.12564,239.8314],[21.81488,43.12453,236.5547],[21.81389,43.12248,235.7103],[21.80723,43.11755,254.8778],[21.80092,43.11205,266.2676],[21.79405,43.10698,270.202],[21.77493,43.09564,251.2497],[21.77157,43.09422,251.1221],[21.76046,43.09156,252.4316],[21.75705,43.09107,256.8419],[21.74697,43.09016,276.7594],[21.74175,43.0891,279.6394],[21.73483,43.08703,312.2596],[21.72346,43.0829,338.366],[21.71168,43.07737,346.7526],[21.70889,43.07582,367.1154],[21.7048,43.07277,359.5727],[21.6986,43.06732,376.9943],[21.69266,43.06362,342.2817],[21.68822,43.06042,328.9212],[21.68481,43.05696,293.9837],[21.68336,43.05479,284.7599],[21.67395,43.05264,303.9587],[21.66594,43.05045,323.0791],[21.66181,43.04903,335.2246],[21.66,43.04854,345.3827],[21.65824,43.04833,355.9918],[21.657,43.04841,355.9918],[21.65535,43.04887,361.7505],[21.64874,43.05241,383.6192],[21.64439,43.05391,387.3652],[21.64259,43.05427,382.4537],[21.63995,43.05425,361.7218],[21.63814,43.05386,358.3459],[21.63458,43.05236,351.0257],[21.63297,43.05127,337.1],[21.63168,43.04996,330.3429],[21.63065,43.04848,326.7932],[21.62765,43.04288,307.559],[21.62636,43.04146,313.6196],[21.62476,43.04027,333.8475],[21.62119,43.03815,359.9032],[21.61246,43.03363,382.5992],[21.60357,43.02843,425.8724],[21.60073,43.02714,438.6721],[21.5984,43.02644,456.1225],[21.59603,43.0259,450.8246],[21.59205,43.02546,446.092],[21.58796,43.02528,456.3289],[21.55453,43.02538,719.9481],[21.5505,43.02513,757.8005],[21.54662,43.02456,760.4445],[21.54259,43.02332,831.9179],[21.53815,43.02159,895.7725],[21.53562,43.02037,927.5585],[21.52502,43.01464,1149.0465],[21.52265,43.01296,1175.6995],[21.52058,43.01112,1215.5208],[21.51505,43.00477,1213.7373],[21.51272,43.00254,1230.9819],[21.50709,42.99846,1358.8009],[21.50177,42.99557,1307.9121],[21.47552,42.98314,993.6083],[21.46673,42.98027,1103.7661],[21.45371,42.97637,1142.6804],[21.45195,42.97552,1105.1138],[21.45076,42.97451,1131.2546],[21.45035,42.97324,1176.4285],[21.45045,42.9718,1163.906],[21.45133,42.96965,1173.9802],[21.45443,42.96461,994.4832],[21.45769,42.95857,1023.0668],[21.45924,42.95686,1041.2935],[21.46394,42.95322,1035.7915],[21.46487,42.9519,1029.3438],[21.46709,42.94642,962.1163],[21.46818,42.94448,1025.7399],[21.47314,42.93836,940.4047],[21.47428,42.93637,894.8158],[21.47459,42.93443,872.0419],[21.47407,42.93255,878.1589],[21.47329,42.93128,915.4542],[21.46813,42.92658,864.0605],[21.46642,42.9248,857.5109],[21.46389,42.92146,883.1816],[21.46249,42.92027,906.4194],[21.46084,42.91929,931.8658],[21.45634,42.91733,928.3823],[21.45299,42.91552,984.6575],[21.45009,42.91345,951.3365],[21.44849,42.91167,930.5294],[21.44797,42.91035,949.5781],[21.44792,42.90901,949.5781],[21.44895,42.905029999999996,936.8441],[21.44916,42.90307,950.528],[21.44797,42.89697,861.1556],[21.44802,42.89503,866.9306],[21.44885,42.89108,858.4567],[21.44854,42.88922,806.6027],[21.44704,42.88692,768.1862],[21.43996,42.88028,878.5109],[21.43826,42.87793,878.1432],[21.43774,42.87596,901.3824],[21.43774,42.87085,983.3485],[21.43728,42.8686,909.6104],[21.43273,42.85963,954.4449],[21.43242,42.85803,902.6197],[21.40842,42.84174,845.2416],[21.40834,42.82075,778.1504],[21.4041,42.80398,936.1287],[21.39056,42.77041,905.3246],[21.38715,42.75496,1060.1143],[21.38394,42.74998,1064.3282],[21.37919,42.747,966.4528],[21.37867,42.74414,924.6316],[21.3887,42.73905,1017.6438],[21.40555,42.7353,927.6696],[21.4178,42.73557,945.3202],[21.44182,42.7361,780.4386],[21.47951,42.73225,783.8494],[21.54249,42.72582,1075.5447],[21.56523,42.72018,959.6091],[21.58052,42.710209999999996,857.2164],[21.61266,42.68039,895.2369],[21.62941,42.6722,780.3365],[21.64408,42.67231,862.1246],[21.68739,42.68683,1042.2783],[21.70889,42.68719,975.7115],[21.73865,42.68215,1118.4552],[21.74425,42.67942,1043.7588],[21.75467,42.68845,878.2087],[21.75762,42.69029,941.2836],[21.76067,42.69161,895.0216],[21.76899,42.69453,1028.6219],[21.77224,42.69602,1008.4094],[21.78201,42.70212,998.0367],[21.78506,42.70447,1023.5209],[21.78594,42.70584,980.8947],[21.78635,42.70729,932.0841],[21.78542,42.71496,843.4902],[21.78501,42.72282,791.1433],[21.7849,42.73036,735.8113],[21.78532,42.73274,668.0015],[21.78661,42.7347,740.1611],[21.78785,42.73576,712.5246],[21.7894,42.73667,728.9315],[21.79607,42.73941,775.7405],[21.79865,42.74091,673.649],[21.80072,42.74271,591.3269],[21.80371,42.7462,626.1021],[21.80557,42.74768,640.5416],[21.80723,42.74842,639.197],[21.81322,42.75049,504.5064],[21.81457,42.75134,504.5064],[21.81539,42.75289,542.6794],[21.81482,42.7546,486.0276],[21.81172,42.75806,523.3454],[21.8109,42.75948,630.6305],[21.81048,42.76098,668.5039],[21.81069,42.76289,643.364],[21.81172,42.7646,574.5918],[21.81327,42.76623,592.9596],[21.81777,42.76933,415.6762],[21.82056,42.77067,428.1758],[21.82278,42.77145,462.6795],[21.84015,42.77555,867.5203],[21.84211,42.77589,919.3729],[21.8449,42.77605,955.1166],[21.84883,42.77592,1051.9208],[21.85162,42.77605,1066.0101],[21.86216,42.77809,977.2283],[21.8649,42.77827,1005.7296],[21.86877,42.77814,1101.8728],[21.87156,42.77835,1094.4069],[21.87544,42.7792,1030.6705],[21.8849,42.78183,1000.668],[21.88882,42.78261,1129.5204],[21.89162,42.78271,1119.6184],[21.90174,42.78163,1158.7627],[21.90691,42.78129,1051.3215],[21.90908,42.78132,1019.4315],[21.91125,42.78158,995.4288],[21.91926,42.78349,967.7158],[21.93037,42.78527,1091.3064],[21.93668,42.78555,1165.1315],[21.94014,42.78535,1271.1633],[21.94427,42.78483,1306.1401],[21.96391,42.78834,1276.7396],[21.96706,42.78904,1197.96],[21.9729,42.79116,1085.6465],[21.97962,42.79447,1052.3672],[21.98195,42.79615,1047.6064],[21.9835,42.79819,968.9656],[21.98443,42.8007,978.3545],[21.98561,42.80891,884.0984],[21.98639,42.8115,890.1411],[21.98722,42.81292,834.5315],[21.9897,42.81602,888.3943],[21.99166,42.81739,901.9095],[21.99342,42.81801,938.2249],[21.99548,42.81832,935.6689],[21.99833,42.81842,956.6788],[22.00127,42.81811,949.5457],[22.00355,42.81759,899.2523],[22.00572,42.81682,790.4186],[22.0083,42.8154,844.8831],[22.01636,42.8086,726.298],[22.02106,42.8055,773.4389],[22.0238,42.80421,842.6738],[22.02597,42.80359,825.528],[22.02825,42.80323,874.241],[22.03114,42.8032,914.8055],[22.04111,42.80506,1079.1742],[22.05465,42.80951,823.4708],[22.06349,42.81266,747.4329],[22.06556,42.81359,747.9331],[22.07279,42.81767,639.738],[22.07889,42.81987,685.1334],[22.08235,42.82049,672.3173],[22.08602,42.82082,688.7377],[22.09734,42.82095,706.9502],[22.10447,42.82038,658.1359],[22.10649,42.81994,575.6625],[22.10824,42.81927,538.7542],[22.11015,42.81785,503.2803],[22.1162,42.81028,355.189],[22.11744,42.80845,426.2702],[22.11765,42.8071,426.2702],[22.11734,42.80573,469.3951],[22.11599,42.80372,519.6041],[22.11005,42.79783,470.8564],[22.10902,42.79589,508.6213],[22.10897,42.79506,561.6196],[22.10959,42.79362,609.993],[22.11098,42.79238,609.993],[22.11274,42.79155,667.266],[22.11486,42.79093,658.4144],[22.11858,42.79036,756.2595],[22.12261,42.79005,788.0623],[22.13269,42.78977,815.6283],[22.1361,42.79015,837.8926],[22.1379,42.79072,871.4814],[22.13997,42.79219,913.0561],[22.14602,42.79907,839.5443],[22.14803,42.80049,796.1986],[22.14984,42.80116,777.5694],[22.15191,42.80163,850.3315],[22.15573,42.80201,917.0779],[22.15971,42.80212,861.3518],[22.16369,42.80199,763.7726],[22.16746,42.80152,876.9055],[22.16958,42.80101,899.1814],[22.17139,42.80026,947.2123],[22.1731,42.79883,947.2123],[22.17356,42.79697,970.1537],[22.17284,42.79155,836.4514],[22.17299,42.79,805.4311],[22.17351,42.78853,834.3776],[22.17449,42.78721,834.3776],[22.17759,42.78478,922.5425],[22.19599,42.77457,954.4114],[22.20493,42.77114,1014.5488],[22.21278,42.76922,1140.6802],[22.21485,42.7686,1156.7831],[22.21661,42.76775,1196.7291],[22.21852,42.76618,1221.6228],[22.2224,42.76093,1265.3975],[22.22379,42.75956,1266.3068],[22.22725,42.75726,1296.4813],[22.23201,42.75483,1316.4615],[22.23459,42.75385,1324.4196],[22.24586,42.75129,1443.9435],[22.24984,42.74974,1436.8867],[22.25392,42.74752,1431.9561],[22.25635,42.74654,1391.83],[22.25805,42.74631,1415.9763],[22.25976,42.74644,1431.3066],[22.26586,42.74835,1588.9338],[22.26761,42.74866,1588.9338],[22.2702,42.74866,1581.2981],[22.27335,42.74809,1558.2305],[22.278,42.74667,1508.3916],[22.28069,42.74612,1453.7928],[22.28348,42.74584,1453.4005],[22.28678,42.74592,1446.3938],[22.28973,42.74662,1437.9043],[22.29144,42.74737,1364.4738],[22.30213,42.75382,1355.7769],[22.30864,42.76026,1280.157],[22.31391,42.76411,1276.1548],[22.31655,42.76561,1232.3834],[22.31939,42.7669,1226.1238],[22.32404,42.76814,1319.7808],[22.33355,42.76925,1404.1215],[22.33665,42.76974,1385.1456],[22.33991,42.77054,1410.9673],[22.34285,42.77165,1408.386],[22.34539,42.77305,1433.9263],[22.3503,42.77682,1537.4928],[22.36104,42.78155,1552.1598],[22.36342,42.78313,1555.7996],[22.36611,42.78545,1641.2109],[22.37148,42.79173,1707.0663],[22.37531,42.79545,1680.6144],[22.38068,42.79974,1555.402],[22.38492,42.804,1548.7322],[22.38704,42.80527,1514.0466],[22.3889,42.80576,1482.3781],[22.3999,42.807,1345.8213],[22.40693,42.80876,1122.3018],[22.41138,42.81036,1052.4402],[22.41711,42.81328,1110.7192],[22.41933,42.81416,1129.4434],[22.42946,42.81682,1280.6796],[22.43045,42.81708,1277.7949],[22.4368,42.82429,1444.0476],[22.44548,42.83018,1355.9232],[22.47091,42.84013,1423.0985],[22.48145,42.84674,1076.7922],[22.49706,42.86441,1014.8929],[22.50605,42.87012,1145.2661],[22.51979,42.87036,1214.2673],[22.53757,42.86834,1216.9247],[22.54449,42.87139,1351.8995],[22.54479,42.87171,1351.8995],[22.54408,42.8718,1351.8995],[22.52755,42.87405,1317.3947],[22.523,42.87464,1300.0148],[22.51556,42.87599,1222.2244],[22.51194,42.87689,1199.575],[22.50408,42.8793,1139.5618],[22.50021,42.87992,1164.3961],[22.49628,42.88015,1138.0125],[22.48848,42.87997,1204.2939],[22.47675,42.87831,1016.8521],[22.47297,42.87811,1037.172],[22.46543,42.87813,1023.6073],[22.46171,42.87842,997.9991],[22.4582,42.87901,1100.5474],[22.45024,42.88154,1118.9396],[22.44729,42.88214,1183.1624],[22.43804,42.88346,1077.6187],[22.43577,42.88405,1138.6198],[22.4337,42.88482,1159.8398],[22.42833,42.88769,1355.1765],[22.42631,42.8886,1369.8533],[22.41944,42.89095,1287.6251],[22.41381,42.8932,1224.4253],[22.40998,42.89583,1229.9884],[22.40631,42.8994,1207.3743],[22.4012,42.90281,1170.4596],[22.3997,42.90451,1174.9436],[22.39639,42.9103,1103.1786],[22.39474,42.91193,1096.9314],[22.39319,42.91283,1062.816],[22.38957,42.91438,1034.3314],[22.38337,42.91637,919.889],[22.38006,42.91759,835.3191],[22.37743,42.91883,766.0919],[22.36683,42.92454,754.3663],[22.35924,42.92955,826.1871],[22.37701,42.93224,765.2261],[22.38833,42.93454,679.8363],[22.39313,42.93598,766.5796],[22.39593,42.93735,824.0506],[22.39835,42.93896,806.7313],[22.40021,42.94071,867.7161],[22.4014,42.9426,893.4422],[22.40156,42.94446,906.0248],[22.40073,42.94642,929.9793],[22.39939,42.94839,922.8873],[22.39784,42.95025,943.7432],[22.3951,42.95273,828.082],[22.39003,42.95598,803.15],[22.37913,42.96131,662.3256],[22.37629,42.962649999999996,853.2696],[22.36394,42.96735,740.9063],[22.36135,42.96815,791.101],[22.35841,42.96864,847.6409],[22.35536,42.9688,892.7798],[22.34745,42.96854,775.3542],[22.34554,42.96859,717.8504],[22.3427,42.96916,672.3411],[22.34017,42.97027,647.1671],[22.33469,42.97366,632.0724],[22.32601,42.97714,602.436],[22.31846,42.9805,673.2866],[22.29867,42.98784,487.0011],[22.28916,42.99097,591.0809],[22.28508,42.99203,602.6067],[22.28126,42.99252,472.2285],[22.27733,42.99262,395.8677],[22.27335,42.99247,332.8212],[22.26958,42.992,323.9954],[22.26369,42.99097,553.6415],[22.261,42.99107,566.7191],[22.25826,42.99179,583.5094],[22.25562,42.99288,641.6757],[22.25201,42.99492,659.4764],[22.24746,42.99921,730.6498],[22.24508,43.00081,712.7029],[22.24234,43.00218,685.5369],[22.23847,43.00358,616.9994],[22.23475,43.0043,551.6893],[22.22265,43.00549,390.9826],[22.21785,43.0067,594.0283],[22.21521,43.00776,645.8555],[22.20715,43.01172,755.4357],[22.20436,43.01324,748.7495],[22.20214,43.01492,721.031],[22.2008,43.01686,633.3179],[22.20054,43.01872,589.1086],[22.20105,43.02058,486.7084],[22.2024,43.02223,520.5222],[22.21604,43.03022,438.8994],[22.21811,43.03208,389.4997],[22.22038,43.03466,407.1653],[22.22245,43.03634,442.3177],[22.22415,43.03727,447.9525],[22.23082,43.04022,435.58],[22.2334,43.04109,454.3527],[22.24115,43.04295,514.2246],[22.24296,43.04368,514.2246],[22.24519,43.04518,545.9291],[22.24963,43.04952,643.471],[22.25676,43.05417,817.7212],[22.25779,43.05515,833.6364],[22.25826,43.05618,844.7057],[22.25821,43.05691,844.7057],[22.25702,43.05846,835.4355],[22.24689,43.06525,655.6379],[22.24053,43.06905,605.5074],[22.23402,43.07399,604.302],[22.22643,43.06621,450.8502],[22.21981,43.06011,426.0615],[22.21718,43.05835,414.2783],[22.21501,43.05748,409.2897],[22.21273,43.05683,406.7439],[22.19594,43.05474,430.4859],[22.19294,43.05468,469.2505],[22.19005,43.05507,473.0343],[22.18741,43.05587,556.295],[22.18229,43.05791,513.0258],[22.17522,43.05996,540.8983],[22.17201,43.06027,551.1897],[22.1687,43.06014,542.7819],[22.16137,43.05908,585.9584],[22.15522,43.05866,634.4125],[22.14958,43.06331,661.4756],[22.14054,43.072,727.4352],[22.13801,43.07409,688.7582],[22.13263,43.07799,666.6603],[22.12716,43.08132,650.5643],[22.12426,43.08264,666.8043],[22.12199,43.08342,621.9447],[22.11351,43.0853,627.8728],[22.10902,43.08672,648.8129],[22.1055,43.08858,664.1001],[22.10039,43.09184,667.3765],[22.09837,43.09277,681.1835],[22.09129,43.0952,627.1042],[22.08923,43.09613,642.4049],[22.08406,43.09915,770.8738],[22.07765,43.10223,782.6398],[22.07527,43.10383,822.0104],[22.06613,43.11106,885.7838],[22.06106,43.11613,922.5211],[22.0561,43.12037,894.9148],[22.05233,43.12424,926.8113],[22.05047,43.12579,947.8869],[22.04835,43.12719,968.2031],[22.04597,43.12838,942.5155],[22.03889,43.13117,924.1744],[22.03621,43.13266,939.9576],[22.03398,43.13447,899.7665],[22.03176,43.13706,860.9106],[22.02923,43.14259,892.4966],[22.02799,43.14378,944.88],[22.0267,43.14421,878.2985],[22.0251,43.14421,878.2985],[22.02261,43.14357,822.3423],[22.0176,43.14114,739.3822],[22.01559,43.14057,760.7311],[22.01347,43.14026,701.8196],[22.01073,43.14042,754.0334],[22.00825,43.14109,735.4285],[22.00587,43.14212,697.8404],[22.00169,43.1444,676.6487],[21.99998,43.14558,664.7581],[21.99569,43.14998,623.4425],[21.99362,43.15145,591.4114],[21.99182,43.15199,661.2167],[21.98985,43.15225,633.3518],[21.98701,43.1522,593.5269],[21.98479,43.15178,603.3204],[21.98257,43.15111,556.0055],[21.97978,43.14987,550.4876],[21.96887,43.14326,376.9236],[21.96639,43.14199,354.5834],[21.96324,43.1408,383.7102],[21.95972,43.13987,370.9421],[21.9558,43.13928,382.5871],[21.94784,43.13856,312.0064],[21.93683,43.13305,234.1667]]]}
,"properties": {"ISO3166-1-Alpha-3": "SRB","country": "Republic of Serbia","fill": "#000","name": "Jablanicki","area_km2": 2761.627,"hist_schema_id": "Elevation0-9000","hist_area_km2": {"200": 38.567,"225": 152.679,"250": 169.296,"275": 135.859,"300": 127.541,"325": 128.018,"350": 113.658,"375": 90.115,"400": 69.531,"425": 63.022,"450": 62.473,"475": 65.028,"500": 68.14,"525": 70.723,"550": 67.441,"575": 72.026,"600": 73.043,"625": 74.2,"650": 72.761,"675": 73.487,"700": 69.331,"725": 66.991,"750": 61.821,"775": 58.345,"800": 55.616,"825": 56.224,"850": 51.441,"875": 48.413,"900": 42.63,"925": 38.615,"950": 34.417,"975": 30.528,"1000": 28.971,"1025": 28.534,"1050": 26.043,"1075": 22.34,"1100": 19.446,"1125": 18.668,"1150": 18.418,"1175": 17.562,"1200": 17.346,"1225": 15.481,"1250": 16.119,"1275": 16.261,"1300": 16.683,"1325": 15.3,"1350": 12.518,"1375": 11.601,"1400": 10.295,"1425": 9.315,"1450": 7.14,"1475": 5.771,"1500": 5.04,"1525": 4.589,"1550": 3.562,"1575": 3.173,"1600": 3.282,"1625": 2.519,"1650": 2.349,"1675": 0.855,"1700": 0.436,"1725": 0.031}}}