{"type": "Feature","bbox": [21.6116,42.2793,21.9651,42.6412],"geometry": {"type": "MultiPolygon","coordinates": [[[[21.6293,42.405,675.8408],[21.6466,42.3985,664.8667],[21.6649,42.3874,549.0985],[21.6967,42.3817,472.4166],[21.7091,42.3865,435.1572],[21.7147,42.3865,409.4593],[21.7195,42.3815,414.3835],[21.7229,42.3711,416.2998],[21.7209,42.3672,415.9509],[21.711,42.3594,416.8602],[21.7094,42.3549,420.9019],[21.7167,42.3439,421.8752],[21.7186,42.3361,424.7508],[21.7217,42.3334,429.0641],[21.7274,42.3318,434.7461],[21.7369,42.3319,443.5538],[21.7552,42.3365,502.9782],[21.7735,42.3329,614.2398],[21.7919,42.3368,743.5186],[21.7975,42.336,754.3508],[21.8092,42.3236,611.0568],[21.8361,42.3184,536.5212],[21.8422,42.3084,557.6013],[21.8722,42.2793,511.9328],[21.942,42.3202,1025.9458],[21.9352,42.3371,812.6928],[21.9293,42.3453,551.0066],[21.9238,42.3484,502.7529],[21.9221,42.3534,643.8746],[21.9269,42.357,657.8245],[21.9377,42.3597,672.0187],[21.9407,42.3618,666.3391],[21.9438,42.375,646.601],[21.9348,42.3826,674.9479],[21.9349,42.386,660.7666],[21.9537,42.391,735.6954],[21.9651,42.4004,703.3163],[21.9413,42.4085,735.1766],[21.9244,42.4071,658.6008],[21.9002,42.416,619.1198],[21.8932,42.4245,595.7023],[21.8766,42.4306,488.7328],[21.8675,42.4425,437.2478],[21.8235,42.4687,387.1392],[21.8108,42.4803,433.99],[21.8048,42.4909,449.2155],[21.7932,42.5041,493.1832],[21.7783,42.5132,687.6471],[21.7579,42.5174,864.7017],[21.7497,42.5225,818.8723],[21.7494,42.5278,835.4662],[21.7627,42.5477,733.0873],[21.7791,42.5555,797.2745],[21.7902,42.5661,1074.6117],[21.8158,42.5764,1138.1499],[21.84,42.5894,1275.1417],[21.844,42.5935,1262.7567],[21.847,42.6006,1253.616],[21.8465,42.6067,1222.1863],[21.8353,42.6148,1181.3442],[21.8243,42.6304,1064.6433],[21.8108,42.6372,1190.5273],[21.7951,42.6412,1199.1179],[21.7721,42.626,1133.5254],[21.7555,42.6234,1050.6873],[21.7494,42.6202,888.6924],[21.7468,42.6155,875.8679],[21.7478,42.6065,1064.6412],[21.7426,42.5968,982.3952],[21.7313,42.5935,970.4518],[21.7267,42.5905,810.6005],[21.7272,42.5846,823.9174],[21.7395,42.5737,642.4896],[21.744,42.5668,679.8809],[21.7403,42.5562,706.3901],[21.741,42.5493,666.6589],[21.7395,42.5468,647.5463],[21.7234,42.5392,613.098],[21.7025,42.5374,504.041],[21.691,42.5316,494.8272],[21.6883,42.5282,545.0428],[21.6882,42.5239,615.09],[21.6897,42.5198,695.3719],[21.6963,42.5119,583.9683],[21.6963,42.5075,605.0982],[21.6853,42.5037,542.6124],[21.6766,42.4931,566.4396],[21.6622,42.4866,564.634],[21.6566,42.4772,527.23],[21.6462,42.4673,623.7977],[21.6116,42.4478,640.1831],[21.6135,42.4377,590.8461],[21.6277,42.4198,674.629],[21.6293,42.405,675.8408]]]]}
,"properties": {"GID_2": "SRB.11.2_1","GID_0": "SRB","country": "Serbia","GID_1": "SRB.11_1","province": "Pčinjski","NL_NAME_1": "Пчињски","county": "Bujanovac","VARNAME_2": "Bujanoci","NL_NAME_2": "Бујановац","TYPE_2": "Opštine","ENGTYPE_2": "Town|Municipal","CC_2": "NA","HASC_2": "NA","name": "Bujanovac.county","area_km2": 468.9957,"hist_schema_id": "Elevation0-9000","hist_area_km2": {"375": 0.8613,"400": 40.5994,"425": 34.4316,"450": 27.6253,"475": 25.2801,"500": 26.0489,"525": 27.1141,"550": 27.0509,"575": 26.8163,"600": 29.0384,"625": 26.6751,"650": 23.92,"675": 20.8193,"700": 17.845,"725": 15.8094,"750": 13.2558,"775": 11.0335,"800": 9.0272,"825": 7.5092,"850": 6.0678,"875": 5.5656,"900": 5.2688,"925": 4.2978,"950": 4.1554,"975": 3.4513,"1000": 3.4817,"1025": 3.9807,"1050": 3.9339,"1075": 4.0591,"1100": 3.3879,"1125": 3.2162,"1150": 3.1845,"1175": 2.2167,"1200": 0.89,"1225": 0.4998,"1250": 0.406,"1275": 0.1093,"1300": 0.0624}}}