{"type":"Feature","properties":{"GID_2":"SRB.21.7_1","GID_0":"SRB","country":"Serbia","GID_1":"SRB.21_1","province":"Šumadijski","NL_NAME_1":"Шумадијски","county":"Topola","VARNAME_2":"NA","NL_NAME_2":"Топола","TYPE_2":"Opštine","ENGTYPE_2":"Town|Municipal","CC_2":"NA","HASC_2":"NA","name":"Topola.county"},
"geometry":{"type": "MultiPolygon","coordinates": [[[[20.6498,44.3218,206.803],[20.644,44.3174,203.1442],[20.642,44.3136,222.7733],[20.6432,44.3109,222.8724],[20.6495,44.3061,212.2599],[20.649,44.3026,214.6251],[20.637,44.2894,187.3364],[20.6344,44.2831,230.7274],[20.6389,44.2685,307.7448],[20.6383,44.257,355.9064],[20.6468,44.247,330.1017],[20.6444,44.2433,315.4093],[20.6399,44.2412,306.5446],[20.631,44.2402,306.1774],[20.6219,44.2414,331.4482],[20.6067,44.2463,346.6179],[20.5866,44.2445,437.2289],[20.5849,44.242,424.6631],[20.5864,44.2389,441.6159],[20.6062,44.2229,373.6955],[20.6061,44.2203,362.4909],[20.6026,44.2151,329.1256],[20.5971,44.2129,300.4904],[20.5822,44.2141,318.0472],[20.5715,44.2109,344.6508],[20.5523,44.1993,433.8366],[20.5389,44.1834,333.394],[20.5316,44.1791,346.434],[20.5112,44.1778,504.63],[20.4902,44.1804,544.6313],[20.4806,44.1837,446.4401],[20.4731,44.182,439.1154],[20.4619,44.176,483.2194],[20.4622,44.1697,649.5902],[20.4597,44.1599,537.0718],[20.462,44.1558,470.795],[20.4692,44.1531,414.8164],[20.4884,44.1511,584.7131],[20.5119,44.1378,783.0936],[20.5159,44.1329,971.1636],[20.5203,44.1201,736.0608],[20.5323,44.1104,801.275],[20.5508,44.121,1086.6431],[20.5634,44.125,798.9304],[20.5767,44.1315,663.8511],[20.5925,44.1342,788.7284],[20.6109,44.1422,491.0107],[20.6158,44.1458,528.9603],[20.6265,44.1599,439.2533],[20.6347,44.1634,346.5222],[20.655,44.1658,233.9501],[20.6665,44.1651,229.5766],[20.6767,44.1576,265.9897],[20.7043,44.1461,398.4494],[20.7123,44.1444,431.6687],[20.7412,44.1462,441.2175],[20.7593,44.1431,354.3133],[20.7744,44.1459,324.4029],[20.7872,44.1425,307.1731],[20.7972,44.1417,327.9076],[20.8065,44.1432,330.5317],[20.8153,44.1481,279.0437],[20.8256,44.1653,223.8815],[20.8268,44.1711,243.5205],[20.8255,44.1766,241.444],[20.8193,44.1825,259.7317],[20.8007,44.1943,235.4422],[20.7888,44.2052,230.9357],[20.7869,44.2093,191.4487],[20.7943,44.2206,175.5868],[20.7942,44.2297,209.1001],[20.7957,44.2337,208.8778],[20.8067,44.2502,136.3344],[20.8163,44.2576,135.0579],[20.8139,44.2747,150.1245],[20.8231,44.284,147.3971],[20.8231,44.2878,138.2725],[20.8093,44.2936,156.6465],[20.772,44.2978,178.1796],[20.7504,44.3096,221.3526],[20.7428,44.3172,161.0931],[20.7361,44.3214,179.3993],[20.7125,44.3247,144.9391],[20.6905,44.3346,163.4254],[20.6776,44.3329,173.4053],[20.6498,44.3218,206.803]]]]}}