{"type":"Feature","properties":{"GID_2":"SRB.3.16_1","GID_0":"SRB","country":"Serbia","GID_1":"SRB.3_1","province":"GradBeograd","NL_NAME_1":"Београд","county":"Zemun","VARNAME_2":"Zimony|Semlin","NL_NAME_2":"Земун","TYPE_2":"Opštine","ENGTYPE_2":"Town|Municipal","CC_2":"NA","HASC_2":"NA","name":"Zemun.county"},
"geometry":{"type": "MultiPolygon","coordinates": [[[[20.4265,44.8006,72.6089],[20.4267,44.8045,75.729],[20.4351,44.8169,78.8844],[20.4402,44.8207,76.9325],[20.4084,44.8266,75.2269],[20.3735,44.8405,91.6344],[20.3485,44.8622,84.8461],[20.3401,44.872,87.2187],[20.3291,44.8815,86.1011],[20.3139,44.9029,90.4873],[20.2809,44.9193,84.5546],[20.2585,44.9155,78.2249],[20.2388,44.9142,76.5908],[20.1981,44.8922,75.2547],[20.168,44.8931,74.4826],[20.1613,44.891,75.0621],[20.155,44.8864,74.3073],[20.1501,44.8654,76.2025],[20.136,44.8442,76.224],[20.1462,44.8434,75.2829],[20.1685,44.8362,75.6191],[20.2338,44.822,84.398],[20.2645,44.817,90.8068],[20.2883,44.815,94.1272],[20.3046,44.8099,97.5477],[20.3247,44.8116,99.8056],[20.3415,44.8153,101.4884],[20.3531,44.812,101.8822],[20.3642,44.811,100.6989],[20.3933,44.8153,77.3431],[20.4148,44.8084,77.6228],[20.4265,44.8006,72.6089]]]]}}