{"type": "Feature","bbox": [22.1136,42.8448,22.9789,43.3899],"geometry": {"type": "MultiPolygon","coordinates": [[[[22.6004,42.8756,1115.2526],[22.6049,42.8749,1042.6814],[22.6162,42.8621,1144.7504],[22.6199,42.8599,1215.6919],[22.639,42.8624,797.7226],[22.6432,42.8616,726.3924],[22.6563,42.8542,918.1346],[22.6586,42.8482,927.4493],[22.6627,42.8448,896.2092],[22.6668,42.848,894.5875],[22.6668,42.8525,930.7123],[22.6778,42.8579,671.0466],[22.6828,42.8667,754.055],[22.6856,42.8681,754.8105],[22.6881,42.8682,749.9858],[22.6966,42.8613,828.6653],[22.7033,42.8658,917.001],[22.7189,42.8666,955.7024],[22.7333,42.8728,941.8565],[22.7382,42.8796,986.5787],[22.7431,42.8824,931.1643],[22.7478,42.8933,792.8195],[22.7593,42.9023,795.4483],[22.7622,42.9093,812.0819],[22.7619,42.9126,809.0287],[22.7542,42.9252,607.2106],[22.7606,42.9292,613.1847],[22.7649,42.9282,614.9667],[22.7678,42.9297,636.0331],[22.7674,42.9349,621.9144],[22.7699,42.9387,554.6626],[22.7702,42.962,732.8975],[22.8227,42.9809,816.3268],[22.8265,42.99,666.1202],[22.8391,43.0067,516.565],[22.8747,43.0246,681.2094],[22.8757,43.0354,717.6289],[22.8847,43.0427,736.7117],[22.8938,43.0675,723.073],[22.9075,43.0767,872.0709],[22.9263,43.0811,889.6736],[22.9293,43.0845,813.2],[22.9574,43.1017,872.5995],[22.9589,43.1121,950.1855],[22.9644,43.1185,998.2266],[22.9688,43.1271,1172.6055],[22.9693,43.1306,1223.395],[22.9672,43.14,1205.0955],[22.9701,43.1464,1133.8254],[22.9683,43.1523,1285.2964],[22.9597,43.1568,1300.9714],[22.9789,43.178,1606.5958],[22.978,43.1831,1646.8665],[22.9689,43.186,1682.2911],[22.9577,43.1929,1448.3901],[22.954,43.1923,1434.0638],[22.9487,43.1949,1585.6069],[22.9348,43.1974,1474.0798],[22.9146,43.1926,1344.1409],[22.9092,43.1982,1428.7393],[22.9035,43.2006,1542.1417],[22.894,43.2089,1414.7166],[22.8828,43.2106,1421.0178],[22.8739,43.2142,1457.5292],[22.8707,43.2207,1323.2305],[22.8625,43.226,1144.4318],[22.8578,43.2332,1102.8032],[22.8463,43.2442,994.8668],[22.8453,43.2572,1049.7697],[22.8387,43.2627,1107.6143],[22.8251,43.2654,1250.1776],[22.8195,43.2755,1440.658],[22.8219,43.286,1542.8384],[22.8077,43.2987,1847.1282],[22.8027,43.3207,1564.5417],[22.7876,43.3273,1796.3058],[22.7761,43.3292,1728.2314],[22.7657,43.3357,1372.074],[22.7551,43.3473,1166.5166],[22.7379,43.3562,1166.7207],[22.7358,43.3609,1106.7885],[22.7346,43.3708,1284.0405],[22.7196,43.3757,1260.2664],[22.7122,43.3813,1415.8655],[22.7008,43.3831,1714.4822],[22.6885,43.3899,2006.2689],[22.668,43.3871,1737.5796],[22.6635,43.3885,1696.7343],[22.6515,43.3871,1435.6151],[22.6454,43.3892,1534.095],[22.6224,43.3678,1611.2977],[22.6016,43.36,1595.3973],[22.5812,43.3452,1229.5002],[22.5774,43.3388,1275.3168],[22.5811,43.328,1219.5708],[22.5772,43.3254,1227.2754],[22.5414,43.3293,762.2953],[22.5246,43.3355,888.8104],[22.5154,43.3439,860.278],[22.5051,43.3506,901.749],[22.4956,43.3629,755.467],[22.4899,43.3669,821.1943],[22.4843,43.366,800.0464],[22.4743,43.3512,636.3423],[22.4689,43.3474,645.0822],[22.4517,43.3465,485.3312],[22.4449,43.3448,644.4739],[22.4142,43.3616,768.5042],[22.3942,43.3626,794.3827],[22.3711,43.3698,695.8494],[22.3599,43.376,723.7725],[22.3373,43.3823,656.9118],[22.339,43.3647,571.2406],[22.3337,43.3556,940.1255],[22.3338,43.3423,873.4893],[22.3283,43.328,1191.9874],[22.3215,43.3236,1109.4426],[22.3075,43.3211,1176.1699],[22.2584,43.3191,947.3427],[22.2494,43.3213,974.23],[22.2388,43.3267,1052.0446],[22.2206,43.3303,849.9462],[22.2013,43.3394,940.1661],[22.1649,43.3437,809.3943],[22.1374,43.3369,425.3365],[22.1419,43.3152,575.2404],[22.1468,43.3024,484.8241],[22.1466,43.2914,440.1995],[22.1503,43.288,470.3947],[22.1634,43.2815,537.5131],[22.167,43.2682,609.0131],[22.1612,43.2599,474.2719],[22.1451,43.2576,439.6861],[22.1393,43.2498,513.6939],[22.131,43.243,550.6498],[22.1297,43.2394,549.4575],[22.1317,43.2302,673.4282],[22.1136,43.203,1125.1572],[22.1351,43.196,1080.2],[22.1552,43.185,1340.7738],[22.1741,43.1805,1770.0768],[22.1965,43.165,1612.906],[22.2137,43.162,1597.9332],[22.2232,43.153,1499.5298],[22.23,43.1497,1504.8846],[22.2418,43.1478,1397.8354],[22.2605,43.1515,1406.8043],[22.2688,43.1487,1364.0044],[22.2764,43.1441,1225.6908],[22.2775,43.141,1194.5679],[22.2755,43.1361,1311.3975],[22.2818,43.1301,1385.2515],[22.2956,43.1099,1387.5875],[22.2391,43.0867,700.9278],[22.2367,43.0835,681.9093],[22.234,43.074,604.302],[22.257,43.0585,835.4355],[22.2578,43.0552,833.6364],[22.243,43.0437,514.2246],[22.2242,43.0373,447.9525],[22.216,43.0302,438.8994],[22.2024,43.0222,520.5222],[22.2005,43.0187,589.1086],[22.2021,43.0149,721.031],[22.2179,43.0067,594.0283],[22.2423,43.0022,685.5369],[22.2583,42.9918,583.5094],[22.2637,42.991,553.6415],[22.2773,42.9926,395.8677],[22.2891,42.991,591.0809],[22.3185,42.9805,673.2866],[22.3427,42.9692,672.3411],[22.3613,42.9682,791.101],[22.39,42.956,803.15],[22.4007,42.9464,929.9793],[22.4014,42.9426,893.4422],[22.3983,42.939,806.7313],[22.3883,42.9345,679.8363],[22.3592,42.9296,826.1871],[22.3774,42.9188,766.0919],[22.3948,42.9119,1096.9314],[22.4012,42.9028,1170.4596],[22.4138,42.8932,1224.4253],[22.4358,42.884,1138.6198],[22.4654,42.8781,1024.9435],[22.5002,42.8799,1164.3961],[22.523,42.8747,1300.0148],[22.5675,42.8688,1502.5623],[22.5696,42.8718,1543.4922],[22.5761,42.871,1565.1863],[22.5824,42.8743,1344.9631],[22.5879,42.8707,1390.9185],[22.6004,42.8756,1115.2526]]]]}
,"properties": {"GID_1": "SRB.12_1","GID_0": "SRB","country": "Serbia","province": "Pirotski","VARNAME_1": "Pirot","NL_NAME_1": "Пиротски","TYPE_1": "Okrug","ENGTYPE_1": "District","CC_1": "NA","HASC_1": "RS.PI","ISO_1": "NA","name": "Pirotski.province","area_km2": 2655.439,"hist_schema_id": "Elevation0-9000","hist_area_km2": {"250": 2.577,"275": 12.168,"300": 16.958,"325": 18.552,"350": 25.107,"375": 68.057,"400": 65.224,"425": 63.247,"450": 65.357,"475": 68.64,"500": 66.286,"525": 71.502,"550": 76.813,"575": 80.203,"600": 88.797,"625": 86.077,"650": 86.914,"675": 90.308,"700": 104.654,"725": 100.289,"750": 101.672,"775": 99.661,"800": 95.155,"825": 86.246,"850": 77.743,"875": 72.059,"900": 69.591,"925": 66.672,"950": 65.164,"975": 62.021,"1000": 55.882,"1025": 51.927,"1050": 47.649,"1075": 46.087,"1100": 40.685,"1125": 37.279,"1150": 33.04,"1175": 29.558,"1200": 29.325,"1225": 26.193,"1250": 22.508,"1275": 20.927,"1300": 19.284,"1325": 18.619,"1350": 15.63,"1375": 13.695,"1400": 11.853,"1425": 11.308,"1450": 11.134,"1475": 9.356,"1500": 7.828,"1525": 6.822,"1550": 5.911,"1575": 5.139,"1600": 3.998,"1625": 3.519,"1650": 3.118,"1675": 2.392,"1700": 1.774,"1725": 1.805,"1750": 1.666,"1775": 1.527,"1800": 1.28,"1825": 1.08,"1850": 0.817,"1875": 0.447,"1900": 0.293,"1925": 0.231,"1950": 0.031,"1975": 0.062,"2000": 0.046}}}