{"type": "Feature","id": "121","bbox": [22.11362,42.87171,22.98457,43.4013],"geometry": {"type": "Polygon","coordinates": [[[22.6742,43.39415,2077.042],[22.66469,43.39673,1841.3435],[22.65893,43.4013,1940.6089],[22.65886,43.40123,1940.6089],[22.65183,43.39451,1741.252],[22.65085,43.39389,1741.252],[22.64351,43.38753,1644.4316],[22.63855,43.38384,1565.9817],[22.63431,43.37963,1437.1747],[22.62986,43.37467,1455.1597],[22.62459,43.36952,1527.8733],[22.62237,43.36784,1611.2977],[22.61979,43.3664,1612.5621],[22.61767,43.36554,1633.7434],[22.60578,43.3618,1591.4214],[22.60165,43.36004,1595.3973],[22.58671,43.34934,1349.8519],[22.58119,43.34518,1229.5002],[22.57896,43.34301,1273.3678],[22.57757,43.34074,1305.6151],[22.57736,43.3388,1275.3168],[22.57772,43.33741,1247.724],[22.58062,43.33128,1222.9847],[22.58108,43.3294,1235.4995],[22.58113,43.328,1219.5708],[22.58067,43.32684,1255.4832],[22.57891,43.32573,1249.6595],[22.57715,43.32537,1227.2754],[22.57519,43.32524,1209.8391],[22.5724,43.32542,1172.7721],[22.55473,43.32842,853.4207],[22.55168,43.32878,794.0185],[22.54139,43.32932,762.2953],[22.53943,43.32976,745.5052],[22.53292,43.33257,812.5718],[22.5246,43.33544,888.8104],[22.52083,43.33808,915.9619],[22.51535,43.34387,860.278],[22.50512,43.35058,901.749],[22.50253,43.35348,877.5767],[22.49783,43.36025,733.8069],[22.49556,43.36293,755.467],[22.49282,43.36549,798.3637],[22.49142,43.36635,806.6868],[22.48987,43.36686,821.1943],[22.48734,43.36691,834.8092],[22.48569,43.3666,800.0464],[22.48429,43.36598,800.0464],[22.48295,43.36459,761.1882],[22.47794,43.35591,647.41],[22.47427,43.3512,636.3423],[22.47153,43.34885,738.4808],[22.46889,43.34743,645.0822],[22.46683,43.34681,581.9891],[22.46455,43.34648,585.025],[22.4613,43.3463,575.8956],[22.45168,43.34655,485.3312],[22.44858,43.34606,591.8826],[22.44605,43.34534,644.4739],[22.44497,43.34474,644.4739],[22.42161,43.35761,812.4114],[22.41629,43.36079,715.8299],[22.41427,43.36159,768.5042],[22.41019,43.36257,858.1711],[22.40745,43.36262,855.4247],[22.40156,43.36185,741.5051],[22.39872,43.3618,715.7831],[22.39422,43.36265,794.3827],[22.38414,43.36635,656.3869],[22.37562,43.36826,683.072],[22.37107,43.36976,695.8494],[22.36745,43.37167,713.9014],[22.36213,43.37503,796.3972],[22.35991,43.37596,723.7725],[22.33727,43.38237,656.9118],[22.33872,43.37022,572.6743],[22.33898,43.36469,571.2406],[22.33872,43.36314,613.4907],[22.3381,43.36169,693.4823],[22.33495,43.35787,867.3405],[22.33366,43.35565,940.1255],[22.33324,43.35363,926.3059],[22.33335,43.35157,893.8666],[22.33433,43.34655,851.7471],[22.33428,43.34438,863.9328],[22.33376,43.34226,873.4893],[22.33009,43.33446,1203.764],[22.32828,43.32805,1191.9874],[22.32714,43.3265,1203.8373],[22.32544,43.32521,1197.5977],[22.32363,43.32428,1197.5977],[22.32146,43.32361,1109.4426],[22.31133,43.32149,1137.2703],[22.30751,43.32108,1176.1699],[22.30348,43.32092,1176.6815],[22.28312,43.32074,1096.8397],[22.27531,43.3201,1024.307],[22.26792,43.31898,1000.3192],[22.26151,43.31885,958.4988],[22.25841,43.31906,947.3427],[22.25537,43.31953,929.1512],[22.24937,43.32131,974.23],[22.24746,43.32206,975.1814],[22.24146,43.32542,1087.3368],[22.23878,43.32671,1052.0446],[22.23454,43.32769,1035.5894],[22.22519,43.32898,865.5257],[22.22059,43.33028,849.9462],[22.21769,43.33157,917.8582],[22.2088,43.33673,1016.642],[22.20596,43.33808,1006.7362],[22.20131,43.33937,940.1661],[22.19816,43.33984,919.1454],[22.1885,43.34064,719.0485],[22.17806,43.34237,592.4919],[22.16984,43.3435,812.5818],[22.16777,43.34371,816.7925],[22.16488,43.34366,809.3943],[22.16069,43.34283,855.986],[22.14979,43.33986,749.5524],[22.13739,43.33694,425.3365],[22.14013,43.32697,785.491],[22.14183,43.31521,575.2404],[22.14266,43.31252,602.7636],[22.14638,43.30459,500.8727],[22.14684,43.30245,484.8241],[22.1469,43.3003,492.4146],[22.14591,43.29529,449.9233],[22.14597,43.29328,439.4647],[22.14659,43.29136,440.1995],[22.14814,43.28953,453.0839],[22.15036,43.28795,470.3947],[22.15434,43.28601,466.0559],[22.16152,43.28294,533.4573],[22.16343,43.28149,537.5131],[22.16405,43.28025,524.5507],[22.16436,43.27881,524.5507],[22.16467,43.27413,534.795],[22.16509,43.27276,552.9028],[22.16695,43.26909,600.4526],[22.167,43.26821,609.0131],[22.16643,43.2664,602.8438],[22.16436,43.26279,543.497],[22.16302,43.26113,532.8678],[22.16121,43.25989,474.2719],[22.15956,43.25943,465.1303],[22.1577,43.25927,493.6655],[22.15119,43.25938,482.3962],[22.14845,43.25896,439.43],[22.14514,43.25762,439.6861],[22.14312,43.25609,450.4062],[22.14219,43.25488,457.4423],[22.14054,43.25137,508.9418],[22.13935,43.24976,513.6939],[22.13775,43.24832,495.1793],[22.13253,43.24452,481.3395],[22.13098,43.24299,550.6498],[22.12995,43.24129,538.7258],[22.12964,43.23945,549.4575],[22.13191,43.23212,620.1674],[22.1317,43.23018,673.4282],[22.13067,43.22821,684.0593],[22.1255,43.22227,792.1296],[22.1192,43.21245,1182.8649],[22.11362,43.20294,1125.1572],[22.13506,43.19602,1080.2],[22.13723,43.19501,1052.2281],[22.14597,43.18935,1051.1051],[22.15522,43.18501,1340.7738],[22.15785,43.18411,1409.983],[22.16085,43.18346,1437.3972],[22.16994,43.18202,1756.6089],[22.17211,43.18134,1763.7219],[22.17413,43.18052,1770.0768],[22.17749,43.17819,1702.7117],[22.18441,43.17261,1640.8865],[22.19155,43.16791,1676.844],[22.19651,43.16504,1612.906],[22.1993,43.16385,1599.6119],[22.20147,43.16321,1579.2476],[22.20374,43.16282,1582.7057],[22.20653,43.16264,1603.8281],[22.21025,43.16269,1610.7394],[22.21206,43.16246,1636.5187],[22.21377,43.16197,1597.9332],[22.21563,43.16073,1593.6447],[22.22116,43.15489,1512.0967],[22.22327,43.15297,1499.5298],[22.22586,43.15142,1515.4004],[22.23004,43.14967,1504.8846],[22.23407,43.14843,1461.4395],[22.23785,43.14786,1389.9395],[22.24183,43.14775,1397.8354],[22.24581,43.14799,1403.5778],[22.24958,43.14863,1385.5608],[22.25604,43.15075,1370.6146],[22.25914,43.15145,1395.1991],[22.26048,43.1515,1406.8043],[22.26348,43.15104,1409.4102],[22.26622,43.15003,1401.887],[22.26885,43.14874,1364.0044],[22.27521,43.14504,1241.2649],[22.27645,43.14409,1225.6908],[22.27743,43.14259,1200.8958],[22.27748,43.14098,1194.5679],[22.27536,43.1368,1311.3975],[22.27547,43.13613,1311.3975],[22.2765,43.13468,1368.4698],[22.28002,43.13189,1389.7334],[22.28182,43.13008,1385.2515],[22.29562,43.10993,1387.5875],[22.28565,43.10584,1442.6117],[22.26921,43.09962,1211.4202],[22.264,43.09652,1038.9996],[22.26105,43.0952,939.2463],[22.25345,43.09298,867.491],[22.24663,43.09065,798.7856],[22.24084,43.08791,714.3387],[22.23909,43.0867,700.9278],[22.23769,43.08523,660.7695],[22.23666,43.08352,681.9093],[22.23392,43.07569,580.2343],[22.23402,43.07399,604.302],[22.24053,43.06905,605.5074],[22.24689,43.06525,655.6379],[22.25702,43.05846,835.4355],[22.25821,43.05691,844.7057],[22.25826,43.05618,844.7057],[22.25779,43.05515,833.6364],[22.25676,43.05417,817.7212],[22.24963,43.04952,643.471],[22.24519,43.04518,545.9291],[22.24296,43.04368,514.2246],[22.24115,43.04295,514.2246],[22.2334,43.04109,454.3527],[22.23082,43.04022,435.58],[22.22415,43.03727,447.9525],[22.22245,43.03634,442.3177],[22.22038,43.03466,407.1653],[22.21811,43.03208,389.4997],[22.21604,43.03022,438.8994],[22.2024,43.02223,520.5222],[22.20105,43.02058,486.7084],[22.20054,43.01872,589.1086],[22.2008,43.01686,633.3179],[22.20214,43.01492,721.031],[22.20436,43.01324,748.7495],[22.20715,43.01172,755.4357],[22.21521,43.00776,645.8555],[22.21785,43.0067,594.0283],[22.22265,43.00549,390.9826],[22.23475,43.0043,551.6893],[22.23847,43.00358,616.9994],[22.24234,43.00218,685.5369],[22.24508,43.00081,712.7029],[22.24746,42.99921,730.6498],[22.25201,42.99492,659.4764],[22.25562,42.99288,641.6757],[22.25826,42.99179,583.5094],[22.261,42.99107,566.7191],[22.26369,42.99097,553.6415],[22.26958,42.992,323.9954],[22.27335,42.99247,332.8212],[22.27733,42.99262,395.8677],[22.28126,42.99252,472.2285],[22.28508,42.99203,602.6067],[22.28916,42.99097,591.0809],[22.29867,42.98784,487.0011],[22.31846,42.9805,673.2866],[22.32601,42.97714,602.436],[22.33469,42.97366,632.0724],[22.34017,42.97027,647.1671],[22.3427,42.96916,672.3411],[22.34554,42.96859,717.8504],[22.34745,42.96854,775.3542],[22.35536,42.9688,892.7798],[22.35841,42.96864,847.6409],[22.36135,42.96815,791.101],[22.36394,42.96735,740.9063],[22.37629,42.962649999999996,853.2696],[22.37913,42.96131,662.3256],[22.39003,42.95598,803.15],[22.3951,42.95273,828.082],[22.39784,42.95025,943.7432],[22.39939,42.94839,922.8873],[22.40073,42.94642,929.9793],[22.40156,42.94446,906.0248],[22.4014,42.9426,893.4422],[22.40021,42.94071,867.7161],[22.39835,42.93896,806.7313],[22.39593,42.93735,824.0506],[22.39313,42.93598,766.5796],[22.38833,42.93454,679.8363],[22.37701,42.93224,765.2261],[22.35924,42.92955,826.1871],[22.36683,42.92454,754.3663],[22.37743,42.91883,766.0919],[22.38006,42.91759,835.3191],[22.38337,42.91637,919.889],[22.38957,42.91438,1034.3314],[22.39319,42.91283,1062.816],[22.39474,42.91193,1096.9314],[22.39639,42.9103,1103.1786],[22.3997,42.90451,1174.9436],[22.4012,42.90281,1170.4596],[22.40631,42.8994,1207.3743],[22.40998,42.89583,1229.9884],[22.41381,42.8932,1224.4253],[22.41944,42.89095,1287.6251],[22.42631,42.8886,1369.8533],[22.42833,42.88769,1355.1765],[22.4337,42.88482,1159.8398],[22.43577,42.88405,1138.6198],[22.43804,42.88346,1077.6187],[22.44729,42.88214,1183.1624],[22.45024,42.88154,1118.9396],[22.4582,42.87901,1100.5474],[22.46171,42.87842,997.9991],[22.46543,42.87813,1023.6073],[22.47297,42.87811,1037.172],[22.47675,42.87831,1016.8521],[22.48848,42.87997,1204.2939],[22.49628,42.88015,1138.0125],[22.50021,42.87992,1164.3961],[22.50408,42.8793,1139.5618],[22.51194,42.87689,1199.575],[22.51556,42.87599,1222.2244],[22.523,42.87464,1300.0148],[22.52755,42.87405,1317.3947],[22.54408,42.8718,1351.8995],[22.54479,42.87171,1351.8995],[22.54997,42.87736,1257.8536],[22.56361,42.88428,1321.9557],[22.5909,42.88689,1248.2849],[22.66624,42.87193,733.6564],[22.69663,42.87741,1108.2777],[22.72702,42.88689,963.9666],[22.7388,42.89738,847.0543],[22.73958,42.89886,822.2106],[22.74552,42.91007,688.7722],[22.76319,42.95865,639.3033],[22.76939,42.97128,815.1106],[22.77642,42.97973,553.2646],[22.7881,42.9849,487.3793],[22.8158,42.9897,621.1217],[22.82882,42.99345,677.3129],[22.82892,42.99345,677.3129],[22.82902,42.9935,677.3129],[22.82902,42.99366,677.3129],[22.84225,43.00751,613.3417],[22.88422,43.03665,767.3943],[22.88949,43.04438,705.1425],[22.89672,43.06272,709.8897],[22.90168,43.06975,706.8618],[22.91016,43.07528,843.7516],[22.92711,43.08114,862.5237],[22.93527,43.08556,811.2661],[22.95563,43.10827,877.8668],[22.97403,43.14119,1294.0029],[22.98457,43.17463,1589.1631],[22.9829,43.18732,1781.5189],[22.98137,43.19899,1655.1201],[22.96473,43.20442,1632.8198],[22.91553,43.21225,1504.2517],[22.89775,43.22033,1525.835],[22.8838,43.23059,1493.8944],[22.85734,43.25695,1313.804],[22.83316,43.27465,1299.0641],[22.82696,43.28139,1335.6239],[22.82386,43.2893,1582.5],[22.82076,43.30754,1911.3064],[22.81714,43.3155,1838.1826],[22.80453,43.32898,1633.4469],[22.73301,43.38151,1605.9653],[22.72434,43.38606,1624.4084],[22.71937,43.38867,1730.8876],[22.70293,43.39404,1969.5776],[22.69322,43.39487,2067.0681],[22.6742,43.39415,2077.042]]]}
,"properties": {"ISO3166-1-Alpha-3": "SRB","country": "Republic of Serbia","fill": "#0F0","name": "Pirotski","area_km2": 2665.174,"hist_schema_id": "Elevation0-9000","hist_area_km2": {"250": 2.577,"275": 12.168,"300": 16.958,"325": 18.537,"350": 25.091,"375": 68.073,"400": 65.224,"425": 63.263,"450": 65.419,"475": 68.454,"500": 65.991,"525": 70.758,"550": 76.068,"575": 79.505,"600": 87.588,"625": 84.773,"650": 85.532,"675": 88.135,"700": 102.992,"725": 98.984,"750": 99.932,"775": 97.47,"800": 93.43,"825": 84.257,"850": 75.895,"875": 70.645,"900": 67.928,"925": 64.155,"950": 62.352,"975": 59.659,"1000": 54.359,"1025": 51.506,"1050": 47.786,"1075": 46.533,"1100": 41.255,"1125": 38.065,"1150": 33.825,"1175": 30.312,"1200": 30.172,"1225": 27.132,"1250": 23.54,"1275": 22.067,"1300": 20.252,"1325": 19.387,"1350": 16.336,"1375": 14.602,"1400": 12.884,"1425": 12.68,"1450": 12.831,"1475": 11.672,"1500": 10.236,"1525": 9.741,"1550": 8.768,"1575": 7.657,"1600": 6.067,"1625": 5.187,"1650": 4.693,"1675": 3.705,"1700": 3.055,"1725": 2.654,"1750": 2.36,"1775": 2.19,"1800": 1.912,"1825": 1.465,"1850": 1.573,"1875": 1.203,"1900": 0.972,"1925": 1.033,"1950": 0.231,"1975": 0.247,"2000": 0.308,"2025": 0.231,"2050": 0.169,"2075": 0.185,"2100": 0.154,"2125": 0.062,"2150": 0.108}}}