{"type":"Feature","properties":{"GID_2":"SRB.14.4_1","GID_0":"SRB","country":"Serbia","GID_1":"SRB.14_1","province":"Pomoravski","NL_NAME_1":"Поморавски","county":"Paraćin","VARNAME_2":"NA","NL_NAME_2":"Параћин","TYPE_2":"Opštine","ENGTYPE_2":"Town|Municipal","CC_2":"NA","HASC_2":"NA","name":"Paraćin.county"},
"geometry":{"type": "MultiPolygon","coordinates": [[[[21.646,43.8029,667.2089],[21.6502,43.8085,762.0558],[21.662,43.8158,707.4526],[21.6753,43.8279,608.7991],[21.6779,43.8374,603.8635],[21.6895,43.8477,632.6667],[21.6884,43.8515,685.7062],[21.6698,43.8668,623.3611],[21.6688,43.8775,757.4553],[21.6728,43.8855,755.8959],[21.6804,43.8911,741.7372],[21.7027,43.8987,902.8647],[21.72,43.901,944.1584],[21.7289,43.9078,867.1527],[21.7307,43.9114,880.1393],[21.7298,43.9147,852.7382],[21.724,43.9222,841.4661],[21.726,43.9268,908.9688],[21.6916,43.9522,918.0383],[21.6839,43.9529,880.7043],[21.6517,43.9461,812.1398],[21.6312,43.951,766.9885],[21.6195,43.9514,658.7716],[21.6036,43.9465,441.1785],[21.5912,43.9508,379.8041],[21.5751,43.9626,503.5245],[21.5568,43.9686,463.1228],[21.5359,43.9529,487.6112],[21.5127,43.9461,486.9321],[21.4954,43.9376,287.6978],[21.4751,43.9325,277.141],[21.4567,43.9251,180.6838],[21.4491,43.9245,185.6703],[21.4366,43.9263,188.1716],[21.4066,43.9212,142.5488],[21.401,43.918,147.8935],[21.4024,43.9157,153.5577],[21.4168,43.911,186.9803],[21.4445,43.9097,233.4898],[21.4556,43.9058,225.0806],[21.4693,43.8921,229.332],[21.4678,43.886,250.304],[21.4612,43.8804,210.5448],[21.4408,43.8782,223.6783],[21.4286,43.8734,197.012],[21.4201,43.8724,194.5868],[21.3955,43.879,126.3297],[21.3804,43.8792,120.2985],[21.368,43.8757,118.557],[21.3561,43.8667,120.7141],[21.3523,43.8658,121.3804],[21.3453,43.8664,120.3215],[21.3345,43.8738,120.5281],[21.3291,43.8745,119.6767],[21.297,43.8599,274.0281],[21.2815,43.8632,387.6504],[21.27,43.8631,564.8033],[21.268,43.8555,641.92],[21.2601,43.8528,524.0751],[21.2586,43.849,582.3082],[21.2606,43.841,676.9518],[21.2752,43.8334,456.2767],[21.2777,43.8293,491.2668],[21.2736,43.8205,413.987],[21.2749,43.8133,472.004],[21.2741,43.8067,386.9137],[21.2664,43.7932,476.1544],[21.2672,43.7828,360.5886],[21.2604,43.7729,377.0204],[21.2645,43.7665,300.1382],[21.2755,43.7619,256.2731],[21.2834,43.7611,246.3932],[21.3343,43.772,141.8966],[21.3494,43.7704,131.9899],[21.3612,43.7751,126.9732],[21.366,43.7715,126.7369],[21.3644,43.7692,127.4673],[21.3561,43.7656,127.4615],[21.3561,43.7592,127.8099],[21.358,43.7563,127.7348],[21.3629,43.7551,128.247],[21.3696,43.7561,127.1546],[21.3768,43.7608,130.548],[21.3829,43.7592,128.0117],[21.3825,43.7557,129.7012],[21.37,43.7465,129.0079],[21.3724,43.7403,131.1439],[21.3772,43.7385,128.4862],[21.3916,43.7425,131.2091],[21.3931,43.7384,130.2047],[21.3897,43.7347,129.9348],[21.3905,43.7301,130.6297],[21.4,43.7255,130.6213],[21.4082,43.724,130.8878],[21.4214,43.7306,131.5941],[21.4375,43.7356,136.4251],[21.446,43.7404,140.2742],[21.4582,43.7417,145.6467],[21.4659,43.7494,169.5374],[21.4846,43.7605,299.7057],[21.5087,43.7708,200.2746],[21.5211,43.7744,235.8216],[21.5473,43.7896,301.3964],[21.5812,43.7953,236.1085],[21.6016,43.7912,451.449],[21.6111,43.7911,468.3241],[21.6327,43.7972,376.1071],[21.646,43.8029,667.2089]]]]}}