{"type": "Feature","bbox": [18.8821,45.5454,19.1565,45.7851],"geometry": {"type": "MultiPolygon","coordinates": [[[[18.9139,45.5541,79.0],[18.92,45.5493,83.6626],[18.9349,45.5463,93.2444],[18.9502,45.5454,105.6803],[18.9655,45.5498,104.0927],[18.976,45.5584,86.9233],[18.9783,45.5656,79.7291],[18.9842,45.5711,79.9362],[18.9927,45.5745,79.6863],[19.0056,45.5726,78.9994],[19.0117,45.5654,78.9411],[19.0116,45.5525,85.9781],[19.0211,45.5482,92.8778],[19.0414,45.5459,83.3103],[19.0779,45.5607,79.8359],[19.0995,45.5657,81.3156],[19.1302,45.5798,80.5193],[19.1352,45.5836,83.0771],[19.1338,45.6303,85.121],[19.1366,45.6351,83.8733],[19.1517,45.6482,87.7852],[19.1565,45.6543,85.4279],[19.1531,45.66,85.974],[19.1351,45.6697,86.3303],[19.1332,45.6798,86.1858],[19.1238,45.684,86.1472],[19.1211,45.6877,86.0609],[19.1215,45.6942,86.7852],[19.1308,45.7048,86.3493],[19.1312,45.7092,86.5704],[19.1293,45.7133,87.513],[19.1199,45.7231,88.0771],[19.1094,45.7303,86.5314],[19.0772,45.7323,86.8743],[19.0584,45.7382,86.1553],[19.0436,45.7403,85.7647],[19.0399,45.7425,85.2631],[19.0356,45.7528,84.6463],[19.039,45.757,84.5155],[19.0573,45.7693,86.5924],[19.0572,45.7733,87.7189],[19.0531,45.7768,87.2489],[19.0169,45.7851,84.8194],[18.9766,45.7795,84.2912],[18.9594,45.7553,87.7293],[18.9606,45.7528,89.0255],[18.9706,45.7453,100.3275],[18.9716,45.7413,100.2349],[18.9465,45.6821,80.0],[18.9471,45.6801,80.0],[18.9435,45.6709,82.6141],[18.9372,45.6631,82.1799],[18.9135,45.6409,84.2903],[18.8961,45.6343,89.4755],[18.8867,45.6282,85.4029],[18.8924,45.6196,81.5905],[18.8955,45.6102,81.1263],[18.8821,45.5904,84.4828],[18.8851,45.5799,87.7135],[18.9139,45.5541,79.0]]]]}
,"properties": {"GID_2": "SRB.24.1_1","GID_0": "SRB","country": "Serbia","GID_1": "SRB.24_1","province": "Zapadno-Bački","NL_NAME_1": "Западнобачки","county": "Apatin","VARNAME_2": "NA","NL_NAME_2": "Апатин","TYPE_2": "Opštine","ENGTYPE_2": "Town|Municipal","CC_2": "NA","HASC_2": "NA","name": "Apatin.county","area_km2": 354.261,"hist_schema_id": "Elevation0-9000","hist_area_km2": {"50": 0.0297,"75": 307.2459,"100": 45.5021,"125": 1.4833}}}