{"type":"Feature","properties":{"GID_2":"SRB.14.6_1","GID_0":"SRB","country":"Serbia","GID_1":"SRB.14_1","province":"Pomoravski","NL_NAME_1":"Поморавски","county":"Svilajnac","VARNAME_2":"NA","NL_NAME_2":"Свилајнац","TYPE_2":"Opštine","ENGTYPE_2":"Town|Municipal","CC_2":"NA","HASC_2":"NA","name":"Svilajnac.county"},
"geometry":{"type": "MultiPolygon","coordinates": [[[[21.2927,44.2757,157.6522],[21.2788,44.2488,224.5081],[21.2653,44.2384,209.4681],[21.2505,44.2428,193.8736],[21.2275,44.2466,164.2572],[21.2176,44.2548,134.0055],[21.2135,44.2654,107.8783],[21.211,44.2681,95.6541],[21.1896,44.2785,101.3576],[21.1683,44.2823,94.6869],[21.1596,44.2873,94.8074],[21.1474,44.2886,95.2082],[21.1366,44.2816,95.7851],[21.1215,44.2763,95.8487],[21.1212,44.2738,95.2659],[21.126,44.2653,97.5879],[21.1208,44.252,96.1684],[21.1213,44.2453,96.4734],[21.1269,44.2368,99.6374],[21.1378,44.23,98.3176],[21.1397,44.22,99.0169],[21.1496,44.2078,94.9463],[21.1407,44.1951,102.1923],[21.1375,44.1876,102.2968],[21.1328,44.1861,101.8129],[21.1297,44.1765,101.8912],[21.1297,44.1703,99.6644],[21.1248,44.1648,102.4391],[21.1269,44.1567,102.2432],[21.1188,44.1528,103.6465],[21.1293,44.1352,102.6505],[21.1236,44.1233,178.9671],[21.1236,44.1183,208.931],[21.1391,44.1029,153.3801],[21.1626,44.1094,105.2013],[21.1694,44.1059,105.3593],[21.1707,44.1007,106.0307],[21.1688,44.0864,213.5354],[21.1785,44.0774,125.9952],[21.175,44.0747,168.3103],[21.1644,44.072,142.8746],[21.163,44.0695,127.6297],[21.1789,44.0607,153.6487],[21.1807,44.0516,142.3546],[21.1879,44.0433,189.2735],[21.205,44.04,274.1335],[21.2123,44.0413,250.2011],[21.2164,44.0443,264.289],[21.2172,44.0473,221.4731],[21.214,44.0539,132.9524],[21.215,44.0578,107.9254],[21.2242,44.0641,107.9254],[21.2418,44.0701,237.7748],[21.2556,44.0847,201.3801],[21.2576,44.0897,217.9275],[21.2549,44.1037,177.6754],[21.2699,44.1131,253.6062],[21.2698,44.1202,273.161],[21.2712,44.1234,259.3771],[21.2809,44.1323,238.6088],[21.2918,44.1456,212.7212],[21.2983,44.1501,190.4514],[21.3067,44.1512,164.2942],[21.3156,44.1453,186.4254],[21.326,44.1423,174.6052],[21.3433,44.1456,154.8742],[21.3485,44.1447,152.8517],[21.3657,44.1274,163.731],[21.3698,44.1254,165.2433],[21.3741,44.1271,171.0903],[21.3814,44.1362,159.531],[21.3816,44.1663,221.3689],[21.3936,44.1808,267.4537],[21.3662,44.18,180.6278],[21.356,44.1836,179.3475],[21.354,44.1877,205.9234],[21.3616,44.1965,236.5228],[21.3682,44.2085,298.1791],[21.3674,44.2142,329.3165],[21.3637,44.2169,310.168],[21.3503,44.2188,283.9721],[21.3445,44.222,283.8299],[21.3345,44.2348,244.3406],[21.3344,44.2461,212.5818],[21.3305,44.2521,173.1667],[21.2927,44.2757,157.6522]]]]}}