{"type": "Feature","bbox": [19.5498,44.3876,19.8702,44.5533],"geometry": {"type": "MultiPolygon","coordinates": [[[[19.6182,44.4265,328.3173],[19.638,44.4333,256.156],[19.6675,44.4386,254.7399],[19.6803,44.4381,253.9322],[19.76,44.4137,323.3676],[19.7728,44.4016,320.8842],[19.7742,44.3976,316.7527],[19.7736,44.3914,334.2465],[19.776,44.3889,302.5836],[19.8231,44.3876,301.8768],[19.8348,44.3887,302.4634],[19.8498,44.4056,215.8134],[19.8286,44.4253,265.0413],[19.8272,44.4296,274.5059],[19.8326,44.4349,256.9292],[19.8399,44.4376,259.6487],[19.845,44.4379,275.9929],[19.8575,44.4351,280.4323],[19.8622,44.4369,278.8484],[19.8641,44.4431,258.7693],[19.8637,44.454,213.9062],[19.856,44.4716,192.3777],[19.8586,44.4755,203.1719],[19.8689,44.4822,192.9884],[19.8702,44.4849,168.7766],[19.8697,44.4905,114.2466],[19.8579,44.5058,146.6209],[19.8566,44.5175,170.1182],[19.8499,44.524,198.3703],[19.8352,44.5272,199.9179],[19.8257,44.5357,193.4894],[19.8168,44.5399,184.4441],[19.795,44.5411,149.8947],[19.7854,44.5518,126.567],[19.7813,44.5533,152.2185],[19.7749,44.5529,161.6646],[19.7582,44.5432,165.7769],[19.7502,44.5404,205.128],[19.7356,44.5289,238.3091],[19.7267,44.529,200.9261],[19.7184,44.5346,202.6299],[19.7134,44.5356,200.7334],[19.6999,44.5312,187.0382],[19.6973,44.5276,202.2911],[19.6965,44.5221,211.3082],[19.6992,44.493899999999996,231.0065],[19.6971,44.49,207.3727],[19.6929,44.4873,167.9063],[19.6801,44.4845,181.6946],[19.6666,44.4875,164.5399],[19.6607,44.4931,205.1352],[19.6671,44.5035,206.887],[19.6614,44.5075,237.0181],[19.6516,44.5088,226.5085],[19.6273,44.5054,215.7542],[19.6132,44.5085,224.2646],[19.6062,44.5015,191.7773],[19.6038,44.49,188.0998],[19.5963,44.4852,234.3772],[19.5923,44.479,240.1107],[19.5952,44.4741,238.6096],[19.5937,44.4718,246.5619],[19.5893,44.4705,269.1432],[19.5853,44.473,300.3243],[19.567,44.4728,397.3382],[19.5627,44.4641,315.9751],[19.5498,44.4623,322.1515],[19.552,44.454,326.8674],[19.561,44.4457,254.5266],[19.5759,44.4376,292.3112],[19.5813,44.4286,346.9315],[19.588,44.4241,344.0454],[19.5958,44.4224,367.4874],[19.608,44.4226,314.8894],[19.6139,44.4238,346.8716],[19.6182,44.4265,328.3173]]]]}
,"properties": {"GID_2": "SRB.8.2_1","GID_0": "SRB","country": "Serbia","GID_1": "SRB.8_1","province": "Mačvanski","NL_NAME_1": "Мачвански","county": "Koceljeva","VARNAME_2": "NA","NL_NAME_2": "Коцељева","TYPE_2": "Opštine","ENGTYPE_2": "Town|Municipal","CC_2": "NA","HASC_2": "NA","name": "Koceljeva.county","area_km2": 255.8698,"hist_schema_id": "Elevation0-9000","hist_area_km2": {"125": 16.8371,"150": 23.0807,"175": 34.0144,"200": 42.4407,"225": 37.4547,"250": 25.5601,"275": 21.1937,"300": 20.9085,"325": 17.0625,"350": 10.7331,"375": 4.7684,"400": 1.0443,"425": 0.4994,"450": 0.2724}}}