{"type": "Feature","bbox": [21.0432,44.8652,21.5305,45.2432],"geometry": {"type": "MultiPolygon","coordinates": [[[[21.4016,45.0305,86.8005],[21.4074,45.0373,85.1776],[21.4112,45.036,86.5653],[21.4223,45.0369,86.1824],[21.4245,45.0327,86.6505],[21.4279,45.0357,86.8853],[21.4577,45.0408,88.6983],[21.4518,45.0524,89.301],[21.449,45.0531,90.8058],[21.4492,45.0579,90.6983],[21.4524,45.0592,92.585],[21.4522,45.0615,94.0512],[21.4568,45.0635,98.4016],[21.461,45.0723,107.6717],[21.4665,45.0751,114.9801],[21.4766,45.0869,177.3025],[21.4848,45.0916,203.0409],[21.4826,45.0958,236.2379],[21.4765,45.0995,257.7916],[21.4713,45.105,294.9433],[21.4731,45.1103,328.2005],[21.4762,45.1121,320.7902],[21.4793,45.1174,340.7927],[21.48,45.1216,343.6191],[21.4885,45.1257,331.5636],[21.5002,45.1258,428.58],[21.529,45.1383,223.1835],[21.5305,45.1477,200.0857],[21.5251,45.1597,196.682],[21.518,45.1692,189.1553],[21.5147,45.1713,195.0583],[21.5098,45.1706,175.9148],[21.4949,45.1735,153.408],[21.4845,45.1924,174.2425],[21.4403,45.2032,138.5697],[21.4372,45.2056,132.378],[21.4358,45.2102,133.0495],[21.4327,45.2132,128.1296],[21.4215,45.2176,116.4692],[21.4165,45.2213,115.5308],[21.4138,45.2214,109.6418],[21.4117,45.2239,107.2849],[21.4123,45.2252,110.9062],[21.4051,45.2296,107.8007],[21.397,45.2192,109.3494],[21.3713,45.2264,92.9078],[21.3617,45.2225,90.9166],[21.3455,45.2321,85.4094],[21.3396,45.2336,85.4237],[21.3406,45.2359,85.1959],[21.3352,45.2367,84.8194],[21.3344,45.2349,84.7554],[21.3269,45.2366,84.0606],[21.3278,45.2399,84.0879],[21.3224,45.2405,83.0844],[21.3217,45.2379,83.5173],[21.3067,45.2394,81.9634],[21.307,45.2404,82.117],[21.2938,45.2428,79.1053],[21.2772,45.23,82.1437],[21.2691,45.2342,79.0243],[21.2519,45.2313,80.0181],[21.2242,45.2432,87.971],[21.2144,45.2287,80.4798],[21.2081,45.232,79.2515],[21.2035,45.2292,79.1962],[21.2036,45.226,79.6703],[21.2068,45.2223,79.7456],[21.2019,45.2155,77.1464],[21.2008,45.2084,76.4833],[21.2088,45.1952,76.2127],[21.2128,45.1831,75.3269],[21.213,45.1764,74.9506],[21.2107,45.1721,74.9494],[21.1911,45.1555,74.7317],[21.1286,45.1223,74.889],[21.1218,45.1173,74.9006],[21.1101,45.1046,74.8601],[21.0934,45.0976,75.0374],[21.0863,45.0917,75.0138],[21.0867,45.086,75.3819],[21.0967,45.077,78.9559],[21.0977,45.0687,80.3671],[21.0924,45.0576,83.169],[21.0908,45.0418,92.6004],[21.0879,45.0344,104.5857],[21.0842,45.013,124.0279],[21.0748,44.9999,145.5774],[21.0765,44.986,153.738],[21.068,44.9661,158.6313],[21.0702,44.9603,161.4026],[21.0816,44.951,154.2044],[21.0827,44.9473,158.1376],[21.0708,44.9381,148.5425],[21.0634,44.9279,149.5691],[21.0432,44.9084,152.5735],[21.0587,44.9003,152.526],[21.0912,44.8776,164.2592],[21.116,44.8673,146.7642],[21.1259,44.8652,149.4748],[21.1302,44.8658,153.0445],[21.1379,44.8709,134.7654],[21.1465,44.8829,145.0728],[21.168,44.8933,146.8713],[21.1697,44.8982,153.4103],[21.1669,44.904,159.9629],[21.148,44.9096,159.576],[21.1329,44.9174,167.1983],[21.1162,44.9328,164.6254],[21.1164,44.9348,163.2229],[21.119,44.9363,159.7585],[21.1273,44.9357,159.8792],[21.1291,44.9297,158.1075],[21.1543,44.9275,164.9932],[21.1574,44.9292,180.9493],[21.1566,44.938,180.6649],[21.1595,44.9441,217.6656],[21.1635,44.9474,220.3368],[21.167,44.9473,213.1499],[21.2003,44.9309,214.2515],[21.2176,44.9268,206.8958],[21.227,44.9191,198.8223],[21.2365,44.914,86.3763],[21.2515,44.9105,81.933],[21.2578,44.9113,83.888],[21.2678,44.9234,74.9043],[21.2766,44.9265,80.8789],[21.2879,44.934,75.6375],[21.2925,44.9349,79.4374],[21.3013,44.9331,82.9722],[21.3293,44.9214,111.7292],[21.3357,44.9216,120.7872],[21.3374,44.9244,122.849],[21.3363,44.926,123.0877],[21.319,44.9335,96.7999],[21.3103,44.9486,77.1742],[21.3133,44.953,77.2066],[21.3295,44.9634,81.1941],[21.3374,44.971,82.1036],[21.3376,44.9728,82.0694],[21.332,44.9802,80.6511],[21.3317,44.9835,80.0477],[21.3388,44.9976,80.5809],[21.3434,45.0023,81.1817],[21.3484,45.0043,82.1309],[21.3609,45.0063,81.9528],[21.3594,45.0114,81.833],[21.3619,45.0181,83.8378],[21.3636,45.0192,84.4816],[21.3618,45.0207,86.8691],[21.3629,45.0219,85.035],[21.3641,45.021,85.035],[21.3699,45.026,84.8413],[21.3738,45.026,85.0673],[21.3761,45.0285,85.7403],[21.3785,45.0271,85.3826],[21.3808,45.0289,83.7637],[21.3842,45.0259,86.0889],[21.3835,45.0271,86.6692],[21.3865,45.029,86.9984],[21.3871,45.028,89.7439],[21.3919,45.0292,85.2192],[21.3933,45.0273,84.945],[21.3966,45.0286,84.6229],[21.3951,45.0297,87.2775],[21.3958,45.0305,87.04],[21.3995,45.0298,86.3923],[21.3987,45.0318,86.5829],[21.4016,45.0305,86.8005]]]]}
,"properties": {"GID_2": "SRB.6.8_1","GID_0": "SRB","country": "Serbia","GID_1": "SRB.6_1","province": "Južno-Banatski","NL_NAME_1": "Јужнобанатски","county": "Vršac","VARNAME_2": "Vârşeţ|Versec|Virşac","NL_NAME_2": "Вршац","TYPE_2": "Opštine","ENGTYPE_2": "Town|Municipal","CC_2": "NA","HASC_2": "NA","name": "Vršac.county","area_km2": 847.101,"hist_schema_id": "Elevation0-9000","hist_area_km2": {"75": 260.8404,"100": 238.2107,"125": 93.9858,"150": 107.3243,"175": 65.7906,"200": 26.9643,"225": 15.5695,"250": 9.8894,"275": 7.9885,"300": 5.5797,"325": 4.3529,"350": 3.1262,"375": 2.0043,"400": 1.3462,"425": 1.0021,"450": 0.6432,"475": 0.688,"500": 0.4936,"525": 0.5384,"550": 0.344,"575": 0.2543,"600": 0.1047,"625": 0.0598}}}