{"type":"Feature","properties":{"GID_2":"SRB.8.3_1","GID_0":"SRB","country":"Serbia","GID_1":"SRB.8_1","province":"Mačvanski","NL_NAME_1":"Мачвански","county":"Krupanj","VARNAME_2":"NA","NL_NAME_2":"Крупањ","TYPE_2":"Opštine","ENGTYPE_2":"Town|Municipal","CC_2":"NA","HASC_2":"NA","name":"Krupanj.county"},
"geometry":{"type": "MultiPolygon","coordinates": [[[[19.561,44.4457,254.5266],[19.552,44.454,326.8674],[19.5498,44.4623,322.1515],[19.5384,44.4639,266.5164],[19.5365,44.469,266.1336],[19.5314,44.4708,273.523],[19.5004,44.465,239.0588],[19.4803,44.4679,209.0255],[19.463,44.4648,171.2705],[19.4465,44.4655,237.5938],[19.4309,44.463,283.1156],[19.4224,44.4604,342.9282],[19.4105,44.4461,396.5866],[19.4031,44.4408,414.428],[19.396,44.4383,384.0639],[19.3874,44.4405,367.7002],[19.3687,44.455,383.2263],[19.3575,44.456,367.8702],[19.3098,44.4369,503.4195],[19.2907,44.4377,459.3933],[19.2631,44.4298,589.438],[19.2576,44.4239,532.8286],[19.251,44.4131,531.1397],[19.2521,44.4104,592.8967],[19.2621,44.4014,705.3971],[19.2634,44.3966,682.89],[19.2623,44.3856,682.7451],[19.2428,44.3744,681.2204],[19.2343,44.3652,597.9345],[19.2095,44.3557,604.4997],[19.1917,44.3511,517.4433],[19.1893,44.3478,383.8117],[19.1983,44.3374,528.1548],[19.2037,44.3279,431.0068],[19.2139,44.3236,480.7101],[19.2502,44.3297,620.0278],[19.2973,44.3305,873.1453],[19.3137,44.3283,818.299],[19.3326,44.3167,629.4238],[19.3549,44.309,515.6174],[19.3643,44.3026,588.9872],[19.3694,44.2897,604.2966],[19.3835,44.2758,373.476],[19.3841,44.2721,360.5701],[19.3822,44.2641,327.7548],[19.3917,44.2524,324.1606],[19.4257,44.2541,626.6133],[19.4303,44.2628,493.5651],[19.4311,44.2748,558.0143],[19.4468,44.2852,902.3844],[19.4507,44.2973,711.9452],[19.4598,44.3076,523.8043],[19.4669,44.3115,525.943],[19.4837,44.3147,364.3328],[19.4888,44.3176,400.0573],[19.492,44.3223,396.9608],[19.4914,44.3289,356.372],[19.4803,44.3454,363.1241],[19.4751,44.3471,348.7206],[19.4606,44.3457,389.1209],[19.452,44.3514,341.8419],[19.4487,44.3584,320.9136],[19.452,44.3651,298.5904],[19.4565,44.3679,266.0353],[19.4728,44.368,330.6618],[19.4787,44.37,337.9376],[19.4842,44.3751,323.8653],[19.4938,44.3897,272.0213],[19.4984,44.4027,268.8404],[19.4988,44.4119,235.7683],[19.5035,44.4204,212.4006],[19.4993,44.424,222.4087],[19.4873,44.4279,227.1224],[19.4845,44.4317,189.0305],[19.4852,44.4341,163.9122],[19.4903,44.4375,171.0979],[19.4973,44.4395,218.7139],[19.509,44.4402,194.7417],[19.5213,44.4386,179.9661],[19.5395,44.4437,254.4669],[19.561,44.4457,254.5266]]]]}}