{"type": "Feature","bbox": [19.1805,44.8811,19.8003,45.1742],"geometry": {"type": "MultiPolygon","coordinates": [[[[19.3042,44.9118,97.81],[19.3077,44.9152,101.0267],[19.3194,44.9159,72.0],[19.348,44.9093,80.372],[19.3573,44.9088,80.3037],[19.3641,44.9112,89.7514],[19.374,44.9209,80.2191],[19.3813,44.9235,95.5123],[19.3869,44.9216,84.7091],[19.3981,44.9131,78.7342],[19.4039,44.9125,83.1338],[19.4107,44.9162,82.6545],[19.4115,44.9202,79.1081],[19.4025,44.9353,78.8417],[19.4019,44.9387,78.1056],[19.4043,44.9412,79.0864],[19.4113,44.9419,80.1187],[19.4221,44.9392,80.1759],[19.4389,44.9298,88.2109],[19.4445,44.9245,82.4282],[19.4544,44.9056,82.5347],[19.4588,44.902,80.1803],[19.4649,44.8998,86.6034],[19.4739,44.9014,81.1375],[19.4865,44.9118,80.7733],[19.4992,44.917,81.0633],[19.506,44.9153,78.652],[19.5204,44.9062,85.9587],[19.5265,44.904,79.2533],[19.5521,44.9005,78.0147],[19.5624,44.902,77.9791],[19.6003,44.914,76.4646],[19.6334,44.914,78.1512],[19.6592,44.9108,75.4666],[19.6695,44.9128,75.0162],[19.6788,44.9098,76.2999],[19.6961,44.9002,82.8495],[19.7208,44.8969,85.2736],[19.7409,44.8835,71.5],[19.748,44.8811,76.4321],[19.7745,44.8909,79.078],[19.7794,44.8942,81.2353],[19.7895,44.9064,98.8525],[19.799,44.9233,82.6204],[19.8003,44.9342,85.1259],[19.7989,44.9394,86.4763],[19.7925,44.9441,86.4592],[19.7655,44.954,87.1578],[19.7452,44.9594,87.3268],[19.7306,44.9679,87.4386],[19.695,44.9706,84.6166],[19.6687,44.9789,84.8664],[19.6614,44.9854,84.2283],[19.6603,44.9889,85.5157],[19.6634,44.992,86.7341],[19.6699,44.993899999999996,87.0747],[19.69,44.9947,87.4096],[19.6978,44.9979,89.6182],[19.7002,45.001,90.9439],[19.6964,45.0196,95.4549],[19.6904,45.033,98.575],[19.6888,45.049,107.6066],[19.6839,45.0581,116.6689],[19.6909,45.067,130.912],[19.695,45.0816,156.6136],[19.7027,45.0882,171.7941],[19.7028,45.0996,198.4578],[19.7111,45.1015,173.3244],[19.7149,45.1124,252.2713],[19.7106,45.12,293.0312],[19.7092,45.1264,265.696],[19.7032,45.1311,333.9597],[19.6988,45.1417,479.221],[19.6284,45.142,418.7462],[19.6001,45.1384,403.4359],[19.5649,45.1465,333.9303],[19.5428,45.1488,305.7834],[19.5294,45.1559,233.0407],[19.5125,45.1596,251.8775],[19.504,45.1657,211.9102],[19.4766,45.1678,206.2475],[19.4609,45.1742,216.4292],[19.4501,45.1712,209.4244],[19.4467,45.1666,172.9667],[19.4503,45.16,202.2454],[19.4574,45.1523,135.4174],[19.4585,45.1483,204.834],[19.444,45.1225,128.4711],[19.4496,45.1104,116.1387],[19.4489,45.0901,100.1852],[19.4416,45.0789,94.3223],[19.442,45.0728,92.4436],[19.4267,45.0584,88.1794],[19.419,45.0546,87.2993],[19.4086,45.0535,87.5259],[19.384,45.0539,85.0779],[19.364,45.0562,85.8794],[19.3456,45.052,83.1737],[19.3379,45.0471,80.6846],[19.3318,45.0403,78.8701],[19.3249,45.0369,78.8348],[19.3177,45.0354,79.3809],[19.301,45.0365,79.0073],[19.2956,45.0341,79.9453],[19.2941,45.0277,80.0488],[19.2972,45.0212,79.7318],[19.3223,45.0106,80.3565],[19.3304,45.0019,79.5345],[19.3311,44.9961,77.8953],[19.326,44.9801,86.2835],[19.3274,44.9768,84.8544],[19.3359,44.9696,87.2803],[19.3374,44.9666,90.6668],[19.3348,44.9505,79.6457],[19.33,44.9488,79.3778],[19.3197,44.9508,78.3959],[19.3039,44.951,80.3411],[19.2886,44.9428,102.4466],[19.2627,44.9407,80.6441],[19.251,44.9368,80.9926],[19.2437,44.9379,95.800299999999993],[19.234,44.9462,97.2988],[19.2274,44.9473,97.413],[19.205,44.942,91.7164],[19.1951,44.9375,103.5742],[19.183,44.9344,105.0984],[19.1805,44.9318,97.399],[19.1932,44.9273,94.8347],[19.2004,44.9131,75.7792],[19.2129,44.9096,83.7266],[19.2329,44.9188,98.1916],[19.2445,44.9216,94.1361],[19.3042,44.9118,97.81]]]]}
,"properties": {"GID_2": "SRB.20.6_1","GID_0": "SRB","country": "Serbia","GID_1": "SRB.20_1","province": "Sremski","NL_NAME_1": "Сремски","county": "SremskaMitrovica","VARNAME_2": "Szávaszentdemeter|Dimitrofçe","NL_NAME_2": "СремскаМитровица","TYPE_2": "Opštine","ENGTYPE_2": "Town|Municipal","CC_2": "NA","HASC_2": "NA","name": "Sremska_Mitrovica.county","area_km2": 758.7665,"hist_schema_id": "Elevation0-9000","hist_area_km2": {"75": 443.721,"100": 135.5569,"125": 43.7752,"150": 33.4506,"175": 26.83,"200": 16.8299,"225": 12.5652,"250": 11.2479,"275": 9.1087,"300": 7.5534,"325": 4.6965,"350": 2.9317,"375": 2.6774,"400": 2.2286,"425": 2.3332,"450": 2.4678,"475": 0.7927}}}