{"type":"Feature","properties":{"GID_2":"SRB.6.6_1","GID_0":"SRB","country":"Serbia","GID_1":"SRB.6_1","province":"Južno-Banatski","NL_NAME_1":"Јужнобанатски","county":"Pančevo","VARNAME_2":"Pancsova|Pançova|Panciova","NL_NAME_2":"Панчево","TYPE_2":"Opštine","ENGTYPE_2":"Town|Municipal","CC_2":"NA","HASC_2":"NA","name":"Pančevo.county"},
"geometry":{"type": "MultiPolygon","coordinates": [[[[20.7782,44.6329,171.8587],[20.7844,44.6403,190.8542],[20.7866,44.6456,164.5348],[20.7865,44.6634,68.1873],[20.7895,44.6655,71.563],[20.8037,44.6668,69.5892],[20.8095,44.6693,69.3001],[20.8272,44.6886,68.3986],[20.8411,44.7,68.4183],[20.847,44.7074,67.9521],[20.8482,44.713,67.7602],[20.8469,44.7185,67.9677],[20.8339,44.7371,76.1092],[20.8337,44.7402,75.684],[20.8367,44.7467,77.2346],[20.8322,44.7561,76.4862],[20.8322,44.7673,76.427],[20.8265,44.771,76.472],[20.8089,44.7712,77.2057],[20.8051,44.7729,76.9656],[20.7986,44.7822,75.8206],[20.7979,44.7952,77.1866],[20.7829,44.8034,76.6467],[20.7805,44.806399999999996,78.074],[20.7813,44.8106,78.3274],[20.7963,44.8245,77.0073],[20.8241,44.8397,84.2952],[20.8573,44.8482,85.174],[20.8891,44.86,95.8029],[20.9085,44.8639,93.7135],[20.9345,44.8743,93.812],[20.9401,44.8786,98.3489],[20.9397,44.881,104.8555],[20.9366,44.8835,108.6511],[20.9251,44.8871,110.8739],[20.92,44.8902,109.965],[20.9095,44.8998,110.8846],[20.9038,44.9081,110.1845],[20.8963,44.9434,140.5263],[20.8995,44.9554,144.8697],[20.8914,44.9757,147.0182],[20.8777,44.9664,148.2592],[20.8688,44.9569,137.6381],[20.8574,44.9535,126.3581],[20.8493,44.9546,121.2011],[20.8433,44.9574,119.8712],[20.8338,44.9658,121.0234],[20.8318,44.9782,130.2856],[20.8159,44.9914,126.2598],[20.7809,45.0062,111.587],[20.7683,45.0155,109.7543],[20.7614,45.0236,107.5072],[20.7443,45.0321,102.9401],[20.7338,45.0296,97.3161],[20.7193,45.0209,91.8504],[20.6995,45.0152,81.9437],[20.6875,45.0078,79.5001],[20.686,45.0029,78.9449],[20.6938,44.994,79.7048],[20.6968,44.9855,78.8312],[20.6947,44.9817,80.2005],[20.6827,44.9791,79.0355],[20.6449,44.9655,78.0992],[20.6274,44.9632,75.2932],[20.6156,44.9597,75.2105],[20.6121,44.9599,74.9583],[20.6077,44.9643,75.2556],[20.6074,44.9758,76.6233],[20.6012,44.9826,77.0502],[20.5925,45.0009,77.0773],[20.5143,44.991,74.9741],[20.4997,44.9856,73.1838],[20.4934,44.9792,73.2641],[20.4906,44.9693,71.0873],[20.4959,44.9665,71.4465],[20.4984,44.963,70.9537],[20.4981,44.9505,71.1373],[20.505,44.9408,70.6029],[20.527,44.9254,71.0029],[20.5731,44.9103,70.6819],[20.5866,44.9009,70.6622],[20.6017,44.8864,69.9614],[20.6017,44.8801,71.1016],[20.595,44.8719,70.2756],[20.5903,44.8578,69.1745],[20.5767,44.8386,151.4832],[20.5645,44.8279,160.6354],[20.5626,44.8194,249.8696],[20.5634,44.8148,246.0854],[20.566,44.8111,198.0296],[20.5865,44.8056,98.8001],[20.6013,44.7925,148.0508],[20.6101,44.782,84.6945],[20.5969,44.7552,141.2596],[20.6028,44.7376,82.9979],[20.624,44.7199,121.5587],[20.6451,44.7106,176.2608],[20.6522,44.7058,184.1017],[20.6571,44.7004,239.8606],[20.6666,44.6819,166.2573],[20.6801,44.6648,101.7993],[20.6919,44.6555,140.6716],[20.7069,44.6487,101.3861],[20.7249,44.6459,238.4604],[20.7393,44.6347,151.7974],[20.7478,44.6314,239.2993],[20.7566,44.6308,199.5768],[20.7782,44.6329,171.8587]]]]}}