{"type":"Feature","properties":{"GID_2":"SRB.19.5_1","GID_0":"SRB","country":"Serbia","GID_1":"SRB.19_1","province":"Srednje-Banatski","NL_NAME_1":"Средњебанатски","county":"Zrenjanin","VARNAME_2":"Bečkerek|VelikiBečkerek|Nagybec","NL_NAME_2":"Зрењанин","TYPE_2":"Opštine","ENGTYPE_2":"Town|Municipal","CC_2":"NA","HASC_2":"NA","name":"Zrenjanin.county"},
"geometry":{"type": "MultiPolygon","coordinates": [[[[20.3926,45.0673,72.2331],[20.4136,45.0846,72.3781],[20.4227,45.0894,70.6206],[20.432,45.0992,72.2731],[20.4346,45.1054,72.0167],[20.4339,45.1095,71.7586],[20.4299,45.1138,71.915],[20.4318,45.1182,71.7174],[20.4384,45.1234,72.057],[20.4492,45.1266,71.137],[20.4542,45.1303,76.7244],[20.4558,45.1363,72.2592],[20.4432,45.1508,72.9986],[20.4569,45.1659,72.4552],[20.4656,45.1794,73.3232],[20.4752,45.1887,81.1621],[20.4805,45.1998,74.0793],[20.484,45.2028,79.141],[20.4879,45.2038,80.1028],[20.4918,45.2026,73.0257],[20.4948,45.194,73.1533],[20.4997,45.1913,72.9815],[20.5054,45.1912,73.4201],[20.5169,45.1956,72.5373],[20.5209,45.1957,72.7558],[20.5324,45.1896,73.7927],[20.5399,45.188,75.8752],[20.5451,45.1902,76.4421],[20.5506,45.1955,73.2633],[20.5536,45.204,74.8972],[20.5603,45.2154,73.2447],[20.5675,45.2184,73.2859],[20.5784,45.2189,70.3901],[20.5951,45.2128,74.5115],[20.6177,45.2105,78.6276],[20.6386,45.2036,79.9948],[20.6809,45.1822,105.0704],[20.6828,45.1891,102.9171],[20.6887,45.2006,101.8745],[20.6831,45.2084,95.0632],[20.6763,45.2255,80.0919],[20.6763,45.229,80.007],[20.687,45.2404,80.3868],[20.6888,45.2486,77.1429],[20.6983,45.2646,77.7721],[20.6947,45.2694,77.8474],[20.6848,45.2752,78.0386],[20.6585,45.2814,77.4573],[20.6393,45.283,76.1558],[20.6339,45.2869,74.3378],[20.638,45.2959,84.7967],[20.6355,45.3027,84.5243],[20.6376,45.3086,84.5774],[20.6453,45.3181,75.9592],[20.6587,45.3255,74.3434],[20.6631,45.3327,73.9377],[20.6593,45.3464,74.0],[20.6644,45.3749,77.4886],[20.647,45.3903,76.7966],[20.6453,45.3959,76.1638],[20.6465,45.403,77.3811],[20.6428,45.4112,77.586],[20.646,45.4157,77.3025],[20.661,45.4236,77.7412],[20.6583,45.4269,77.8876],[20.6441,45.4338,78.2862],[20.6368,45.4337,77.9066],[20.6267,45.4299,77.9013],[20.6099,45.4269,77.9666],[20.6074,45.4243,77.8433],[20.6074,45.4143,77.5411],[20.5999,45.409,77.8961],[20.5893,45.4072,77.6147],[20.5747,45.413,77.5225],[20.5657,45.4092,77.4669],[20.5541,45.3953,78.1878],[20.5453,45.3943,78.2798],[20.5371,45.3975,78.3211],[20.5339,45.4014,78.1437],[20.5333,45.408,78.0704],[20.5168,45.42,78.069],[20.5079,45.4433,77.6619],[20.5042,45.4466,77.4224],[20.4935,45.4495,77.8258],[20.4902,45.452,77.8351],[20.4889,45.4557,77.4575],[20.4899,45.4639,76.7762],[20.4872,45.4678,77.209],[20.482,45.4712,76.7936],[20.4651,45.4749,77.3213],[20.4589,45.4792,76.7002],[20.458,45.4824,76.8046],[20.4598,45.4849,76.6253],[20.4764,45.4891,76.1979],[20.4786,45.4924,76.1266],[20.4774,45.4961,75.8258],[20.4281,45.5422,75.6728],[20.4138,45.5608,76.177],[20.3864,45.5873,77.654],[20.3782,45.6013,78.666],[20.3602,45.5987,78.3149],[20.3485,45.6025,78.9697],[20.3414,45.6095,78.1077],[20.3236,45.6137,77.7968],[20.3153,45.6065,77.3756],[20.3103,45.5973,76.8943],[20.3037,45.5901,77.9504],[20.299,45.5807,75.8505],[20.2791,45.564,77.5796],[20.2567,45.5355,76.4931],[20.2553,45.5304,78.9683],[20.2564,45.5268,79.024],[20.2685,45.5149,79.7267],[20.2713,45.51,79.5966],[20.2718,45.4989,79.3804],[20.2685,45.4927,78.369],[20.2612,45.4913,75.7259],[20.2384,45.4909,74.7912],[20.2166,45.4851,76.7476],[20.2052,45.4842,76.8825],[20.1917,45.4858,75.729],[20.1723,45.4938,77.4301],[20.162,45.4964,73.4312],[20.1304,45.4941,74.6889],[20.1468,45.4738,72.8859],[20.1563,45.4678,73.8273],[20.1577,45.4646,73.618],[20.1312,45.4537,73.3292],[20.098,45.4435,73.3963],[20.093,45.4403,73.568],[20.0921,45.4364,73.217],[20.0945,45.4291,73.2434],[20.1013,45.4239,73.2651],[20.1447,45.4146,73.0545],[20.1593,45.4184,72.433],[20.1757,45.4174,72.8372],[20.1851,45.4257,72.9009],[20.1948,45.4294,72.8976],[20.2016,45.4285,72.7868],[20.2057,45.4253,71.6452],[20.2072,45.4201,72.7978],[20.2052,45.408,72.6531],[20.2145,45.3989,77.8151],[20.2108,45.3949,75.2539],[20.195,45.3863,75.0841],[20.1904,45.381,73.3146],[20.1898,45.3775,73.4443],[20.1935,45.3742,73.295],[20.2063,45.3696,77.2711],[20.2064,45.3651,73.0221],[20.2001,45.3553,74.6464],[20.2126,45.3465,71.6808],[20.198,45.3381,73.1232],[20.1952,45.3329,72.7904],[20.1958,45.3286,72.5603],[20.2019,45.3241,72.0939],[20.213,45.3242,72.8655],[20.2258,45.335,73.5997],[20.2325,45.337,71.552],[20.2418,45.3349,73.328],[20.2519,45.3278,70.0],[20.2543,45.3231,74.5212],[20.2537,45.3203,83.2093],[20.2485,45.317,70.0],[20.2385,45.3143,73.2288],[20.2375,45.3124,77.6416],[20.2525,45.3047,77.2161],[20.2535,45.3011,73.9128],[20.2489,45.2992,73.1457],[20.2254,45.2961,72.7981],[20.2221,45.2936,72.1458],[20.2215,45.2905,76.3416],[20.2327,45.2762,119.8485],[20.2484,45.2714,122.3734],[20.2542,45.268,121.8783],[20.2828,45.2293,117.2504],[20.2875,45.2201,117.8409],[20.288,45.2118,94.3101],[20.286,45.2049,89.1322],[20.27,45.1949,72.1793],[20.2658,45.1904,71.5018],[20.2603,45.1633,72.381],[20.2561,45.1526,75.9719],[20.2582,45.1457,70.5],[20.2691,45.1286,99.177],[20.2677,45.124,140.315],[20.2635,45.1199,133.2516],[20.2654,45.1122,128.3505],[20.2783,45.0952,114.0677],[20.2777,45.0823,104.4909],[20.2962,45.0784,104.0297],[20.312,45.0683,102.9188],[20.3171,45.0668,105.3306],[20.3287,45.0706,108.1621],[20.3417,45.0806,73.1982],[20.3516,45.0821,72.7549],[20.3678,45.0797,72.346],[20.3926,45.0673,72.2331]]]]}}