{"type": "Feature","bbox": [19.6197,44.485,19.9711,44.6911],"geometry": {"type": "MultiPolygon","coordinates": [[[[19.9666,44.6282,82.2039],[19.9414,44.6149,88.1106],[19.9328,44.6132,91.431],[19.9174,44.6129,100.5008],[19.9061,44.6137,130.5615],[19.8987,44.6166,128.1506],[19.8883,44.6261,133.9423],[19.8863,44.6303,143.9179],[19.8896,44.6396,108.9684],[19.8974,44.6454,106.0936],[19.9055,44.6468,119.0102],[19.9228,44.6449,96.9692],[19.9345,44.6456,89.1772],[19.9596,44.6546,104.2808],[19.9697,44.665,71.5],[19.9686,44.6699,78.8122],[19.9627,44.6748,78.6973],[19.9523,44.6778,80.0111],[19.918,44.6806,75.3953],[19.8808,44.6807,92.1302],[19.8545,44.6839,129.2205],[19.8326,44.6911,127.1161],[19.8217,44.6803,140.9871],[19.793,44.6582,100.6246],[19.7849,44.6593,113.0568],[19.7745,44.6688,121.2238],[19.7627,44.6713,97.6353],[19.7557,44.6694,87.4751],[19.75,44.6656,105.7343],[19.7425,44.6526,111.1411],[19.7354,44.6485,90.7984],[19.7226,44.6483,117.546],[19.7008,44.655,115.2311],[19.6892,44.6554,124.4648],[19.679,44.6536,120.5626],[19.6656,44.648,128.5676],[19.6624,44.6435,112.5223],[19.6637,44.6403,104.0022],[19.678,44.6283,100.9942],[19.6879,44.6047,164.9476],[19.6857,44.6021,167.4821],[19.6719,44.5966,109.0219],[19.6599,44.5853,119.9855],[19.6557,44.5735,136.712],[19.6544,44.555,147.1051],[19.6405,44.5449,203.978],[19.6338,44.5299,243.3451],[19.632,44.5194,237.6437],[19.6197,44.5076,237.7665],[19.6273,44.5054,215.7542],[19.6516,44.5088,226.5085],[19.6614,44.5075,237.0181],[19.6671,44.5035,206.887],[19.6609,44.4944,203.156],[19.6623,44.4905,175.8531],[19.6736,44.485,155.4178],[19.6866,44.4852,170.8967],[19.6949,44.4884,204.9677],[19.6992,44.493899999999996,231.0065],[19.6967,44.5133,239.429],[19.6973,44.5276,202.2911],[19.6999,44.5312,187.0382],[19.711,44.5352,234.4586],[19.7184,44.5346,202.6299],[19.7286,44.5285,233.2817],[19.7356,44.5289,238.3091],[19.7502,44.5404,205.128],[19.7779,44.5536,157.3532],[19.7878,44.5503,132.0625],[19.795,44.5411,149.8947],[19.8168,44.5399,184.4441],[19.8257,44.5357,193.4894],[19.8352,44.5272,199.9179],[19.8499,44.524,198.3703],[19.8549,44.5352,169.823],[19.8635,44.543,129.8249],[19.8768,44.5475,126.2173],[19.8954,44.5584,186.4222],[19.9061,44.5592,173.5638],[19.9269,44.5506,147.7269],[19.9511,44.558,123.8764],[19.9644,44.5647,117.2965],[19.9711,44.5648,134.2619],[19.9702,44.5809,115.1194],[19.9612,44.5928,121.5958],[19.962,44.5958,118.1167],[19.9686,44.604,83.4619],[19.9666,44.6282,82.2039]]]]}
,"properties": {"GID_2": "SRB.8.8_1","GID_0": "SRB","country": "Serbia","GID_1": "SRB.8_1","province": "Mačvanski","NL_NAME_1": "Мачвански","county": "Vladimirci","VARNAME_2": "NA","NL_NAME_2": "Владимирци","TYPE_2": "Opštine","ENGTYPE_2": "Town|Municipal","CC_2": "NA","HASC_2": "NA","name": "Vladimirci.county","area_km2": 339.6692,"hist_schema_id": "Elevation0-9000","hist_area_km2": {"75": 14.3422,"100": 51.8769,"125": 98.4753,"150": 89.2183,"175": 40.7639,"200": 24.7981,"225": 14.0417,"250": 5.276,"275": 0.8012,"300": 0.0756}}}