{"type":"Feature","properties":{"GID_2":"SRB.1.3_1","GID_0":"SRB","country":"Serbia","GID_1":"SRB.1_1","province":"Borski","NL_NAME_1":"Борски","county":"Majdanpek","VARNAME_2":"NA","NL_NAME_2":"Мајданпек","TYPE_2":"Opštine","ENGTYPE_2":"Town|Municipal","CC_2":"NA","HASC_2":"NA","name":"Majdanpek.county"},
"geometry":{"type": "MultiPolygon","coordinates": [[[[22.1915,44.4985,66.0],[22.1832,44.4815,66.0],[22.1627,44.4726,66.0],[22.1399,44.4709,66.0],[22.1267,44.4759,66.0],[22.1013,44.4928,66.5],[22.0841,44.5009,66.5],[22.0805,44.506,66.5],[22.0787,44.5133,66.5],[22.0715,44.5244,66.5],[22.058,44.5332,66.5],[22.0394,44.5415,66.5],[22.0272,44.5646,66.5],[22.0294,44.5704,66.75],[22.0299,44.5834,67.0],[22.0264,44.5921,67.0],[22.0013,44.5694,460.7469],[21.9614,44.5385,489.5992],[21.9561,44.5323,443.9578],[21.9556,44.5258,450.6659],[21.9534,44.5226,517.3939],[21.9383,44.5196,608.4617],[21.9298,44.5144,458.1237],[21.935,44.5061,597.7159],[21.9348,44.4948,630.085],[21.9286,44.4864,602.0862],[21.9244,44.4742,607.4982],[21.9174,44.4657,545.3948],[21.9176,44.4568,600.1802],[21.9247,44.4418,656.0158],[21.9182,44.4282,495.7985],[21.9125,44.4257,597.9365],[21.8892,44.4267,470.2762],[21.882,44.4245,463.6417],[21.8718,44.414,281.6669],[21.8642,44.4088,351.5638],[21.8583,44.3993,563.3725],[21.854,44.3958,527.644],[21.8492,44.395,509.9954],[21.8318,44.3988,612.3788],[21.8269,44.3979,663.9913],[21.8202,44.3937,531.723],[21.8177,44.3785,506.0563],[21.8152,44.3731,568.5996],[21.8091,44.3679,634.0317],[21.7997,44.3638,747.5737],[21.7948,44.356,463.5103],[21.7947,44.3451,562.5125],[21.7964,44.3409,595.7725],[21.8085,44.3328,635.4797],[21.813,44.3274,703.9775],[21.8129,44.3233,649.6445],[21.8072,44.3152,838.2021],[21.8078,44.311,801.6216],[21.8157,44.2981,745.0505],[21.8417,44.3029,725.7703],[21.8511,44.3031,792.7601],[21.8617,44.2981,579.0836],[21.8762,44.2943,644.0963],[21.8892,44.2849,643.5126],[21.894,44.2769,559.812],[21.894,44.2678,566.0847],[21.8966,44.2602,742.4767],[21.8951,44.2505,693.0457],[21.8979,44.24,739.8963],[21.8956,44.2292,794.5805],[21.8961,44.2228,869.0067],[21.9119,44.2106,890.8322],[21.916,44.2093,912.3127],[21.9224,44.2121,825.0383],[21.9401,44.2262,625.5707],[21.9489,44.2279,561.2078],[21.9557,44.225,643.6376],[21.9568,44.2204,605.2322],[21.9514,44.2139,678.468],[21.9508,44.2104,715.9932],[21.9581,44.1952,731.3123],[21.9554,44.1779,783.2649],[21.9912,44.177,698.919],[21.996,44.1785,643.752],[22.0042,44.1865,575.2273],[22.0057,44.1917,666.5638],[22.0051,44.2026,657.0564],[22.0116,44.2125,623.681],[22.013,44.2265,570.9089],[22.0114,44.2405,549.1635],[22.0042,44.253,495.1384],[22.006,44.2569,479.1555],[22.0163,44.2615,613.5869],[22.0227,44.262,644.3914],[22.0378,44.2563,479.3528],[22.0524,44.2548,365.2872],[22.0602,44.2556,365.6829],[22.0707,44.262,326.6873],[22.0822,44.2633,378.4665],[22.0937,44.2557,397.3051],[22.1101,44.2539,444.9467],[22.1182,44.2514,496.8102],[22.1309,44.2429,454.1298],[22.1378,44.2354,450.4143],[22.1446,44.2319,350.5285],[22.1718,44.2312,482.8082],[22.1901,44.2354,583.3855],[22.1856,44.246,579.3377],[22.1877,44.2494,600.402],[22.1947,44.2539,750.5267],[22.1965,44.2587,830.7141],[22.1891,44.2809,435.102],[22.19,44.2891,602.7244],[22.202,44.3049,647.0772],[22.2142,44.308,421.3245],[22.2196,44.3128,416.1271],[22.2216,44.3197,491.9074],[22.2202,44.3329,414.9911],[22.2343,44.3386,500.4576],[22.2388,44.3435,541.0361],[22.2343,44.3586,481.834],[22.2268,44.369,488.3882],[22.2237,44.3763,391.2373],[22.2243,44.3924,474.748],[22.2161,44.4027,459.5761],[22.2169,44.4163,340.0397],[22.2192,44.419,384.7259],[22.2249,44.4204,415.8177],[22.2465,44.4158,475.5454],[22.2533,44.4177,420.5408],[22.2642,44.426,358.1644],[22.261,44.4441,391.4572],[22.264,44.4486,356.0556],[22.2753,44.4548,386.068],[22.2895,44.4524,370.4969],[22.304,44.4584,405.1682],[22.2894,44.4784,432.1413],[22.2948,44.4883,416.9611],[22.2963,44.4971,407.9277],[22.3029,44.505,377.6455],[22.3011,44.5131,456.4286],[22.3051,44.5285,543.1788],[22.3079,44.5318,471.1487],[22.3116,44.5327,444.7269],[22.3304,44.5323,480.4472],[22.3458,44.5401,388.2819],[22.3493,44.5441,385.6126],[22.3498,44.5472,392.0022],[22.346,44.5512,404.657],[22.3312,44.5562,421.6718],[22.3178,44.564,455.5904],[22.3094,44.5802,466.3458],[22.3029,44.5849,508.7503],[22.2947,44.5883,621.5407],[22.286,44.5894,734.2263],[22.2733,44.5829,556.8914],[22.2499,44.5792,65.5],[22.2318,44.5617,65.5],[22.209,44.5239,65.5],[22.1967,44.5102,66.0],[22.1915,44.4985,66.0]]]]}}