{"type": "Feature","bbox": [19.3042,44.7253,19.6592,44.9419],"geometry": {"type": "MultiPolygon","coordinates": [[[[19.3167,44.7263,97.447],[19.3285,44.7253,97.6144],[19.3545,44.7315,94.0523],[19.3835,44.7319,91.9789],[19.3923,44.7336,91.6671],[19.4028,44.7406,90.6393],[19.4108,44.7523,90.9294],[19.4211,44.7594,89.5674],[19.4261,44.7649,87.7816],[19.4348,44.7677,87.1355],[19.4549,44.7648,87.552],[19.4711,44.7594,87.9394],[19.4812,44.7501,87.4024],[19.4852,44.7421,86.9951],[19.4925,44.7363,87.1616],[19.5029,44.736,85.9157],[19.5099,44.7385,85.7171],[19.5217,44.7493,84.7079],[19.5435,44.7608,83.7569],[19.5451,44.7646,83.4995],[19.542,44.7766,83.1289],[19.5445,44.7813,83.2229],[19.5747,44.8016,88.4065],[19.5791,44.8061,81.0952],[19.5797,44.8103,80.7253],[19.5773,44.8144,83.5892],[19.5647,44.8231,87.2388],[19.5637,44.8274,83.0661],[19.5661,44.8325,87.2505],[19.6106,44.8607,80.2484],[19.6133,44.866,80.6385],[19.6143,44.8773,79.5292],[19.6236,44.8937,78.8885],[19.6458,44.9019,75.3763],[19.6592,44.9108,75.4666],[19.6334,44.914,78.1512],[19.6003,44.914,76.4646],[19.5624,44.902,77.9791],[19.5521,44.9005,78.0147],[19.5265,44.904,79.2533],[19.5204,44.9062,85.9587],[19.506,44.9153,78.652],[19.4992,44.917,81.0633],[19.4865,44.9118,80.7733],[19.4739,44.9014,81.1375],[19.4669,44.8996,81.9867],[19.4562,44.9036,81.6425],[19.4445,44.9245,82.4282],[19.4389,44.9298,88.2109],[19.4221,44.9392,80.1759],[19.4113,44.9419,80.1187],[19.4043,44.9412,79.0864],[19.4019,44.9387,78.1056],[19.4025,44.9353,78.8417],[19.4115,44.9202,79.1081],[19.4107,44.9162,82.6545],[19.4039,44.9125,83.1338],[19.3981,44.9131,78.7342],[19.3869,44.9216,84.7091],[19.3813,44.9235,95.5123],[19.374,44.9209,80.2191],[19.3641,44.9112,89.7514],[19.3573,44.9088,80.3037],[19.348,44.9093,80.372],[19.3228,44.9156,80.271],[19.306,44.9146,98.4331],[19.3042,44.9118,97.81],[19.3374,44.8997,88.3281],[19.3481,44.8986,97.3215],[19.3491,44.8934,80.016],[19.3562,44.897,84.5718],[19.366,44.897,80.5668],[19.3704,44.8922,85.0723],[19.3641,44.8863,73.2478],[19.3675,44.8781,84.094],[19.3807,44.8736,88.2663],[19.3809,44.8671,81.46],[19.3576,44.8539,81.4302],[19.3538,44.8484,83.4567],[19.3599,44.8437,82.4193],[19.3594,44.839,78.6353],[19.353,44.8337,80.9954],[19.3427,44.8307,88.1113],[19.3414,44.8247,85.2284],[19.3427,44.8123,87.9859],[19.3408,44.8033,86.3877],[19.336,44.7948,90.0061],[19.3304,44.7589,92.5763],[19.3249,44.7503,96.6865],[19.3236,44.7412,91.2798],[19.3167,44.7263,97.447]]]]}
,"properties": {"GID_2": "SRB.8.1_1","GID_0": "SRB","country": "Serbia","GID_1": "SRB.8_1","province": "Mačvanski","NL_NAME_1": "Мачвански","county": "Bogatić","VARNAME_2": "NA","NL_NAME_2": "Богатић","TYPE_2": "Opštine","ENGTYPE_2": "Town|Municipal","CC_2": "NA","HASC_2": "NA","name": "Bogatić.county","area_km2": 351.471,"hist_schema_id": "Elevation0-9000","hist_area_km2": {"75": 285.0341,"100": 66.4369}}}