{"type":"Feature","properties":{"GID_1":"SRB.18_1","GID_0":"SRB","country":"Serbia","province":"Severno-Banatski","VARNAME_1":"NorthBanat","NL_NAME_1":"Севернобанатски","TYPE_1":"Okrug","ENGTYPE_1":"District","CC_1":"NA","HASC_1":"RS.SN","ISO_1":"NA","name":"Severno-Banatski.province"},
"geometry":{"type": "MultiPolygon","coordinates": [[[[20.5616,45.9087,81.2046],[20.5481,45.9062,80.3487],[20.5512,45.9003,80.2286],[20.5174,45.8924,78.7025],[20.5034,45.911,78.7234],[20.4845,45.9538,79.8717],[20.4489,45.9706,79.0719],[20.407,45.9656,78.6878],[20.3499,46.0,79.8785],[20.3549,46.0,78.915],[20.3537,46.004,78.9461],[20.3594,46.0059,79.3109],[20.3422,46.0366,77.9451],[20.3409,46.0419,77.9345],[20.3447,46.0474,78.7105],[20.3475,46.0478,78.5392],[20.3109,46.0724,78.2718],[20.3129,46.074,78.1712],[20.3047,46.0835,78.4755],[20.3039,46.087,77.8152],[20.2748,46.0986,79.2176],[20.2665,46.1088,80.0916],[20.2687,46.1125,78.368],[20.2769,46.1129,79.2875],[20.2845,46.1179,78.8045],[20.2693,46.117,78.7625],[20.2638,46.1205,79.8767],[20.2655,46.1247,79.0656],[20.2608,46.1267,79.8231],[20.2542,46.119,80.5178],[20.25,46.1229,78.7878],[20.2511,46.13,79.7269],[20.2488,46.1328,79.4569],[20.234,46.1261,78.6006],[20.2312,46.132,79.2753],[20.2106,46.1377,79.3716],[20.2089,46.146,80.0853],[20.1813,46.1625,76.3207],[20.1738,46.1565,78.545],[20.1415,46.1468,77.4485],[20.1344,46.1499,79.5081],[20.1312,46.1541,77.2126],[20.1197,46.1582,76.4886],[20.1064,46.1674,76.6018],[20.1059,46.1741,79.4991],[20.1077,46.1763,80.0425],[20.1025,46.1803,81.1762],[20.0941,46.1781,91.1387],[20.086,46.1715,81.459],[20.0653,46.1483,77.0165],[20.0626,46.1506,78.0613],[20.057,46.1512,77.1588],[20.0424,46.147,78.9263],[20.0361,46.1481,79.0212],[20.0297,46.1538,76.955],[20.0267,46.1626,76.7234],[20.0251,46.1754,79.8467],[20.0199,46.1788,82.7709],[19.9344,46.1773,88.4143],[19.9173,46.167,93.8882],[19.8713,46.1542,99.5581],[19.8767,46.1508,99.6626],[19.8799,46.1466,107.6126],[19.8802,46.1423,96.5728],[19.8777,46.1373,96.2587],[19.8751,46.1343,95.7356],[19.8569,46.124,101.451],[19.8516,46.1174,101.0049],[19.8549,46.1029,97.3738],[19.8598,46.0928,103.2756],[19.8565,46.0687,99.2636],[19.8499,46.0602,100.8447],[19.8464,46.049,102.6393],[19.8417,46.0446,102.8866],[19.8279,46.0384,104.6275],[19.8212,46.0324,105.9799],[19.8079,46.0163,106.1747],[19.8066,46.0097,107.0989],[19.8029,46.0039,108.3261],[19.8026,45.9972,107.5205],[19.7992,45.9874,105.7045],[19.8038,45.9625,106.1556],[19.7995,45.9485,106.31],[19.8003,45.9417,106.2181],[19.8075,45.9255,106.3311],[19.8073,45.9213,107.7392],[19.7888,45.9119,104.0338],[19.7649,45.9024,103.0844],[19.7924,45.8732,100.8888],[19.7973,45.8624,102.93],[19.807,45.8516,103.3053],[19.8066,45.8372,102.197],[19.8109,45.8292,101.5698],[19.8179,45.827,94.846],[19.8346,45.8279,100.5894],[19.8452,45.8078,98.6277],[19.8561,45.7966,96.6649],[19.8556,45.785,89.061],[19.8606,45.7722,94.9633],[19.8932,45.7752,99.3652],[19.9124,45.7747,95.1949],[19.9311,45.7705,92.5886],[19.9503,45.769,89.5915],[19.9712,45.7642,88.615],[19.9923,45.7556,88.2246],[20.0525,45.7544,80.7312],[20.0709,45.7518,79.7425],[20.0853,45.7461,79.5803],[20.0989,45.7346,79.815],[20.1111,45.7276,74.7823],[20.1203,45.7171,74.6305],[20.1502,45.7314,74.8454],[20.1551,45.7353,75.2085],[20.1566,45.7414,75.4572],[20.1549,45.7475,75.9701],[20.1503,45.7531,76.5338],[20.1376,45.7626,80.8396],[20.1341,45.7708,79.7846],[20.1377,45.7745,75.8519],[20.1648,45.7918,76.1106],[20.1814,45.7884,75.5636],[20.231,45.785,75.3775],[20.2548,45.7853,76.216],[20.3003,45.7908,75.971],[20.3257,45.7854,78.2606],[20.3408,45.7898,78.8738],[20.348,45.7898,78.2281],[20.3506,45.7866,78.555],[20.353,45.775,78.248],[20.3599,45.7577,78.0827],[20.3706,45.7405,77.3543],[20.3809,45.7293,77.8235],[20.3854,45.7184,77.9087],[20.3901,45.7157,75.7684],[20.4013,45.7152,77.4978],[20.4079,45.7132,77.1562],[20.4218,45.7041,77.2422],[20.4241,45.7007,76.8267],[20.4108,45.6898,77.4408],[20.4086,45.6857,77.2632],[20.4083,45.6788,76.5443],[20.4045,45.6756,75.9844],[20.3971,45.6745,76.8031],[20.3838,45.6762,77.2912],[20.3657,45.6638,77.7307],[20.3505,45.6592,74.9573],[20.3447,45.6622,75.8627],[20.3437,45.6651,78.0313],[20.3439,45.6681,76.6904],[20.3485,45.6733,75.6796],[20.3495,45.6775,77.9254],[20.3485,45.6804,77.8342],[20.3362,45.675,77.3688],[20.3318,45.6705,74.857],[20.331,45.6622,74.7611],[20.3362,45.6558,77.2191],[20.3434,45.6546,76.9181],[20.3492,45.6508,77.1975],[20.3553,45.6422,77.2905],[20.3539,45.6387,76.3747],[20.3501,45.6361,76.0542],[20.3337,45.6342,77.6636],[20.3301,45.6319,77.5874],[20.3236,45.6137,77.7968],[20.3414,45.6095,78.1077],[20.3485,45.6025,78.9697],[20.3646,45.5984,77.6773],[20.3968,45.6065,77.9862],[20.413,45.6088,77.5941],[20.4319,45.6145,77.5423],[20.4783,45.6143,75.4291],[20.5038,45.6096,76.3782],[20.5291,45.6131,76.2493],[20.521,45.6212,76.2174],[20.516,45.6294,75.9829],[20.509,45.6355,75.3264],[20.5044,45.6455,75.3982],[20.4982,45.6538,75.1767],[20.4998,45.6629,76.2162],[20.5084,45.6788,76.2169],[20.5315,45.6899,76.4969],[20.5554,45.706,76.3562],[20.5635,45.7059,76.2976],[20.5881,45.6997,75.0637],[20.615,45.7019,76.0944],[20.6198,45.7045,76.8154],[20.6191,45.7302,76.8291],[20.623,45.7429,76.0477],[20.6289,45.7529,77.3482],[20.6424,45.7616,76.6872],[20.6445,45.7653,76.9197],[20.6415,45.7746,77.3425],[20.6317,45.7839,78.6944],[20.6306,45.7871,79.7012],[20.642,45.7938,79.502],[20.6487,45.8018,79.0969],[20.6528,45.7969,78.6044],[20.6619,45.7943,79.0119],[20.6634,45.7965,79.2456],[20.6586,45.8084,79.0316],[20.6564,45.8077,79.5954],[20.6522,45.8121,81.0864],[20.662,45.8295,81.1724],[20.6133,45.8643,79.3574],[20.6005,45.8621,79.5906],[20.596,45.8721,82.6029],[20.5831,45.8697,82.358],[20.5795,45.8772,81.8606],[20.5769,45.8791,81.445],[20.5784,45.8796,81.445],[20.5762,45.8843,82.3579],[20.5804,45.8853,82.2424],[20.5709,45.9105,81.858],[20.5616,45.9087,81.2046]]]]}}