{"type": "Feature","id": "1061","bbox": [20.06294,45.06515,21.01667,45.79514],"geometry": {"type": "Polygon","coordinates": [[[20.71339,45.73333,77.1426],[20.70006,45.7354,78.9699],[20.68807,45.7431,77.0344],[20.67856,45.75664,77.3856],[20.65562,45.77731,76.6101],[20.6459,45.78873,78.8092],[20.64349,45.79514,80.3408],[20.64322,45.79488,80.3408],[20.64203,45.79374,79.5428],[20.64001,45.7923,79.7877],[20.63779,45.79111,79.8709],[20.63288,45.78925,79.6514],[20.63118,45.78819,79.7012],[20.63066,45.78713,79.7012],[20.63071,45.78589,79.3117],[20.63174,45.78395,78.6944],[20.63428,45.78155,79.8237],[20.63908,45.77777,78.1619],[20.64151,45.77462,77.3425],[20.64404,45.76878,76.8695],[20.64446,45.76734,77.2655],[20.64451,45.76527,76.9197],[20.64384,45.76325,76.9498],[20.64239,45.76157,76.6872],[20.6319,45.75566,77.5383],[20.62885,45.75292,77.3482],[20.62663,45.75018,75.8774],[20.62296,45.74289,76.0477],[20.6197,45.73305,76.3024],[20.61908,45.73013,76.8291],[20.61877,45.72411,76.3054],[20.61893,45.71793,75.7231],[20.61944,45.71191,75.9366],[20.62032,45.70625,75.9935],[20.61986,45.70445,76.8154],[20.61851,45.70302,77.8455],[20.61691,45.70233,77.6607],[20.615,45.70189,76.0944],[20.61128,45.70145,75.7605],[20.60311,45.70098,75.4799],[20.59459,45.69995,75.2909],[20.58813,45.69964,75.0637],[20.58492,45.69987,75.1259],[20.58182,45.70036,75.0659],[20.57759,45.70155,75.2776],[20.56766,45.70481,76.2981],[20.56353,45.70589,76.2976],[20.56053,45.70631,75.8149],[20.55754,45.70625,75.8671],[20.55542,45.706,76.3562],[20.55351,45.70543,76.1891],[20.55097,45.70403,76.1773],[20.54457,45.69912,76.1693],[20.5364,45.69416,76.1094],[20.53149,45.68992,76.4969],[20.52917,45.68866,76.5657],[20.52384,45.68662,76.6758],[20.51216,45.6816,75.7767],[20.50834,45.67881,76.2169],[20.50627,45.67628,75.4837],[20.50384,45.66951,76.2671],[20.50069,45.66481,75.8441],[20.49976,45.66285,76.2162],[20.49811,45.65721,75.6039],[20.4979,45.65579,75.1126],[20.49821,45.65378,75.1767],[20.4994,45.65168,75.1165],[20.50441,45.64548,75.3982],[20.507,45.63892,75.0312],[20.50896,45.63546,75.3264],[20.51594,45.62936,75.9829],[20.51697,45.62802,76.1064],[20.51909,45.62383,76.4903],[20.52095,45.62125,76.2174],[20.52333,45.61861,76.5349],[20.52911,45.61311,76.2493],[20.51645,45.61039,76.3281],[20.51098,45.60972,76.0327],[20.50379,45.60957,76.3782],[20.50038,45.60983,76.4561],[20.49718,45.61034,76.3222],[20.4856,45.61344,75.1756],[20.48204,45.61401,75.4848],[20.47826,45.61432,75.4291],[20.47062,45.61453,75.9237],[20.44343,45.61476,76.8521],[20.43191,45.61453,77.5423],[20.42824,45.61412,77.5995],[20.42338,45.61288,77.7783],[20.41537,45.60954,78.0157],[20.41295,45.60879,77.5941],[20.40716,45.60776,76.765],[20.39682,45.60652,77.9862],[20.39041,45.60492,77.8173],[20.37817,45.60135,78.666],[20.3715,45.59996,78.1897],[20.3668,45.59866,77.7599],[20.36458,45.59841,77.6773],[20.36235,45.59841,78.2094],[20.36024,45.59866,78.3149],[20.35135,45.60117,78.3671],[20.34845,45.60246,78.9697],[20.3469,45.60373,79.1515],[20.34251,45.60874,77.6763],[20.34137,45.60952,78.1077],[20.33951,45.61019,78.0657],[20.32954,45.61189,77.5177],[20.3236,45.6137,77.7968],[20.3251,45.61649,77.2276],[20.32706,45.62132,77.6346],[20.32902,45.62982,77.0451],[20.33011,45.63194,77.5874],[20.33187,45.63355,77.3616],[20.33367,45.63422,77.6636],[20.3359,45.63458,76.8567],[20.34566,45.6352,74.7852],[20.34804,45.63551,75.8138],[20.35011,45.63608,76.0542],[20.35259,45.63752,76.3747],[20.35388,45.63874,76.3747],[20.35476,45.64006,76.1033],[20.35527,45.64218,77.2905],[20.35481,45.64437,77.0803],[20.35279,45.64742,77.3353],[20.34918,45.65086,77.1975],[20.34344,45.65463,76.9181],[20.33621,45.65582,77.2191],[20.33099,45.66223,74.7611],[20.33181,45.67049,74.857],[20.33626,45.67499,77.3688],[20.34695,45.68024,77.5709],[20.34845,45.68042,78.2955],[20.34938,45.67941,77.8342],[20.34949,45.67752,77.9254],[20.34856,45.67328,75.6796],[20.34561,45.67055,77.4496],[20.34391,45.66807,76.6904],[20.3437,45.66512,78.0313],[20.34473,45.66223,75.8627],[20.34876,45.65985,76.1996],[20.35047,45.65923,74.9573],[20.35486,45.66024,76.1976],[20.36287,45.66238,77.9076],[20.36566,45.66378,77.7307],[20.37078,45.6676,78.2259],[20.37543,45.66954,77.0805],[20.37744,45.67062,77.8812],[20.38163,45.67509,77.4361],[20.38385,45.67618,77.2912],[20.38654,45.67649,77.0136],[20.38897,45.67615,76.587],[20.39414,45.67486,76.3967],[20.39708,45.67453,76.8031],[20.40013,45.67458,76.2859],[20.4024,45.67494,76.3245],[20.40447,45.67556,75.9844],[20.40685,45.6769,75.9168],[20.40824,45.67876,76.5443],[20.40866,45.68067,76.6394],[20.40855,45.68569,77.2632],[20.40928,45.68775,77.37],[20.41078,45.68982,77.4408],[20.41517,45.69357,77.4969],[20.42183,45.69799,76.4611],[20.42364,45.69964,76.8709],[20.42411,45.7007,76.8267],[20.42359,45.70246,76.9145],[20.42183,45.70408,77.2422],[20.41667,45.70739,77.3964],[20.41155,45.71116,77.050299999999993],[20.40793,45.7132,77.1562],[20.40571,45.71406,77.4318],[20.40132,45.71519,77.4978],[20.39832,45.71545,77.6145],[20.39134,45.7155,75.6724],[20.39005,45.71571,75.7684],[20.38742,45.71674,76.8475],[20.38535,45.71842,77.9087],[20.3839,45.72057,77.9617],[20.38184,45.72718,77.6234],[20.38091,45.7293,77.8235],[20.37781,45.73328,78.2244],[20.37202,45.73866,78.29],[20.37057,45.74052,77.3543],[20.36659,45.74837,77.9701],[20.36303,45.75281,78.2623],[20.35982,45.75767,78.0827],[20.35703,45.76672,78.2637],[20.353,45.77504,78.248],[20.35217,45.77793,78.3608],[20.35135,45.78382,78.8183],[20.35062,45.78656,78.555],[20.34959,45.78847,78.3908],[20.34799,45.78982,78.3382],[20.34644,45.79033,78.3382],[20.34463,45.79044,78.5381],[20.34081,45.78984,78.8738],[20.33507,45.78842,77.9474],[20.32876,45.78607,78.0791],[20.32572,45.78542,77.8185],[20.32442,45.78542,77.9688],[20.32169,45.78599,77.827],[20.31621,45.78816,78.6873],[20.31337,45.78894,79.2226],[20.30536,45.79044,75.3878],[20.30329,45.79075,75.5605],[20.30029,45.7908,75.971],[20.2866,45.78935,76.5648],[20.27905,45.78811,76.535],[20.26691,45.78697,76.9284],[20.25476,45.78527,76.216],[20.24696,45.78501,75.9267],[20.23099,45.78506,75.3775],[20.22303,45.78516,75.3467],[20.21523,45.78558,76.6464],[20.20304,45.78739,76.6287],[20.18138,45.78842,75.5636],[20.17678,45.78894,75.6117],[20.17286,45.78966,75.7641],[20.1648,45.79178,76.1106],[20.15932,45.78832,75.9749],[20.15735,45.78695,76.7948],[20.14526,45.7801,70.0],[20.14666,45.76517,70.0],[20.15374,45.7553,72.037],[20.16169,45.74909,77.8876],[20.16216,45.74253,79.5092],[20.14666,45.73163,74.7803],[20.13493,45.72811,74.577],[20.11415,45.72429,74.5331],[20.1033,45.72227,74.9181],[20.09203,45.71736,81.089],[20.09994,45.69517,70.0],[20.1049,45.67463,75.4876],[20.10191,45.65313,76.563],[20.08583,45.62796,75.0299],[20.06413,45.61029,70.0],[20.06294,45.60342,75.9435],[20.08211,45.60068,75.205],[20.11126,45.60195,77.0248],[20.12175,45.59825,77.086],[20.12619,45.58701,75.0554],[20.12201,45.58156,76.872],[20.1126,45.57425,74.216],[20.10315,45.56386,81.4406],[20.09886,45.54916,83.5333],[20.10304,45.53758,76.3127],[20.11296,45.5272,74.2364],[20.2065,45.46565,78.5085],[20.2298,45.44301,75.9678],[20.2019,45.39521,76.1288],[20.2143,45.37961,86.5912],[20.2483,45.35558,71.8297],[20.26396,45.34059,73.6475],[20.25363,45.33416,73.6739],[20.24706,45.32468,72.8801],[20.242,45.31457,75.8323],[20.23606,45.30643,76.6787],[20.25239,45.287,73.9503],[20.30143,45.25853,72.5],[20.31176,45.23414,75.1455],[20.31858,45.20923,79.0276],[20.31652,45.19569,74.9935],[20.28882,45.18368,72.5731],[20.28365,45.16954,73.1088],[20.28148,45.15363,70.0],[20.27781,45.14102,73.4625],[20.28949,45.13223,72.5784],[20.339,45.08035,72.3438],[20.33901,45.08034,72.3438],[20.35156,45.08207,74.6551],[20.35957,45.08173,72.6962],[20.36345,45.08106,72.52],[20.36779,45.07971,72.346],[20.37265,45.0778,71.8337],[20.37595,45.0762,71.8934],[20.38469,45.07119,71.737],[20.39378,45.06672,71.5894],[20.39517,45.06515,71.6493],[20.39517,45.06516,71.6493],[20.4009,45.07472,71.426],[20.40886,45.08001,71.3872],[20.41362,45.08464,72.3781],[20.42049,45.08779,72.3354],[20.42271,45.08944,70.6206],[20.43207,45.09926,72.2731],[20.43346,45.10133,72.4136],[20.43424,45.1034,72.2547],[20.43455,45.10544,72.0674],[20.43455,45.10738,72.1633],[20.43387,45.10944,71.7586],[20.43108,45.11229,72.3868],[20.42995,45.11384,71.915],[20.43,45.11567,71.9601],[20.43186,45.11818,71.7174],[20.4362,45.12203,71.8611],[20.43837,45.12334,72.057],[20.44023,45.12409,72.06],[20.44721,45.12588,72.3927],[20.44917,45.1266,71.137],[20.4517,45.12802,70.5452],[20.45418,45.13027,76.7244],[20.45532,45.13203,73.5259],[20.4561,45.1342,72.462],[20.45584,45.13626,72.2592],[20.45444,45.13802,74.9401],[20.44948,45.14241,72.7379],[20.44431,45.14815,73.1494],[20.44323,45.14998,73.3973],[20.44318,45.15084,72.9986],[20.44421,45.15311,72.2447],[20.44633,45.15546,73.4912],[20.45486,45.16339,73.0548],[20.45687,45.16587,72.4552],[20.45904,45.1697,72.1959],[20.46276,45.17549,74.0376],[20.46566,45.17939,73.3232],[20.47516,45.18866,81.1621],[20.47692,45.19104,73.3189],[20.47945,45.19776,73.2022],[20.48054,45.19983,74.0793],[20.48209,45.20148,79.7966],[20.48395,45.20272,79.141],[20.48612,45.20355,78.1612],[20.48788,45.20378,80.1028],[20.48963,45.20355,71.5672],[20.4918,45.20256,73.0257],[20.49279,45.20143,74.0716],[20.49335,45.20008,73.1818],[20.49403,45.19548,72.9511],[20.49485,45.19404,73.1533],[20.49604,45.1928,72.9418],[20.49769,45.19192,72.8169],[20.49971,45.19132,72.9815],[20.50255,45.19104,73.2011],[20.50545,45.19125,73.4201],[20.50762,45.19171,72.8804],[20.50968,45.19244,72.8884],[20.5134,45.19435,75.2884],[20.51692,45.19564,72.5373],[20.51888,45.19585,72.6932],[20.5209,45.19569,72.7558],[20.52374,45.19481,72.5659],[20.53237,45.18959,73.7927],[20.53661,45.1882,75.8129],[20.53986,45.18797,75.8752],[20.54265,45.18866,75.6487],[20.54508,45.19016,76.4421],[20.54725,45.19202,76.3438],[20.55056,45.19548,73.2633],[20.55175,45.19734,73.4695],[20.55356,45.20406,74.8972],[20.55738,45.21176,73.4838],[20.55857,45.21373,76.5241],[20.56028,45.21543,73.2231],[20.56374,45.21714,73.0241],[20.56751,45.21838,73.2859],[20.5734,45.21918,77.0277],[20.57552,45.21923,74.0396],[20.57841,45.21895,70.3901],[20.58141,45.21809,71.6965],[20.59505,45.21282,74.5115],[20.59867,45.21212,75.2766],[20.60249,45.21174,73.1032],[20.61407,45.21099,72.5683],[20.61774,45.21047,78.6276],[20.62482,45.20846,80.1699],[20.63856,45.20355,79.9948],[20.64725,45.20008,80.156],[20.65314,45.19693,79.6975],[20.65918,45.19228,81.7339],[20.66223,45.19055,83.2994],[20.68094,45.1822,105.0704],[20.68347,45.182,107.2201],[20.68631,45.18102,107.8918],[20.68864,45.17936,109.788],[20.6906,45.17729,111.1821],[20.69531,45.17145,117.0269],[20.70554,45.16096,121.4721],[20.71282,45.15528,123.5043],[20.71443,45.15422,123.0959],[20.7168,45.15321,122.6942],[20.71872,45.15306,122.9796],[20.72068,45.15332,122.7851],[20.72244,45.15388,123.2705],[20.72595,45.15559,125.1474],[20.72755,45.15678,127.2479],[20.72879,45.15817,125.6808],[20.72972,45.15978,125.2586],[20.73251,45.16877,123.9955],[20.73561,45.17461,124.3915],[20.73618,45.17673,123.8649],[20.73634,45.18158,119.621],[20.73685,45.18308,119.2245],[20.73778,45.18443,117.3753],[20.73913,45.18567,118.263],[20.74393,45.18882,116.6151],[20.74657,45.19021,117.3339],[20.74838,45.19094,117.4913],[20.75044,45.19143,116.3178],[20.75742,45.19249,112.2468],[20.75933,45.19306,112.1196],[20.76311,45.19471,109.0734],[20.76486,45.19582,106.1536],[20.76631,45.19714,103.7271],[20.77034,45.20246,99.7771],[20.7723,45.20411,95.7743],[20.77411,45.20499,95.5662],[20.78223,45.20701,93.7541],[20.79664,45.20985,88.5873],[20.8,45.2115,84.8177],[20.80476,45.21476,82.0395],[20.80641,45.21616,81.2146],[20.80941,45.21962,79.8511],[20.8123,45.22225,78.388],[20.82419,45.23078,77.5358],[20.82801,45.23295,77.4928],[20.843,45.23918,77.0604],[20.82997,45.24613,75.5],[20.81799,45.25316,77.5881],[20.81685,45.25429,78.4105],[20.81623,45.25543,77.8993],[20.81633,45.25675,77.8993],[20.81716,45.25796,78.0558],[20.81933,45.25938,78.064],[20.82222,45.26044,78.0095],[20.83866,45.26421,75.5],[20.84563,45.26654,76.939],[20.84822,45.26768,75.9777],[20.85757,45.27228,75.5398],[20.86858,45.27868,76.1641],[20.88217,45.28587,76.5514],[20.90335,45.29667,77.1265],[20.90816,45.29884,78.3816],[20.91457,45.30096,75.6523],[20.91808,45.3015,77.3862],[20.9218,45.30173,77.0044],[20.93694,45.30199,75.6575],[20.94061,45.30222,75.7787],[20.94418,45.30271,75.0146],[20.9555,45.30561,75.6621],[20.95927,45.30612,75.5064],[20.96718,45.30628,75.4088],[20.9711,45.30602,75.4632],[20.97488,45.3054,75.5317],[20.98314,45.30307,75.6574],[20.98619,45.30292,75.5737],[21.00686,45.30568,75.3716],[21.00795,45.30705,75.3716],[21.01374,45.31315,76.2796],[21.01642,45.3207,76.0074],[21.01667,45.32148,76.0074],[20.98149,45.33279,77.4213],[20.96619,45.34157,77.5402],[20.92764,45.37749,77.4448],[20.86305,45.41873,78.4239],[20.83039,45.45252,77.5489],[20.81602,45.46286,78.1133],[20.79948,45.46854,78.6475],[20.7816,45.47257,77.3406],[20.76714,45.47934,77.6064],[20.76073,45.49335,77.7038],[20.78315,45.50606,77.7966],[20.79762,45.5165,78.6057],[20.80021,45.5305,76.689],[20.78739,45.55365,77.9131],[20.75804,45.58926,77.2515],[20.75442,45.60559,78.1138],[20.76217,45.6306,76.2163],[20.77323,45.64889,77.0322],[20.77726,45.65752,78.1256],[20.77995,45.67168,77.3632],[20.77912,45.72367,78.2008],[20.7816,45.73395,80.8312],[20.78553,45.74341,79.525],[20.78574,45.75256,79.4889],[20.77747,45.76232,79.3641],[20.76517,45.76677,78.2659],[20.75411,45.76356,78.5556],[20.74533,45.75499,78.0859],[20.73944,45.74341,78.3713],[20.72683,45.73618,77.4549],[20.71339,45.73333,77.1426]]]}
,"properties": {"ISO3166-1-Alpha-3": "SRB","country": "Republic of Serbia","fill": "#F00","name": "Srednje-Banatski","area_km2": 3111.004,"hist_schema_id": "Elevation0-9000","hist_area_km2": {"50": 0.045,"75": 3061.115,"100": 37.528,"125": 12.315}}}