{"type": "Feature","id": "275","bbox": [19.76492,45.59841,20.64451,46.16354],"geometry": {"type": "Polygon","coordinates": [[[20.03498,46.14297,78.2443],[19.99313,46.15941,75.8348],[19.92915,46.16354,88.2677],[19.88895,46.15739,95.4713],[19.87365,46.15299,98.9718],[19.8751,46.15217,99.2148],[19.8767,46.15083,99.6626],[19.87913,46.14798,105.5416],[19.8799,46.14654,107.6126],[19.88037,46.14442,102.5383],[19.88016,46.1423,96.5728],[19.87773,46.13729,96.2587],[19.8751,46.13432,95.7356],[19.86895,46.13052,96.9326],[19.85954,46.12561,101.1062],[19.85691,46.12401,101.451],[19.85458,46.1222,101.0993],[19.85231,46.11951,99.9242],[19.85153,46.11739,101.0049],[19.85143,46.11517,100.6225],[19.85174,46.11295,99.9948],[19.85489,46.10292,97.3738],[19.85587,46.10073,96.5836],[19.85934,46.09491,103.1183],[19.8598,46.09279,103.2756],[19.8597,46.09068,102.5657],[19.8582,46.08633,102.3087],[19.85789,46.08416,101.3427],[19.85804,46.07698,101.6108],[19.85748,46.07135,100.3805],[19.85649,46.06869,99.2636],[19.84988,46.06021,100.8447],[19.84885,46.05745,101.2174],[19.8475,46.05171,101.8556],[19.84637,46.04902,102.6393],[19.84399,46.04639,100.3918],[19.84166,46.04463,102.8866],[19.83903,46.04318,105.2497],[19.8305,46.03998,104.8637],[19.82787,46.03843,104.6275],[19.82497,46.03611,104.0482],[19.8212,46.03238,105.9799],[19.81825,46.02872,105.7932],[19.81577,46.02461,105.7648],[19.81422,46.0228,104.1456],[19.8088,46.01758,104.6789],[19.80792,46.01631,106.1747],[19.80756,46.01538,107.9505],[19.80663,46.00975,107.0989],[19.80291,46.00394,108.3261],[19.80249,46.00205,107.886],[19.8026,45.99717,107.5205],[19.80213,45.99507,107.2665],[19.79939,45.98949,105.781],[19.79918,45.98743,105.7045],[19.8013,45.9757,106.6361],[19.80322,45.96962,106.3731],[19.80394,45.96495,105.4139],[19.80378,45.96252,106.1556],[19.80327,45.96019,105.8514],[19.79975,45.95125,106.2115],[19.79955,45.94846,106.31],[19.80032,45.94174,106.2181],[19.80234,45.93859,106.7822],[19.80363,45.93601,106.4412],[19.80616,45.92872,106.3824],[19.8075,45.92552,106.3311],[19.80781,45.9233,106.7226],[19.8073,45.92128,107.7392],[19.80657,45.92035,106.2209],[19.80559,45.91957,106.2209],[19.80316,45.91864,105.9587],[19.79758,45.91715,105.6193],[19.7949,45.9157,106.4618],[19.7888,45.91195,104.0338],[19.78456,45.91027,103.426],[19.7782,45.90733,104.9052],[19.77195,45.90487,94.6323],[19.76492,45.90244,103.0844],[19.7858,45.88082,99.7706],[19.79241,45.87317,96.9367],[19.79376,45.87121,103.1288],[19.79624,45.86454,107.4884],[19.79727,45.86237,102.93],[19.79908,45.8601,106.1793],[19.80559,45.85376,103.5302],[19.80699,45.85157,103.3053],[19.80735,45.84955,106.8079],[19.80637,45.84196,104.8894],[19.80663,45.83723,102.197],[19.80725,45.83495,104.2739],[19.80797,45.83343,102.9896],[19.80978,45.83054,103.0085],[19.81092,45.82919,101.5698],[19.81319,45.82775,97.0217],[19.81536,45.82723,98.2531],[19.81784,45.82707,94.846],[19.82394,45.82707,92.5664],[19.83458,45.8279,100.5894],[19.84518,45.80785,98.6277],[19.84885,45.80338,99.7597],[19.85505,45.79814,97.2701],[19.85613,45.79661,96.6649],[19.85675,45.79498,96.7687],[19.8568,45.79281,94.6309],[19.85556,45.78739,94.4069],[19.85562,45.78498,89.061],[19.85618,45.78253,88.0283],[19.85959,45.77571,95.1631],[19.86063,45.77222,94.9633],[19.87474,45.77292,88.3474],[19.87892,45.77333,96.9435],[19.88554,45.77452,95.1125],[19.89318,45.77516,99.3652],[19.90486,45.77519,93.998],[19.91236,45.77473,95.1949],[19.91592,45.77416,94.3724],[19.92739,45.77108,93.9454],[19.93106,45.77051,92.5886],[19.94662,45.76956,90.4729],[19.95029,45.76899,89.5915],[19.96171,45.76591,88.1696],[19.97122,45.76418,88.615],[19.97597,45.76274,88.2161],[19.98755,45.75692,88.5799],[19.99235,45.75555,88.2246],[19.99618,45.75506,88.4803],[20.00413,45.75473,87.6574],[20.05255,45.75444,80.7312],[20.06025,45.75375,80.7421],[20.0709,45.75176,79.7425],[20.07395,45.75106,79.9382],[20.07808,45.74961,79.9145],[20.08253,45.7477,79.4535],[20.08527,45.7461,79.5803],[20.08935,45.74305,79.6112],[20.09452,45.73804,79.583],[20.09886,45.73462,79.815],[20.10428,45.73116,79.595],[20.11105,45.72755,74.7823],[20.11255,45.7262,74.5294],[20.11415,45.72429,74.5331],[20.13493,45.72811,74.577],[20.14666,45.73163,74.7803],[20.16216,45.74253,79.5092],[20.16169,45.74909,77.8876],[20.15374,45.7553,72.037],[20.14666,45.76517,70.0],[20.14526,45.7801,70.0],[20.15735,45.78695,76.7948],[20.15932,45.78832,75.9749],[20.1648,45.79178,76.1106],[20.17286,45.78966,75.7641],[20.17678,45.78894,75.6117],[20.18138,45.78842,75.5636],[20.20304,45.78739,76.6287],[20.21523,45.78558,76.6464],[20.22303,45.78516,75.3467],[20.23099,45.78506,75.3775],[20.24696,45.78501,75.9267],[20.25476,45.78527,76.216],[20.26691,45.78697,76.9284],[20.27905,45.78811,76.535],[20.2866,45.78935,76.5648],[20.30029,45.7908,75.971],[20.30329,45.79075,75.5605],[20.30536,45.79044,75.3878],[20.31337,45.78894,79.2226],[20.31621,45.78816,78.6873],[20.32169,45.78599,77.827],[20.32442,45.78542,77.9688],[20.32572,45.78542,77.8185],[20.32876,45.78607,78.0791],[20.33507,45.78842,77.9474],[20.34081,45.78984,78.8738],[20.34463,45.79044,78.5381],[20.34644,45.79033,78.3382],[20.34799,45.78982,78.3382],[20.34959,45.78847,78.3908],[20.35062,45.78656,78.555],[20.35135,45.78382,78.8183],[20.35217,45.77793,78.3608],[20.353,45.77504,78.248],[20.35703,45.76672,78.2637],[20.35982,45.75767,78.0827],[20.36303,45.75281,78.2623],[20.36659,45.74837,77.9701],[20.37057,45.74052,77.3543],[20.37202,45.73866,78.29],[20.37781,45.73328,78.2244],[20.38091,45.7293,77.8235],[20.38184,45.72718,77.6234],[20.3839,45.72057,77.9617],[20.38535,45.71842,77.9087],[20.38742,45.71674,76.8475],[20.39005,45.71571,75.7684],[20.39134,45.7155,75.6724],[20.39832,45.71545,77.6145],[20.40132,45.71519,77.4978],[20.40571,45.71406,77.4318],[20.40793,45.7132,77.1562],[20.41155,45.71116,77.050299999999993],[20.41667,45.70739,77.3964],[20.42183,45.70408,77.2422],[20.42359,45.70246,76.9145],[20.42411,45.7007,76.8267],[20.42364,45.69964,76.8709],[20.42183,45.69799,76.4611],[20.41517,45.69357,77.4969],[20.41078,45.68982,77.4408],[20.40928,45.68775,77.37],[20.40855,45.68569,77.2632],[20.40866,45.68067,76.6394],[20.40824,45.67876,76.5443],[20.40685,45.6769,75.9168],[20.40447,45.67556,75.9844],[20.4024,45.67494,76.3245],[20.40013,45.67458,76.2859],[20.39708,45.67453,76.8031],[20.39414,45.67486,76.3967],[20.38897,45.67615,76.587],[20.38654,45.67649,77.0136],[20.38385,45.67618,77.2912],[20.38163,45.67509,77.4361],[20.37744,45.67062,77.8812],[20.37543,45.66954,77.0805],[20.37078,45.6676,78.2259],[20.36566,45.66378,77.7307],[20.36287,45.66238,77.9076],[20.35486,45.66024,76.1976],[20.35047,45.65923,74.9573],[20.34876,45.65985,76.1996],[20.34473,45.66223,75.8627],[20.3437,45.66512,78.0313],[20.34391,45.66807,76.6904],[20.34561,45.67055,77.4496],[20.34856,45.67328,75.6796],[20.34949,45.67752,77.9254],[20.34938,45.67941,77.8342],[20.34845,45.68042,78.2955],[20.34695,45.68024,77.5709],[20.33626,45.67499,77.3688],[20.33181,45.67049,74.857],[20.33099,45.66223,74.7611],[20.33621,45.65582,77.2191],[20.34344,45.65463,76.9181],[20.34918,45.65086,77.1975],[20.35279,45.64742,77.3353],[20.35481,45.64437,77.0803],[20.35527,45.64218,77.2905],[20.35476,45.64006,76.1033],[20.35388,45.63874,76.3747],[20.35259,45.63752,76.3747],[20.35011,45.63608,76.0542],[20.34804,45.63551,75.8138],[20.34566,45.6352,74.7852],[20.3359,45.63458,76.8567],[20.33367,45.63422,77.6636],[20.33187,45.63355,77.3616],[20.33011,45.63194,77.5874],[20.32902,45.62982,77.0451],[20.32706,45.62132,77.6346],[20.3251,45.61649,77.2276],[20.3236,45.6137,77.7968],[20.32954,45.61189,77.5177],[20.33951,45.61019,78.0657],[20.34137,45.60952,78.1077],[20.34251,45.60874,77.6763],[20.3469,45.60373,79.1515],[20.34845,45.60246,78.9697],[20.35135,45.60117,78.3671],[20.36024,45.59866,78.3149],[20.36235,45.59841,78.2094],[20.36458,45.59841,77.6773],[20.3668,45.59866,77.7599],[20.3715,45.59996,78.1897],[20.37817,45.60135,78.666],[20.39041,45.60492,77.8173],[20.39682,45.60652,77.9862],[20.40716,45.60776,76.765],[20.41295,45.60879,77.5941],[20.41537,45.60954,78.0157],[20.42338,45.61288,77.7783],[20.42824,45.61412,77.5995],[20.43191,45.61453,77.5423],[20.44343,45.61476,76.8521],[20.47062,45.61453,75.9237],[20.47826,45.61432,75.4291],[20.48204,45.61401,75.4848],[20.4856,45.61344,75.1756],[20.49718,45.61034,76.3222],[20.50038,45.60983,76.4561],[20.50379,45.60957,76.3782],[20.51098,45.60972,76.0327],[20.51645,45.61039,76.3281],[20.52911,45.61311,76.2493],[20.52333,45.61861,76.5349],[20.52095,45.62125,76.2174],[20.51909,45.62383,76.4903],[20.51697,45.62802,76.1064],[20.51594,45.62936,75.9829],[20.50896,45.63546,75.3264],[20.507,45.63892,75.0312],[20.50441,45.64548,75.3982],[20.4994,45.65168,75.1165],[20.49821,45.65378,75.1767],[20.4979,45.65579,75.1126],[20.49811,45.65721,75.6039],[20.49976,45.66285,76.2162],[20.50069,45.66481,75.8441],[20.50384,45.66951,76.2671],[20.50627,45.67628,75.4837],[20.50834,45.67881,76.2169],[20.51216,45.6816,75.7767],[20.52384,45.68662,76.6758],[20.52917,45.68866,76.5657],[20.53149,45.68992,76.4969],[20.5364,45.69416,76.1094],[20.54457,45.69912,76.1693],[20.55097,45.70403,76.1773],[20.55351,45.70543,76.1891],[20.55542,45.706,76.3562],[20.55754,45.70625,75.8671],[20.56053,45.70631,75.8149],[20.56353,45.70589,76.2976],[20.56766,45.70481,76.2981],[20.57759,45.70155,75.2776],[20.58182,45.70036,75.0659],[20.58492,45.69987,75.1259],[20.58813,45.69964,75.0637],[20.59459,45.69995,75.2909],[20.60311,45.70098,75.4799],[20.61128,45.70145,75.7605],[20.615,45.70189,76.0944],[20.61691,45.70233,77.6607],[20.61851,45.70302,77.8455],[20.61986,45.70445,76.8154],[20.62032,45.70625,75.9935],[20.61944,45.71191,75.9366],[20.61893,45.71793,75.7231],[20.61877,45.72411,76.3054],[20.61908,45.73013,76.8291],[20.6197,45.73305,76.3024],[20.62296,45.74289,76.0477],[20.62663,45.75018,75.8774],[20.62885,45.75292,77.3482],[20.6319,45.75566,77.5383],[20.64239,45.76157,76.6872],[20.64384,45.76325,76.9498],[20.64451,45.76527,76.9197],[20.64446,45.76734,77.2655],[20.64404,45.76878,76.8695],[20.64151,45.77462,77.3425],[20.63908,45.77777,78.1619],[20.63428,45.78155,79.8237],[20.63174,45.78395,78.6944],[20.63071,45.78589,79.3117],[20.63066,45.78713,79.7012],[20.63118,45.78819,79.7012],[20.63288,45.78925,79.6514],[20.63779,45.79111,79.8709],[20.64001,45.7923,79.7877],[20.64203,45.79374,79.5428],[20.64322,45.79488,80.3408],[20.64349,45.79514,80.3408],[20.64228,45.79834,80.2582],[20.64011,45.8187,78.8232],[20.6367,45.82702,80.3458],[20.62968,45.83328,79.5201],[20.61231,45.84149,78.8664],[20.60528,45.84614,79.2211],[20.57211,45.88769,80.6396],[20.55671,45.89844,80.3193],[20.538,45.90371,80.0778],[20.49986,45.90666,78.753],[20.48167,45.9127,79.5225],[20.42907,45.94671,78.3168],[20.41026,45.95559,78.3861],[20.37098,45.96779,77.1804],[20.35393,45.97668,77.4718],[20.33863,45.9928,78.3276],[20.31765,46.03859,79.2045],[20.30566,46.05357,78.1966],[20.24283,46.10809,77.7097],[20.18846,46.14039,79.3063],[20.17048,46.1455,80.0036],[20.14536,46.13708,80.6551],[20.13803,46.13646,81.0444],[20.13038,46.13936,81.2059],[20.12015,46.14923,82.3219],[20.11477,46.15222,82.102],[20.09844,46.15496,81.5626],[20.08862,46.15413,81.1108],[20.06341,46.1453,72.0],[20.03498,46.14297,78.2443]]]}
,"properties": {"ISO3166-1-Alpha-3": "SRB","country": "Republic of Serbia","fill": "#00F","name": "Severno-Banatski","area_km2": 2248.125,"hist_schema_id": "Elevation0-9000","hist_area_km2": {"50": 0.296,"75": 1734.969,"100": 512.831,"125": 0.029}}}