{"type": "Feature","bbox": [20.0218,45.0668,21.0238,45.8018],"geometry": {"type": "MultiPolygon","coordinates": [[[[20.3759,45.0762,71.8934],[20.3926,45.0673,72.2331],[20.4136,45.0846,72.3781],[20.4227,45.0894,70.6206],[20.432,45.0992,72.2731],[20.4345,45.1074,72.1633],[20.43,45.1157,71.9601],[20.4384,45.1234,72.057],[20.4517,45.128,70.5452],[20.4561,45.1342,72.462],[20.4545,45.138,74.9401],[20.4443,45.1482,73.1494],[20.4432,45.1508,72.9986],[20.4442,45.1531,72.2447],[20.4549,45.1634,73.0548],[20.4656,45.1794,73.3232],[20.4752,45.1887,81.1621],[20.4805,45.1998,74.0793],[20.4861,45.2036,78.1612],[20.4918,45.2026,73.0257],[20.4948,45.194,73.1533],[20.4977,45.1919,72.8169],[20.5054,45.1912,73.4201],[20.5169,45.1956,72.5373],[20.5209,45.1957,72.7558],[20.5324,45.1896,73.7927],[20.5399,45.188,75.8752],[20.5451,45.1902,76.4421],[20.5506,45.1955,73.2633],[20.5536,45.204,74.8972],[20.5603,45.2154,73.2447],[20.5675,45.2184,73.2859],[20.5784,45.2189,70.3901],[20.5951,45.2128,74.5115],[20.6177,45.2105,78.6276],[20.6472,45.2001,80.156],[20.6622,45.1906,83.2994],[20.6863,45.181,107.8918],[20.7055,45.1609,121.4721],[20.7144,45.1542,123.0959],[20.7207,45.1533,122.7851],[20.7259,45.1556,125.1474],[20.7297,45.1598,125.2586],[20.7356,45.1746,124.3915],[20.7368,45.1831,119.2245],[20.7391,45.1857,118.263],[20.7484,45.1909,117.4913],[20.7631,45.1947,109.0734],[20.7741,45.205,95.5662],[20.8,45.2115,84.8177],[20.8242,45.2308,77.5358],[20.843,45.2392,77.0604],[20.818,45.2532,77.5881],[20.8163,45.2567,77.8993],[20.8193,45.2594,78.064],[20.8456,45.2666,76.939],[20.9034,45.2967,77.1265],[20.9146,45.3009,75.6523],[20.9406,45.3022,75.7787],[20.9593,45.3061,75.5064],[20.9711,45.306,75.4632],[20.9862,45.3029,75.5737],[21.0069,45.3057,75.3716],[21.0138,45.3131,76.2796],[21.0164,45.3207,76.0074],[21.0228,45.321,75.8203],[21.0238,45.3255,77.1664],[21.0182,45.325,77.1864],[21.0115,45.3416,76.6051],[21.0011,45.342,76.7418],[20.9977,45.3436,76.4969],[20.989,45.3505,75.8762],[20.9833,45.3577,77.3649],[20.9708,45.3643,76.6497],[20.9619,45.3671,77.5089],[20.9524,45.3752,76.0551],[20.9499,45.386,76.8817],[20.9476,45.3841,76.5099],[20.9436,45.3868,76.3608],[20.9329,45.3871,77.8916],[20.9317,45.3927,78.9498],[20.9373,45.3931,79.8739],[20.9331,45.4024,76.111],[20.9299,45.4023,75.7102],[20.9296,45.4053,75.7641],[20.9257,45.4076,76.5819],[20.9218,45.4176,76.3757],[20.902,45.4172,76.4678],[20.8768,45.4263,77.4291],[20.8663,45.4321,76.3314],[20.8713,45.4334,77.6675],[20.8678,45.4351,75.1157],[20.8682,45.4364,76.5211],[20.8768,45.4392,76.3154],[20.8744,45.4462,77.722],[20.8825,45.4466,76.3268],[20.8791,45.4505,77.8158],[20.8803,45.455,75.9722],[20.872,45.4562,76.3529],[20.8741,45.4573,77.3929],[20.8678,45.4654,76.3929],[20.8629,45.4655,75.8996],[20.8345,45.4803,77.5437],[20.7727,45.4804,77.654],[20.7726,45.4884,77.7629],[20.7786,45.4911,77.6149],[20.7703,45.5006,77.5641],[20.8086,45.5162,77.7896],[20.8295,45.5344,77.9185],[20.8341,45.5362,77.0067],[20.8212,45.5507,76.7375],[20.8248,45.5522,77.1368],[20.8129,45.5661,77.0411],[20.8152,45.5684,77.3933],[20.7969,45.588,78.1086],[20.7736,45.5831,79.2649],[20.7672,45.613,78.7032],[20.7808,45.6229,78.6572],[20.7905,45.6461,76.6154],[20.8066,45.6575,77.728],[20.8016,45.6723,78.1766],[20.8046,45.6824,77.9786],[20.7977,45.6874,78.6349],[20.8041,45.7002,78.497],[20.8004,45.7026,78.4545],[20.8027,45.7023,78.304],[20.8043,45.7382,78.004],[20.8098,45.7488,78.4022],[20.8175,45.7496,78.5796],[20.8191,45.7524,78.6622],[20.8247,45.7754,79.476],[20.785,45.7862,79.2794],[20.7757,45.7549,78.6993],[20.7343,45.7562,79.0138],[20.7195,45.7523,77.7595],[20.7197,45.7498,77.5149],[20.7156,45.7493,77.6998],[20.7139,45.7512,78.2865],[20.7091,45.7517,78.4912],[20.7023,45.7508,78.3644],[20.6985,45.7608,76.9744],[20.6946,45.7602,78.6839],[20.6923,45.7666,78.7355],[20.6962,45.7673,77.8717],[20.6829,45.7976,77.6397],[20.6643,45.7944,78.7943],[20.6634,45.7965,79.2456],[20.6619,45.7943,79.0119],[20.6528,45.7969,78.6044],[20.6487,45.8018,79.0969],[20.642,45.7938,79.502],[20.6306,45.7871,79.7012],[20.6317,45.7839,78.6944],[20.6415,45.7746,77.3425],[20.6445,45.7653,76.9197],[20.6424,45.7616,76.6872],[20.6289,45.7529,77.3482],[20.623,45.7429,76.0477],[20.6191,45.7302,76.8291],[20.6203,45.7063,75.9935],[20.6185,45.703,77.8455],[20.5881,45.6997,75.0637],[20.5635,45.7059,76.2976],[20.5554,45.706,76.3562],[20.5315,45.6899,76.4969],[20.5122,45.6816,75.7767],[20.5063,45.6763,75.4837],[20.4998,45.6629,76.2162],[20.4982,45.6538,75.1767],[20.5044,45.6455,75.3982],[20.509,45.6355,75.3264],[20.516,45.6294,75.9829],[20.521,45.6212,76.2174],[20.5291,45.6131,76.2493],[20.5038,45.6096,76.3782],[20.4783,45.6143,75.4291],[20.4319,45.6145,77.5423],[20.413,45.6088,77.5941],[20.3968,45.6065,77.9862],[20.3624,45.5984,77.597],[20.3485,45.6025,78.9697],[20.3414,45.6095,78.1077],[20.3236,45.6137,77.7968],[20.3301,45.6319,77.5874],[20.3337,45.6342,77.6636],[20.3501,45.6361,76.0542],[20.3539,45.6387,76.3747],[20.3553,45.6422,77.2905],[20.3492,45.6508,77.1975],[20.3434,45.6546,76.9181],[20.3362,45.6558,77.2191],[20.331,45.6622,74.7611],[20.3318,45.6705,74.857],[20.3362,45.675,77.3688],[20.3485,45.6804,77.8342],[20.3495,45.6775,77.9254],[20.3485,45.6733,75.6796],[20.3439,45.6681,76.6904],[20.3437,45.6651,78.0313],[20.3447,45.6622,75.8627],[20.3505,45.6592,74.9573],[20.3657,45.6638,77.7307],[20.3838,45.6762,77.2912],[20.3971,45.6745,76.8031],[20.4045,45.6756,75.9844],[20.4083,45.6788,76.5443],[20.4086,45.6857,77.2632],[20.4108,45.6898,77.4408],[20.4241,45.7007,76.8267],[20.4218,45.7041,77.2422],[20.4079,45.7132,77.1562],[20.4013,45.7152,77.4978],[20.3901,45.7157,75.7684],[20.3854,45.7184,77.9087],[20.3809,45.7293,77.8235],[20.3706,45.7405,77.3543],[20.3599,45.7577,78.0827],[20.353,45.775,78.248],[20.3496,45.7885,78.3908],[20.3446,45.7904,78.3216],[20.3244,45.7854,78.3195],[20.3134,45.7889,79.2226],[20.3003,45.7908,75.971],[20.2548,45.7853,76.216],[20.223,45.7852,75.3467],[20.1768,45.7889,75.6117],[20.1648,45.7918,76.1106],[20.1377,45.7745,75.8519],[20.1341,45.7708,79.7846],[20.1376,45.7626,80.8396],[20.1503,45.7531,76.5338],[20.1557,45.746,75.6499],[20.1565,45.7391,75.3836],[20.1538,45.7338,75.4516],[20.1203,45.7171,74.6305],[20.1085,45.7155,75.08],[20.092,45.7171,81.089],[20.0879,45.7162,79.765],[20.0838,45.7125,80.2432],[20.0839,45.704,81.8408],[20.0759,45.6858,74.8136],[20.0866,45.6737,74.2269],[20.0962,45.6663,74.7948],[20.0978,45.6629,74.9531],[20.0961,45.66,75.2503],[20.0856,45.6568,74.8618],[20.0685,45.6545,74.4525],[20.051,45.6576,73.7615],[20.0441,45.6568,74.3409],[20.0334,45.6523,80.0774],[20.0218,45.6416,79.916],[20.0218,45.6356,80.7133],[20.0292,45.6313,81.3933],[20.0577,45.6282,75.7372],[20.067,45.6231,76.355],[20.0671,45.6206,76.1769],[20.0642,45.6182,76.956],[20.0472,45.613,82.2169],[20.0428,45.609,81.0657],[20.0427,45.6054,81.3094],[20.0459,45.598,76.6558],[20.0531,45.5912,75.0126],[20.0629,45.5879,75.1883],[20.0768,45.5863,81.9161],[20.102,45.5959,73.8732],[20.1103,45.5969,70.0],[20.117,45.5945,73.1924],[20.1208,45.5879,73.9854],[20.1196,45.5838,74.0699],[20.1163,45.581,73.9151],[20.1085,45.5774,74.6167],[20.0925,45.5733,74.2447],[20.0784,45.5644,73.72],[20.0639,45.5603,74.8279],[20.0471,45.5577,74.7429],[20.0434,45.5556,75.0559],[20.0395,45.5489,73.8981],[20.0392,45.5444,74.5947],[20.0492,45.5358,73.767],[20.0514,45.5295,73.4269],[20.0435,45.511,73.3281],[20.0422,45.499,78.6389],[20.0372,45.4876,78.7488],[20.038,45.4815,79.5267],[20.0417,45.4793,79.9528],[20.0479,45.4802,74.2197],[20.0593,45.4888,74.5794],[20.0745,45.4955,73.6695],[20.0762,45.5007,73.3136],[20.0724,45.5076,73.218],[20.0727,45.5109,73.5379],[20.0763,45.5148,73.4561],[20.0835,45.5168,74.5081],[20.0934,45.5164,74.1689],[20.1013,45.5136,73.4857],[20.1304,45.4941,74.6889],[20.1468,45.4738,72.8859],[20.1563,45.4678,73.8273],[20.1577,45.4646,73.618],[20.1312,45.4537,73.3292],[20.0945,45.4419,73.292],[20.0921,45.4364,73.217],[20.0945,45.4291,73.2434],[20.0974,45.426,73.6945],[20.1053,45.4225,73.775],[20.1447,45.4146,73.0545],[20.1593,45.4184,72.433],[20.1757,45.4174,72.8372],[20.1851,45.4257,72.9009],[20.1948,45.4294,72.8976],[20.2039,45.4271,72.8607],[20.2072,45.4201,72.7978],[20.2057,45.4068,72.516],[20.2145,45.3989,77.8151],[20.2108,45.3949,75.2539],[20.195,45.3863,75.0841],[20.1904,45.381,73.3146],[20.1898,45.3775,73.4443],[20.1935,45.3742,73.295],[20.2063,45.3696,77.2711],[20.2064,45.3651,73.0221],[20.2001,45.3553,74.6464],[20.2126,45.3465,71.6808],[20.198,45.3381,73.1232],[20.1952,45.3329,72.7904],[20.1958,45.3286,72.5603],[20.2019,45.3241,72.0939],[20.213,45.3242,72.8655],[20.2258,45.335,73.5997],[20.2325,45.337,71.552],[20.2469,45.3323,72.8522],[20.2532,45.3258,76.7928],[20.2542,45.3217,84.3025],[20.2518,45.3187,83.8791],[20.2385,45.3143,73.2288],[20.2375,45.3124,77.6416],[20.2525,45.3047,77.2161],[20.2535,45.3011,73.9128],[20.2489,45.2992,73.1457],[20.2254,45.2961,72.7981],[20.2221,45.2936,72.1458],[20.2215,45.2905,76.3416],[20.2327,45.2762,119.8485],[20.2484,45.2714,122.3734],[20.2542,45.268,121.8783],[20.2828,45.2293,117.2504],[20.2875,45.2201,117.8409],[20.288,45.2118,94.3101],[20.286,45.2049,89.1322],[20.27,45.1949,72.1793],[20.2658,45.1904,71.5018],[20.2603,45.1633,72.381],[20.2561,45.1526,75.9719],[20.2582,45.1457,70.5],[20.2691,45.1286,99.177],[20.2677,45.124,140.315],[20.2635,45.1199,133.2516],[20.2654,45.1122,128.3505],[20.2783,45.0952,114.0677],[20.2777,45.0823,104.4909],[20.2962,45.0784,104.0297],[20.312,45.0683,102.9188],[20.3171,45.0668,105.3306],[20.3287,45.0706,108.1621],[20.3397,45.0797,72.3438],[20.3439,45.0813,73.5082],[20.3596,45.0817,72.6962],[20.3759,45.0762,71.8934]]]]}
,"properties": {"GID_1": "SRB.19_1","GID_0": "SRB","country": "Serbia","province": "Srednje-Banatski","VARNAME_1": "CentralBanat","NL_NAME_1": "Средњебанатски","TYPE_1": "Okrug","ENGTYPE_1": "District","CC_1": "NA","HASC_1": "RS.SD","ISO_1": "NA","name": "Srednje-Banatski.province","area_km2": 3454.077,"hist_schema_id": "Elevation0-9000","hist_area_km2": {"50": 0.045,"75": 3377.708,"100": 46.056,"125": 29.865,"150": 0.404}}}