{"type": "Feature","bbox": [20.4591,44.9597,20.8207,45.2192],"geometry": {"type": "MultiPolygon","coordinates": [[[[20.7966,45.2099,88.5873],[20.7741,45.205,95.5662],[20.7631,45.1947,109.0734],[20.7484,45.1909,117.4913],[20.7391,45.1857,118.263],[20.7368,45.1831,119.2245],[20.7356,45.1746,124.3915],[20.7288,45.1582,125.6808],[20.7259,45.1556,125.1474],[20.7187,45.1531,122.9796],[20.7144,45.1542,123.0959],[20.7055,45.1609,121.4721],[20.6863,45.181,107.8918],[20.6622,45.1906,83.2994],[20.6472,45.2001,80.156],[20.6177,45.2105,78.6276],[20.5951,45.2128,74.5115],[20.5755,45.2192,74.0396],[20.5675,45.2184,73.2859],[20.5603,45.2154,73.2447],[20.5536,45.204,74.8972],[20.5506,45.1955,73.2633],[20.5451,45.1902,76.4421],[20.5399,45.188,75.8752],[20.5324,45.1896,73.7927],[20.5209,45.1957,72.7558],[20.5169,45.1956,72.5373],[20.5054,45.1912,73.4201],[20.4997,45.1913,72.9815],[20.4948,45.194,73.1533],[20.4918,45.2026,73.0257],[20.4879,45.2038,80.1028],[20.484,45.2028,79.141],[20.4805,45.1998,74.0793],[20.4752,45.1887,81.1621],[20.4656,45.1794,73.3232],[20.4591,45.1697,72.1959],[20.4869,45.1595,77.6809],[20.5039,45.1505,79.4846],[20.533,45.1323,77.9148],[20.5803,45.0986,80.1444],[20.5871,45.0922,79.9154],[20.5884,45.0854,79.4521],[20.5871,45.081,79.8915],[20.5653,45.0611,78.803],[20.5571,45.0474,77.5882],[20.5561,45.0422,76.2117],[20.5709,45.0231,77.0805],[20.5846,45.016,77.6319],[20.6002,44.9843,77.5482],[20.6074,44.9758,76.6233],[20.6077,44.9643,75.2556],[20.6121,44.9599,74.9583],[20.6156,44.9597,75.2105],[20.6274,44.9632,75.2932],[20.6449,44.9655,78.0992],[20.6827,44.9791,79.0355],[20.6947,44.9817,80.2005],[20.6969,44.9841,78.9111],[20.6942,44.9932,79.5937],[20.6859,45.0038,79.3733],[20.6895,45.0095,79.1165],[20.6995,45.0152,81.9437],[20.7193,45.0209,91.8504],[20.7309,45.0282,96.0687],[20.7422,45.0321,102.0716],[20.7463,45.0317,102.591],[20.7614,45.0236,107.5072],[20.7716,45.029,116.7045],[20.7804,45.0372,124.6191],[20.7817,45.0414,127.7835],[20.7797,45.0504,126.0355],[20.7837,45.0579,131.2209],[20.7842,45.067,129.677],[20.79,45.0814,130.1175],[20.7959,45.0908,132.8079],[20.8097,45.1034,129.8864],[20.8207,45.1253,124.945],[20.8175,45.1291,125.7334],[20.8033,45.1323,127.8244],[20.7931,45.1481,124.8474],[20.7696,45.1605,124.7802],[20.7661,45.1646,124.928],[20.7674,45.1706,122.9797],[20.7966,45.2099,88.5873]]]]}
,"properties": {"GID_2": "SRB.6.3_1","GID_0": "SRB","country": "Serbia","GID_1": "SRB.6_1","province": "Južno-Banatski","NL_NAME_1": "Јужнобанатски","county": "Kovačica","VARNAME_2": "Antalfalva|Covăciţa","NL_NAME_2": "Ковачица","TYPE_2": "Opštine","ENGTYPE_2": "Town|Municipal","CC_2": "NA","HASC_2": "NA","name": "Kovačica.county","area_km2": 421.0724,"hist_schema_id": "Elevation0-9000","hist_area_km2": {"75": 238.6725,"100": 86.1395,"125": 96.2605}}}