{"type": "Feature","bbox": [19.226,44.0902,19.6182,44.3305],"geometry": {"type": "MultiPolygon","coordinates": [[[[19.5094,44.0902,206.3424],[19.5296,44.095,322.585],[19.5429,44.1113,639.9355],[19.548,44.1147,700.9529],[19.5738,44.1216,959.2059],[19.5958,44.118,1001.8436],[19.605,44.1199,993.6573],[19.6093,44.1233,823.7963],[19.6176,44.1354,824.1516],[19.6182,44.1437,893.0529],[19.6114,44.1468,894.2421],[19.6026,44.1585,840.2903],[19.5953,44.1651,846.325],[19.5806,44.1705,898.4156],[19.575,44.185,1078.9741],[19.5767,44.1893,1144.13],[19.5614,44.2064,970.498],[19.5563,44.2098,982.4991],[19.544,44.2137,898.1646],[19.5299,44.2217,949.8933],[19.5143,44.2217,712.6818],[19.5055,44.2248,495.7861],[19.4932,44.2322,475.0577],[19.4642,44.2365,388.0913],[19.447,44.2422,598.1324],[19.4257,44.2541,626.6133],[19.3917,44.2524,324.1606],[19.3822,44.2641,327.7548],[19.3841,44.2721,360.5701],[19.3835,44.2758,373.476],[19.3694,44.2897,604.2966],[19.3643,44.3026,588.9872],[19.3549,44.309,515.6174],[19.3326,44.3167,629.4238],[19.3137,44.3283,818.299],[19.2973,44.3305,873.1453],[19.2502,44.3297,620.0278],[19.2359,44.3113,673.96],[19.2292,44.2967,537.6536],[19.226,44.2846,240.2876],[19.2268,44.2812,221.6594],[19.2303,44.2774,275.3731],[19.2332,44.2753,277.3723],[19.2428,44.2757,187.5036],[19.27,44.2829,448.2644],[19.2836,44.2822,219.0455],[19.2924,44.2788,244.4755],[19.3133,44.279,350.9638],[19.323,44.268,163.9515],[19.3307,44.2561,165.2572],[19.3387,44.2481,166.2077],[19.3399,44.2366,169.1817],[19.3375,44.227,355.3824],[19.3459,44.2182,171.5696],[19.3518,44.1978,170.5892],[19.3651,44.1898,282.3796],[19.3917,44.1782,174.9438],[19.4017,44.1705,171.4236],[19.4195,44.153,179.9834],[19.4286,44.1476,194.0574],[19.4407,44.1462,247.0986],[19.4558,44.1481,301.485],[19.4656,44.1516,275.8269],[19.4685,44.1444,195.3969],[19.4687,44.136,281.5566],[19.4721,44.128,190.0732],[19.4826,44.1198,198.3616],[19.4982,44.0998,195.8046],[19.5094,44.0902,206.3424]]]]}
,"properties": {"GID_2": "SRB.8.4_1","GID_0": "SRB","country": "Serbia","GID_1": "SRB.8_1","province": "Mačvanski","NL_NAME_1": "Мачвански","county": "Ljubovija","VARNAME_2": "NA","NL_NAME_2": "Љубовија","TYPE_2": "Opštine","ENGTYPE_2": "Town|Municipal","CC_2": "NA","HASC_2": "NA","name": "Ljubovija.county","area_km2": 278.5018,"hist_schema_id": "Elevation0-9000","hist_area_km2": {"150": 0.4404,"175": 11.6427,"200": 6.7369,"225": 6.6884,"250": 8.2371,"275": 9.3317,"300": 11.1698,"325": 11.1388,"350": 12.2778,"375": 12.3689,"400": 12.6874,"425": 12.8995,"450": 13.3859,"475": 12.671,"500": 12.428,"525": 11.9115,"550": 10.3778,"575": 9.5119,"600": 8.7517,"625": 7.6583,"650": 6.7779,"675": 6.3533,"700": 5.5026,"725": 4.895,"750": 4.6815,"775": 4.9865,"800": 5.0174,"825": 5.5498,"850": 5.626,"875": 5.7328,"900": 5.6113,"925": 4.4106,"950": 2.3579,"975": 2.5099,"1000": 1.4755,"1025": 0.9582,"1050": 0.5779,"1075": 0.5019,"1100": 0.3953,"1125": 0.2737,"1150": 0.4104,"1175": 0.5321,"1200": 0.4104,"1225": 0.4256,"1250": 0.1824,"1275": 0.0304}}}