{"type": "Feature","bbox": [22.2008,42.8688,22.6538,43.16],"geometry": {"type": "MultiPolygon","coordinates": [[[[22.6017,42.8755,1041.6177],[22.6471,42.9056,774.8468],[22.6538,42.9156,769.365],[22.6527,42.9237,877.2092],[22.6388,42.9327,773.3423],[22.6208,42.9357,576.991],[22.6065,42.9422,628.9087],[22.6004,42.9468,708.8834],[22.5946,42.9549,625.4191],[22.5814,42.9628,743.3864],[22.5717,42.9725,819.8456],[22.5486,42.9781,988.8268],[22.5458,42.9866,949.4725],[22.5324,42.9999,911.1149],[22.5275,43.0086,1088.1277],[22.5281,43.0115,1119.2322],[22.538,43.0208,972.8675],[22.5392,43.0269,946.6994],[22.5377,43.0313,885.6771],[22.5269,43.0376,943.8539],[22.5114,43.0517,1029.5063],[22.508,43.0558,985.2259],[22.5056,43.0628,964.0549],[22.4892,43.0686,909.1287],[22.4752,43.0813,757.1111],[22.4762,43.084,774.3528],[22.4845,43.091,701.2462],[22.4867,43.1027,835.4803],[22.486,43.1096,622.9974],[22.4802,43.1227,518.1805],[22.4789,43.1305,466.7085],[22.4736,43.1316,557.3058],[22.4631,43.1295,588.0211],[22.4462,43.129,692.1945],[22.4393,43.1303,673.5416],[22.4296,43.1382,714.8427],[22.4231,43.152,809.3458],[22.415,43.16,941.0878],[22.3943,43.1424,964.3486],[22.3923,43.1378,908.3527],[22.3929,43.1297,869.6182],[22.3842,43.1225,685.0698],[22.326,43.101,922.29],[22.2956,43.1099,1387.5875],[22.2408,43.0879,714.3387],[22.2367,43.0835,681.9093],[22.234,43.074,604.302],[22.257,43.0585,835.4355],[22.2578,43.0552,833.6364],[22.243,43.0437,514.2246],[22.2225,43.0363,442.3177],[22.216,43.0302,438.8994],[22.2011,43.0206,486.7084],[22.2008,43.0169,633.3179],[22.2071,43.0117,755.4357],[22.2179,43.0067,594.0283],[22.2423,43.0022,685.5369],[22.2583,42.9918,583.5094],[22.2637,42.991,553.6415],[22.2773,42.9926,395.8677],[22.2891,42.991,591.0809],[22.3185,42.9805,673.2866],[22.3427,42.9692,672.3411],[22.3613,42.9682,791.101],[22.39,42.956,803.15],[22.4007,42.9464,929.9793],[22.4014,42.9426,893.4422],[22.3983,42.939,806.7313],[22.3883,42.9345,679.8363],[22.3592,42.9296,826.1871],[22.3774,42.9188,766.0919],[22.3948,42.9119,1096.9314],[22.4012,42.9028,1170.4596],[22.4138,42.8932,1224.4253],[22.4358,42.884,1138.6198],[22.4654,42.8781,1024.9435],[22.5002,42.8799,1164.3961],[22.523,42.8747,1300.0148],[22.5675,42.8688,1502.5623],[22.5696,42.8718,1543.4922],[22.5761,42.871,1565.1863],[22.5824,42.8743,1344.9631],[22.5879,42.8707,1390.9185],[22.6017,42.8755,1041.6177]]]]}
,"properties": {"GID_2": "SRB.12.1_1","GID_0": "SRB","country": "Serbia","GID_1": "SRB.12_1","province": "Pirotski","NL_NAME_1": "Пиротски","county": "Babušnica","VARNAME_2": "NA","NL_NAME_2": "Бабушница","TYPE_2": "Opštine","ENGTYPE_2": "Town|Municipal","CC_2": "NA","HASC_2": "NA","name": "Babušnica.county","area_km2": 552.4909,"hist_schema_id": "Elevation0-9000","hist_area_km2": {"325": 0.4032,"350": 1.1785,"375": 2.9613,"400": 5.1782,"425": 6.1697,"450": 8.4017,"475": 11.7945,"500": 15.0471,"525": 17.2934,"550": 18.657,"575": 21.5404,"600": 20.346,"625": 21.2773,"650": 22.1462,"675": 22.5648,"700": 23.248,"725": 21.7319,"750": 21.7335,"775": 19.2096,"800": 18.9316,"825": 17.8791,"850": 16.4223,"875": 15.7096,"900": 16.8745,"925": 16.2848,"950": 16.8274,"975": 16.2551,"1000": 15.3884,"1025": 15.1414,"1050": 13.0165,"1075": 12.5672,"1100": 11.6523,"1125": 10.7697,"1150": 9.6232,"1175": 8.5224,"1200": 8.3988,"1225": 6.2562,"1250": 5.046,"1275": 4.4564,"1300": 3.1519,"1325": 3.4473,"1350": 2.4376,"1375": 2.1892,"1400": 1.4901,"1425": 1.1948,"1450": 0.667,"1475": 0.496,"1500": 0.3876,"1525": 0.0621,"1550": 0.0622}}}