{"type": "Feature","bbox": [18.9903,44.8701,19.4585,45.2236],"geometry": {"type": "MultiPolygon","coordinates": [[[[19.1805,44.9318,97.399],[19.183,44.9344,105.0984],[19.1951,44.9375,103.5742],[19.205,44.942,91.7164],[19.2274,44.9473,97.413],[19.234,44.9462,97.2988],[19.2437,44.9379,95.800299999999993],[19.251,44.9368,80.9926],[19.2627,44.9407,80.6441],[19.2886,44.9428,102.4466],[19.3039,44.951,80.3411],[19.3197,44.9508,78.3959],[19.33,44.9488,79.3778],[19.3348,44.9505,79.6457],[19.3374,44.9666,90.6668],[19.3359,44.9696,87.2803],[19.3274,44.9768,84.8544],[19.326,44.9801,86.2835],[19.3311,44.9961,77.8953],[19.3304,45.0019,79.5345],[19.3223,45.0106,80.3565],[19.2972,45.0212,79.7318],[19.2941,45.0277,80.0488],[19.2956,45.0341,79.9453],[19.301,45.0365,79.0073],[19.3177,45.0354,79.3809],[19.3249,45.0369,78.8348],[19.3318,45.0403,78.8701],[19.3379,45.0471,80.6846],[19.3456,45.052,83.1737],[19.364,45.0562,85.8794],[19.384,45.0539,85.0779],[19.4086,45.0535,87.5259],[19.419,45.0546,87.2993],[19.4267,45.0584,88.1794],[19.442,45.0728,92.4436],[19.4416,45.0789,94.3223],[19.4497,45.0928,101.9546],[19.4496,45.1104,116.1387],[19.444,45.1225,128.4711],[19.4585,45.1483,204.834],[19.4574,45.1523,135.4174],[19.4481,45.1636,179.815],[19.4348,45.1501,191.3786],[19.4263,45.1462,211.5773],[19.4171,45.1496,203.5857],[19.3836,45.1817,206.7216],[19.3622,45.184,188.8704],[19.3439,45.172,224.1648],[19.3353,45.1735,222.9197],[19.3172,45.2027,155.4659],[19.2716,45.2154,133.5789],[19.2784,45.1877,184.3669],[19.2206,45.1921,136.849],[19.2102,45.2024,133.6212],[19.1841,45.2193,124.3383],[19.1589,45.2236,124.3014],[19.1536,45.2104,129.2149],[19.1779,45.2043,132.9871],[19.1678,45.1793,132.2614],[19.1455,45.1625,86.8637],[19.1365,45.1501,80.994],[19.128,45.1487,81.106],[19.0758,45.1565,80.697],[19.0701,45.1379,82.1692],[19.0728,45.1243,81.5365],[19.0793,45.1122,87.9604],[19.0817,45.0987,89.4581],[19.0931,45.0936,80.486],[19.0827,45.077,81.1526],[19.0869,45.0598,81.8536],[19.1011,45.0445,84.2937],[19.0978,45.029,79.9799],[19.1043,45.0191,103.0526],[19.0967,45.011,90.3975],[19.0836,45.0013,103.6391],[19.0513,44.9864,105.7405],[19.0563,44.9789,106.8651],[19.088,44.9807,106.1526],[19.1044,44.9765,104.86],[19.1355,44.9861,105.2164],[19.1437,44.9646,78.4314],[19.1601,44.9604,102.9431],[19.1498,44.9502,102.694],[19.128,44.9429,104.7399],[19.105,44.9317,94.1207],[19.0917,44.9225,97.3643],[19.0761,44.9237,80.4683],[19.0594,44.9072,82.3141],[19.0257,44.9231,82.2933],[18.9903,44.9064,82.9111],[19.0332,44.8701,82.0334],[19.0594,44.8769,81.5411],[19.0848,44.8917,81.0556],[19.1088,44.9017,107.1354],[19.1188,44.911,80.6774],[19.1346,44.9136,106.7209],[19.1466,44.9185,107.2072],[19.1693,44.9318,97.7367],[19.1805,44.9318,97.399]]]]}
,"properties": {"GID_2": "SRB.20.5_1","GID_0": "SRB","country": "Serbia","GID_1": "SRB.20_1","province": "Sremski","NL_NAME_1": "Сремски","county": "Šid","VARNAME_2": "NA","NL_NAME_2": "Шид","TYPE_2": "Opštine","ENGTYPE_2": "Town|Municipal","CC_2": "NA","HASC_2": "NA","name": "Šid.county","area_km2": 662.5695,"hist_schema_id": "Elevation0-9000","hist_area_km2": {"75": 271.4169,"100": 230.6724,"125": 48.3625,"150": 40.1426,"175": 32.8525,"200": 24.0242,"225": 11.9743,"250": 2.6159,"275": 0.5082}}}