{"type":"Feature","properties":{"GID_2":"SRB.2.3_1","GID_0":"SRB","country":"Serbia","GID_1":"SRB.2_1","province":"Braničevski","NL_NAME_1":"Браничевски","county":"MaloCrniće","VARNAME_2":"NA","NL_NAME_2":"МалоЦрниће","TYPE_2":"Opštine","ENGTYPE_2":"Town|Municipal","CC_2":"NA","HASC_2":"NA","name":"Malo_Crniće.county"},
"geometry":{"type": "MultiPolygon","coordinates": [[[[21.4653,44.5167,179.8416],[21.4386,44.5266,183.5932],[21.4193,44.5392,184.006],[21.417,44.5508,230.8237],[21.4087,44.5644,174.5785],[21.4168,44.5755,246.9554],[21.4173,44.5849,251.8517],[21.4157,44.5929,251.5926],[21.4029,44.6105,198.8375],[21.3879,44.6158,224.0075],[21.3638,44.6062,191.5072],[21.3483,44.5978,148.3808],[21.3307,44.5963,118.3102],[21.3146,44.5985,109.4005],[21.2875,44.599,104.1745],[21.2838,44.596,101.4206],[21.2843,44.5845,94.8486],[21.2794,44.5779,88.4637],[21.2647,44.5733,85.2329],[21.2443,44.5706,190.6875],[21.2242,44.5624,201.6164],[21.2232,44.5571,191.2118],[21.2308,44.5424,178.1943],[21.2283,44.5401,210.3757],[21.2185,44.538,195.894],[21.2131,44.535,205.8891],[21.2124,44.5251,137.5573],[21.2042,44.5179,82.8921],[21.2014,44.5115,81.8072],[21.2039,44.5037,82.3551],[21.214,44.4961,106.0219],[21.2233,44.4825,185.2112],[21.2325,44.477,214.5993],[21.2445,44.4619,199.1311],[21.2528,44.4571,162.6718],[21.2619,44.4543,183.9785],[21.2757,44.442,215.9494],[21.2886,44.4221,129.5645],[21.3042,44.4354,146.0845],[21.3122,44.4504,106.1066],[21.326,44.4567,102.0053],[21.3359,44.4586,105.1788],[21.3601,44.4527,173.272],[21.3726,44.4528,214.8217],[21.4013,44.4609,200.623],[21.4088,44.4655,205.5441],[21.4185,44.4748,251.0852],[21.4356,44.4815,274.3062],[21.5007,44.4896,237.9052],[21.5004,44.498,173.2809],[21.495,44.5089,265.3381],[21.4904,44.5111,239.2723],[21.4779,44.5122,219.4019],[21.4653,44.5167,179.8416]]]]}}