{"type":"Feature","properties":{"GID_2":"SRB.13.3_1","GID_0":"SRB","country":"Serbia","GID_1":"SRB.13_1","province":"Podunavski","NL_NAME_1":"Подунавски","county":"VelikaPlana","VARNAME_2":"NA","NL_NAME_2":"ВеликаПлана","TYPE_2":"Opštine","ENGTYPE_2":"Town|Municipal","CC_2":"NA","HASC_2":"NA","name":"Velika_Plana.county"},
"geometry":{"type": "MultiPolygon","coordinates": [[[[21.1246,44.4948,81.8269],[21.1159,44.4835,82.7895],[21.0949,44.4613,83.9828],[21.081,44.4545,85.7286],[21.0691,44.4535,86.2742],[21.0345,44.4649,149.7395],[21.0243,44.4648,166.3374],[21.0148,44.4609,177.439],[21.0116,44.4586,188.529],[21.0122,44.4558,191.481],[21.0238,44.4379,163.8048],[21.028199999999998,44.4336,183.5196],[21.0289,44.4309,189.0092],[21.027,44.4262,197.3999],[21.0083,44.4026,222.1528],[20.9954,44.3993,192.5196],[20.9839,44.3927,190.4289],[20.9697,44.3898,213.5988],[20.9669,44.3823,175.9353],[20.9684,44.3705,158.3658],[20.974,44.3637,135.7898],[20.9791,44.3611,149.7372],[20.9861,44.3601,99.6324],[20.991,44.3609,103.575],[21.0,44.3664,167.1434],[21.0032,44.364,173.2149],[21.0001,44.3616,143.7714],[21.0014,44.3599,137.084],[21.0207,44.3523,97.4535],[21.0258,44.3459,95.8043],[21.0285,44.3385,98.4117],[21.0269,44.3328,112.6],[21.0209,44.328,137.2353],[21.0083,44.3252,164.0835],[20.9832,44.3238,137.4862],[20.9791,44.3218,118.8793],[20.9699,44.3122,139.067],[20.9694,44.3082,166.8849],[20.974,44.2886,195.2099],[20.9704,44.2742,227.7973],[20.974,44.2656,212.983],[20.974,44.2467,169.0599],[20.9753,44.2363,162.5456],[20.9774,44.2319,157.9054],[20.9963,44.22,122.4727],[21.0202,44.2148,115.9673],[21.0515,44.2,237.117],[21.0722,44.1988,207.6282],[21.0863,44.2018,148.4411],[21.1004,44.1957,103.0748],[21.1226,44.1926,100.8922],[21.1339,44.1859,101.8129],[21.1375,44.1876,102.2968],[21.1495,44.2087,94.9463],[21.1397,44.22,99.0169],[21.1378,44.23,98.3176],[21.1269,44.2368,99.6374],[21.1213,44.2453,96.4734],[21.1208,44.252,96.1684],[21.126,44.2653,97.5879],[21.121,44.2751,95.2659],[21.1232,44.2776,98.6094],[21.1366,44.2816,95.7851],[21.1474,44.2886,95.2082],[21.1265,44.2959,95.2383],[21.125,44.2988,96.9091],[21.1337,44.3037,93.309],[21.1535,44.3075,93.8662],[21.1765,44.3145,92.1461],[21.1816,44.318,91.7959],[21.1826,44.3211,91.9026],[21.1791,44.3258,91.2132],[21.157,44.3425,90.6444],[21.15,44.3448,93.2843],[21.1318,44.3468,91.9902],[21.12,44.3507,91.2631],[21.1124,44.3546,92.0815],[21.1076,44.3602,90.2834],[21.1069,44.3645,97.5417],[21.1089,44.3702,90.7423],[21.134,44.3998,90.7119],[21.1442,44.4031,91.7397],[21.1503,44.4027,92.544],[21.1553,44.4003,87.7887],[21.1601,44.4039,87.0609],[21.1534,44.4124,88.8079],[21.1414,44.4232,86.7556],[21.1385,44.4365,86.6341],[21.142,44.4415,87.7196],[21.1564,44.4475,83.062],[21.1578,44.4506,87.6632],[21.1427,44.473,83.7638],[21.1336,44.482,82.968],[21.1246,44.4948,81.8269]]]]}}