{"type": "Feature","bbox": [19.3956,43.1483,19.8556,43.4818],"geometry": {"type": "MultiPolygon","coordinates": [[[[19.7437,43.1509,705.7153],[19.7469,43.1586,822.9717],[19.7339,43.1706,920.1479],[19.7337,43.1735,883.8062],[19.7364,43.1756,863.5316],[19.7579,43.1799,678.562],[19.805,43.1746,1006.8481],[19.8131,43.1777,1073.5045],[19.8327,43.1893,963.5931],[19.8322,43.1941,995.7313],[19.8097,43.2076,1324.604],[19.806,43.2118,1209.2471],[19.8054,43.2182,1275.5863],[19.8074,43.2265,1069.5579],[19.8052,43.2331,1237.4227],[19.8037,43.2487,1401.6914],[19.8006,43.2576,1519.4504],[19.7995,43.2728,1567.8053],[19.8021,43.2767,1543.0428],[19.8108,43.2815,1646.8947],[19.8178,43.2835,1591.5496],[19.845,43.2865,1427.0187],[19.8533,43.2928,1410.9062],[19.8556,43.2964,1390.1844],[19.853,43.3021,1334.7129],[19.8454,43.3087,1314.4058],[19.8466,43.3292,1195.6417],[19.8329,43.338,1188.9424],[19.8284,43.3522,1223.2255],[19.822,43.3594,1310.2164],[19.8183,43.3611,1438.2229],[19.7994,43.3581,1166.6906],[19.7895,43.3608,1250.501],[19.7874,43.3646,1318.9921],[19.7875,43.3759,1220.8829],[19.7833,43.3804,1351.1461],[19.7748,43.3851,1394.9548],[19.7688,43.3932,1343.277],[19.7577,43.4014,1261.2249],[19.7566,43.405,1221.071],[19.7575,43.4121,1239.2761],[19.7553,43.4171,1163.9806],[19.7371,43.4253,1066.4636],[19.7305,43.4243,1085.4664],[19.716,43.4164,1169.8937],[19.7097,43.4147,1163.4297],[19.6735,43.4214,824.4124],[19.6614,43.4304,803.0569],[19.6373,43.439,438.3055],[19.6271,43.4451,569.8296],[19.623,43.4543,765.3445],[19.6145,43.4627,806.8551],[19.6077,43.4725,839.1455],[19.604,43.4818,847.0748],[19.5817,43.4798,1091.7295],[19.5512,43.4666,1144.7427],[19.541,43.4647,1243.4363],[19.5275,43.4661,1063.806],[19.4912,43.4784,967.5762],[19.4757,43.479,715.6547],[19.4594,43.4769,1165.9999],[19.4533,43.4737,1228.6573],[19.4447,43.4644,1100.1023],[19.4386,43.4528,1264.7194],[19.4043,43.436,1124.7365],[19.4019,43.432,1200.7218],[19.4027,43.4256,1186.6714],[19.4272,43.4024,1202.7495],[19.4294,43.3963,1264.8345],[19.4257,43.3899,1267.918],[19.4114,43.3846,1261.7362],[19.3956,43.3749,1253.4293],[19.3982,43.3623,1063.5073],[19.412,43.3386,1065.4669],[19.4371,43.314,1150.2864],[19.4446,43.3102,1154.7887],[19.475,43.3007,1208.9661],[19.4828,43.2947,1254.6234],[19.4849,43.2874,1171.2637],[19.484,43.2648,1207.2131],[19.4945,43.2465,1227.1223],[19.5157,43.2323,1159.3529],[19.5476,43.2262,1271.8428],[19.5598,43.2224,1205.541],[19.566,43.2188,1296.3042],[19.5872,43.1978,1251.5391],[19.5965,43.1792,994.1312],[19.6052,43.174,930.7449],[19.6266,43.1684,872.018],[19.6447,43.1577,1114.4312],[19.684,43.1535,1310.2147],[19.7071,43.1483,1196.5461],[19.7437,43.1509,705.7153]]]]}
,"properties": {"GID_2": "SRB.25.8_1","GID_0": "SRB","country": "Serbia","GID_1": "SRB.25_1","province": "Zlatiborski","NL_NAME_1": "Златиборски","county": "Prijepolje","VARNAME_2": "NA","NL_NAME_2": "Пријепоље","TYPE_2": "Opštine","ENGTYPE_2": "Town|Municipal","CC_2": "NA","HASC_2": "NA","name": "Prijepolje.county","area_km2": 860.5089,"hist_schema_id": "Elevation0-9000","hist_area_km2": {"425": 0.308,"450": 7.7065,"475": 6.3674,"500": 7.8659,"525": 8.9315,"550": 9.9179,"575": 11.1358,"600": 12.4172,"625": 12.4941,"650": 14.2689,"675": 15.3638,"700": 16.5989,"725": 17.0306,"750": 18.1111,"775": 17.6786,"800": 18.6971,"825": 18.3714,"850": 19.3439,"875": 20.0071,"900": 20.2064,"925": 21.1801,"950": 21.1659,"975": 22.5235,"1000": 24.0186,"1025": 25.0226,"1050": 24.3889,"1075": 27.148,"1100": 28.4246,"1125": 31.8467,"1150": 32.6943,"1175": 33.5728,"1200": 41.8349,"1225": 58.6646,"1250": 51.8573,"1275": 34.9421,"1300": 24.7326,"1325": 18.7641,"1350": 15.1375,"1375": 11.8508,"1400": 8.5951,"1425": 6.2185,"1450": 4.7375,"1475": 4.0898,"1500": 3.7965,"1525": 4.2287,"1550": 3.3182,"1575": 1.8211,"1600": 0.5557,"1625": 0.2778,"1650": 0.1698,"1675": 0.108}}}