{"type": "Feature","bbox": [20.1648,45.5984,20.6634,45.988],"geometry": {"type": "MultiPolygon","coordinates": [[[[20.5567,45.9078,80.8336],[20.5481,45.9062,80.3487],[20.5512,45.9003,80.2286],[20.5174,45.8924,78.7025],[20.5034,45.911,78.7234],[20.4845,45.9538,79.8717],[20.475,45.9583,78.633],[20.4489,45.9706,79.0719],[20.407,45.9656,78.6878],[20.3938,45.9735,77.2141],[20.3771,45.9698,77.2072],[20.3682,45.9695,77.2517],[20.3556,45.974,77.172],[20.3357,45.9854,78.1898],[20.3223,45.988,78.4848],[20.3173,45.9876,77.9436],[20.3137,45.9855,78.1112],[20.3002,45.9708,78.3314],[20.2993,45.9641,78.0537],[20.3009,45.9567,78.4929],[20.2996,45.9531,77.3724],[20.2862,45.9437,78.6238],[20.2839,45.9395,77.3894],[20.2858,45.9254,79.0292],[20.2939,45.9124,77.867],[20.2916,45.9031,76.6455],[20.2732,45.8945,76.8246],[20.2448,45.8854,76.6042],[20.2327,45.8749,76.5],[20.232,45.869,79.1055],[20.2399,45.8534,76.3567],[20.2414,45.8452,76.0124],[20.2402,45.837,75.5142],[20.2331,45.8175,79.8169],[20.2271,45.8127,77.3742],[20.2071,45.8031,77.5759],[20.1648,45.7918,76.1106],[20.1768,45.7889,75.6117],[20.223,45.7852,75.3467],[20.2548,45.7853,76.216],[20.3003,45.7908,75.971],[20.3134,45.7889,79.2226],[20.3244,45.7854,78.3195],[20.3446,45.7904,78.3216],[20.3496,45.7885,78.3908],[20.353,45.775,78.248],[20.3599,45.7577,78.0827],[20.3706,45.7405,77.3543],[20.3809,45.7293,77.8235],[20.3854,45.7184,77.9087],[20.3901,45.7157,75.7684],[20.4013,45.7152,77.4978],[20.4079,45.7132,77.1562],[20.4218,45.7041,77.2422],[20.4241,45.7007,76.8267],[20.4108,45.6898,77.4408],[20.4068,45.6769,75.9168],[20.4001,45.6746,76.2859],[20.3838,45.6762,77.2912],[20.3774,45.6706,77.8812],[20.3629,45.6624,77.9076],[20.3505,45.6592,74.9573],[20.3447,45.6622,75.8627],[20.3439,45.6681,76.6904],[20.3485,45.6733,75.6796],[20.3495,45.6775,77.9254],[20.3485,45.6804,77.8342],[20.3362,45.675,77.3688],[20.3318,45.6705,74.857],[20.331,45.6622,74.7611],[20.3362,45.6558,77.2191],[20.3434,45.6546,76.9181],[20.3492,45.6508,77.1975],[20.3553,45.6422,77.2905],[20.3539,45.6387,76.3747],[20.3501,45.6361,76.0542],[20.3337,45.6342,77.6636],[20.3301,45.6319,77.5874],[20.3236,45.6137,77.7968],[20.3414,45.6095,78.1077],[20.3485,45.6025,78.9697],[20.3624,45.5984,77.597],[20.3968,45.6065,77.9862],[20.413,45.6088,77.5941],[20.4319,45.6145,77.5423],[20.4783,45.6143,75.4291],[20.5038,45.6096,76.3782],[20.5291,45.6131,76.2493],[20.521,45.6212,76.2174],[20.516,45.6294,75.9829],[20.509,45.6355,75.3264],[20.5044,45.6455,75.3982],[20.4982,45.6538,75.1767],[20.4998,45.6629,76.2162],[20.5063,45.6763,75.4837],[20.5122,45.6816,75.7767],[20.5315,45.6899,76.4969],[20.5554,45.706,76.3562],[20.5635,45.7059,76.2976],[20.5881,45.6997,75.0637],[20.6185,45.703,77.8455],[20.6203,45.7063,75.9935],[20.6191,45.7302,76.8291],[20.623,45.7429,76.0477],[20.6289,45.7529,77.3482],[20.6424,45.7616,76.6872],[20.6445,45.7653,76.9197],[20.6415,45.7746,77.3425],[20.6317,45.7839,78.6944],[20.6306,45.7871,79.7012],[20.642,45.7938,79.502],[20.6487,45.8018,79.0969],[20.6528,45.7969,78.6044],[20.6619,45.7943,79.0119],[20.6634,45.7965,79.2456],[20.6586,45.8084,79.0316],[20.6564,45.8077,79.5954],[20.6522,45.8121,81.0864],[20.662,45.8295,81.1724],[20.6133,45.8643,79.3574],[20.6005,45.8621,79.5906],[20.596,45.8721,82.6029],[20.5831,45.8697,82.358],[20.5795,45.8772,81.8606],[20.5769,45.8791,81.445],[20.5784,45.8796,81.445],[20.5762,45.8843,82.3579],[20.5804,45.8853,82.2424],[20.5709,45.9105,81.858],[20.5567,45.9078,80.8336]]]]}
,"properties": {"GID_2": "SRB.18.4_1","GID_0": "SRB","country": "Serbia","GID_1": "SRB.18_1","province": "Severno-Banatski","NL_NAME_1": "Севернобанатски","county": "Kikinda","VARNAME_2": "Kekenda|Nagykikinda|ChichindaMa","NL_NAME_2": "Кикинда|Кекенда","TYPE_2": "Opštine","ENGTYPE_2": "Town|Municipal","CC_2": "NA","HASC_2": "NA","name": "Kikinda.county","area_km2": 816.6281,"hist_schema_id": "Elevation0-9000","hist_area_km2": {"50": 0.2956,"75": 816.2734,"100": 0.0591}}}